name,region,address,type1,type2,lon,lat
합정 공영주차장,평택시,경기 평택시 평택3로17번길 27 1~4층,실내,지상,127.0911773,36.99096987
통복시장 공영주차장,평택시,경기 평택시 통복동 69-1,실내,지상,127.085408,36.99741664
삼성전자 평택캠퍼스 사무복합동 주차타워,평택시,경기 평택시 삼성로 111,실내,지상,127.0528466,37.03184181
원평제2공영주차장,평택시,경기 평택시 원평로52번길 10,실외,노외,127.08413635561487,36.99101021303145
국제중앙시장 제2공영주차장,평택시,경기 평택시 쇼핑로 36-14,실내,지상,127.0533842,37.08051757
자란공영주차장,평택시,경기 평택시 중앙로 53,실내,지상,127.08942571585172,36.99456382
안정리쇼핑몰 공영주차장,평택시,경기 평택시 팽성읍 안정순환로 107,실외,야외시설,127.0436893809088,36.95805583900978
서정리역 지하 공영주차장,평택시,경기 평택시 고덕갈평로 86,실내,지하,127.0512677,37.05723751
원평제1공영주차장,평택시,경기 평택시 원평로 30,실외,노외,127.08570347691244,36.98909338818011
내리문화공원 주차장,평택시,경기 평택시 팽성읍 내리 260,실외,야외시설,127.0280433,36.97516086
소사벌상업지역제1공영주차장,평택시,경기 평택시 비전동 1099,실외,노외,127.1151151,37.00091441
평택지제역 공영주차장,평택시,경기 평택시 경기대로 777,실외,노외,127.0698249,37.01878992
신장쇼핑몰 제3공영주차장,평택시,경기 평택시 신장로 64-1,실내,지상,127.04994524503768,37.08082273
AK플라자 평택 주차장,평택시,경기 평택시 평택로 51,실내,지상,127.0855126,36.99119305
굿모닝병원 주차장,평택시,경기 평택시 소사2길 22,실내,지상,127.1216741,36.98885652
서정관광특구 공영주차장,평택시,경기 평택시 서정동 817-1,실내,지상,127.0621488,37.06707022
평택동공영주차장,평택시,경기 평택시 평택로75번길 12,실외,노외,127.083920137644,36.99358476107105
SRT지제역 주차장,평택시,경기 평택시 지제동 193-1,실외,노외,127.0692396,37.01971856
통복지구 공영주차장,평택시,경기 평택시 통복길 10,실내,지상,127.0826301,36.99732696
고덕제1공영주차장,평택시,경기 평택시 고덕동 2161-3,실내,지상,127.0495936,37.03988379
삼성반도체 평택캠퍼스 기술인 주차장,평택시,경기 평택시 고덕동 산 253,실외,야외시설,127.0489279,37.06556676
시계탑 주차장쏘울파크,평택시,경기 평택시 비전5로 21,실내,지상,127.1135817,37.00073901
만세해장국밥 평택본점 주차장,평택시,경기 평택시 죽백동 522-10,실외,건물주변,127.1094325,37.01123582
영빈루 전용주차장,평택시,경기 평택시 탄현로 341,실외,건물주변,127.0563144,37.08275087
국제중앙시장 제1공영주차장,평택시,경기 평택시 중앙시장로 32,실외,노상,127.05379655674584,37.08000377508368
JC공원지하 공영주차장,평택시,경기 평택시 평택동 38 지하,실내,지하,127.0881495,36.99350691
평택지제역 노상공영주차장,평택시,경기 평택시 지제동 37-9,실외,노상,127.0686099,37.01905915
고1부지공영주차장,평택시,경기 평택시 고덕동 2114,실외,노외,127.0503065,37.04377425
하이파킹 고덕금호STV더라이브 주차장,평택시,경기 평택시 고덕면 도시지원1길 29,미분류,미분류,127.0147178,37.0265345
송탄최네집부대찌개 본점 주차장,평택시,경기 평택시 경기대로 1401,실외,건물주변,127.0640866,37.07024367
송탄시장 제2공영주차장,평택시,경기 평택시 지산동 757-23,실외,노외,127.0575426,37.08051941
소사벌 제2공영주차장,평택시,경기 평택시 죽백동 799,실외,노외,127.1153569,37.00304371
중앙로 공영주차장,평택시,경기 평택시 평택동 43-1,미분류,미분류,127.0886261,36.99289742
부락산공영주차장,평택시,경기 평택시 경기대로 1414,실외,노외,127.06548486931077,37.07091960984473
신장쇼핑몰 제2공영주차장,평택시,경기 평택시 신장동 298-252,실외,노외,127.0494342,37.07910866
송탄역공영주차장,평택시,경기 평택시 신장동 264-8,실외,노외,127.0538813,37.07557687
평택중앙장례식장 민영 주차장,평택시,경기 평택시 장당동 77-2,실내,지상,127.0692792,37.03585918
배미공원지하 공영주차장,평택시,경기 평택시 합정동 969,실내,지하,127.1129624,36.98857543
통복공영주차장,평택시,경기 평택시 평택1로 55,실내,지상,127.08780532446988,36.99706463592551
소풍정원 주차장,평택시,경기 평택시 고덕면 궁리 502-8,실외,야외시설,127.0186512,37.01204306
팽성 제1공영주차장,평택시,경기 평택시 팽성읍 안정리 212,실외,노외,127.0460091,36.95719289
진위역 주차장,평택시,경기 평택시 진위면 경기대로 1855,미분류,미분류,127.062369379207,37.10993846
안중전통 공영주차장,평택시,경기 평택시 안중읍 안현로서3길 32,실내,지상,126.9279368,36.98776263
이마트 평택점 주차장,평택시,경기 평택시 영신로 29,실외,건물주변,127.0755392,37.02111761
메인스트리트 주차장,평택시,경기 평택시 포승읍 만호리 697-19,실외,야외시설,126.8548134,36.96298012
훈장골 평택점 주차장,평택시,경기 평택시 비전3로 157,실내,지상,127.1169643,37.0078202
연세로이외과 전용주차장,평택시,경기 평택시 합정동 967-4,실내,지상,127.1147423,36.98955996
함박산중앙공원 주차장,평택시,경기 평택시 고덕동 2688,실외,야외시설,127.0339695,37.03946552
서정시장 공영주차장,평택시,경기 평택시 서정역로 37,실내,지상,127.05552101297688,37.057415813017066
성경기업마트 주차장,평택시,경기 평택시 비전동 47-12,실외,건물주변,127.1074563,37.00953557
하이파킹 NC백화점 평택점 주차장,평택시,경기 평택시 경기대로 279,실내,지하,127.1123352,36.99577253
갈평주차장,평택시,경기 평택시 고덕동 산 249,실외,야외시설,127.0479837,37.06639451
안중공영버스터미널주차장,평택시,경기 평택시 안중읍 현화리 838,실외,노외,126.9233363,36.97767625
중앙동 제1공영주차장,평택시,경기 평택시 서정동 343-9,실외,노외,127.0553236,37.05521711
소사벌레포츠타운 주차장,평택시,경기 평택시 평남로 616,실외,건물주변,127.1050904,36.98750542
군문 공영주차장,평택시,경기 평택시 군문동 353,실외,노외,127.0874067,36.98758508
나이스파크 평택터미널 주차장,평택시,경기 평택시 평택로 31,실외,건물주변,127.087865,36.99036774
중앙동제2공영주차장,평택시,경기 평택시 이충동 468-5,실외,노외,127.0565543,37.05622311
신장근린공원 주차장1,평택시,경기 평택시 신장동 371-1,실외,야외시설,127.0514521,37.08488501
홈플러스 송탄점 주차장,평택시,경기 평택시 경기대로 1103,실내,지상,127.0598037,37.04483113
부락산문화공원 주차장,평택시,경기 평택시 지산동 1263,실외,야외시설,127.0738453,37.07128621
스타벅스 평택청북DT점 주차장,평택시,경기 평택시 청북읍 안청로2길 86,실외,건물주변,126.914955,37.02016675
평택시청 주차장2,평택시,경기 평택시 경기대로 245,실외,건물주변,127.1128812,36.99200819
신장육교 공영주차장,평택시,경기 평택시 신장동 274-159,미분류,미분류,127.0527629,37.07931366
서재 제1공영주차장,평택시,경기 평택시 서재로 26-82,실외,노외,127.0993663,37.00983889
나이스파크 SRT평택지제역 주차장,평택시,경기 평택시 지제동 193-2,실외,노외,127.0696738,37.0197356
서재 제2공영주차장,평택시,경기 평택시 서재3길 6,실외,노외,127.0940229,37.01035533
신장공영주차장,평택시,경기 평택시 신장동 214-5,실외,노상,127.0556895,37.08149318
비전공영주차장,평택시,경기 평택시 비전동 629-1,실외,노외,127.0887391,36.99746952
천지연 평택고덕지구점 주차장,평택시,경기 평택시 돌우물길 13,실외,건물주변,127.069313,37.05384913
함박산중앙공원 방문자센터 주차장,평택시,경기 평택시 고덕동 2687,실외,야외시설,127.0292226,37.04255098
박애병원 주차장,평택시,경기 평택시 자유로3번길 22,실내,지상,127.0895306,36.99297604
포승공단임시주차장,평택시,경기 평택시 포승읍 도곡리 1127-1,실외,노외,126.8459331,36.98601032
서정리역 주차장,평택시,경기 평택시 탄현로 51,실외,노외,127.0533853,37.05645895
서두물공영주차장,평택시,경기 평택시 서정동 159-100,실외,야외시설,127.061473,37.06510002
평택가로수길센트럴돔 주차장,평택시,경기 평택시 비전5로 10,실내,지하,127.1125683,36.99919462
송탄시장 제1공영주차장,평택시,경기 평택시 송탄로 432-1,실내,지상,127.0582844,37.08229217
정동주차장,평택시,경기 평택시 평택동 193-2,실외,노외,127.0880595,36.98972251
에스타워프라임,평택시,경기 평택시 고덕면 서동대로 2651,실외,노상,127.0342932,37.01665193
이충레포츠공원 주차장,평택시,경기 평택시 이충동 262-4,실외,건물주변,127.0705139,37.06520123
통복장터 공영주차장,평택시,경기 평택시 통복동 64-1,실외,노상,127.0830557,36.99743047
함박산중앙공원 음악분수 주차장,평택시,경기 평택시 고덕로 310,미분류,미분류,127.0345526,37.03929144
갈평로 주차장,평택시,경기 평택시 고덕동 627,미분류,미분류,127.0508868,37.06512116
스타벅스 평택이충DT점 주차장,평택시,경기 평택시 이충동 76-3,실외,건물주변,127.0771132,37.0519108
롯데마트 평택점 주차장,평택시,경기 평택시 평택5로 30,실내,지상,127.1115698,36.98856098
배미공영주차장,평택시,경기 평택시 합정동 973-9,실외,노외,127.1138575,36.98815188
카카오 T 금성출판사 주차장,평택시,경기 평택시 고덕면 방축길 228,실외,건물주변,127.0538118,37.02354064
SBC비즈니스센터 주차장,평택시,경기 평택시 고덕여염로 118,실내,지하,127.0549701,37.04363278
안중농협하나로마트 본점 주차장,평택시,경기 평택시 안중읍 송담1로 17,실내,지하,126.9256912,36.97632188
투루파킹 원희캐슬고덕지식산업센터점 주차장,평택시,경기 평택시 고덕중앙로 320,미분류,미분류,127.0553411,37.04436329
스타벅스 평택안중DT점 주차장,평택시,경기 평택시 안중읍 서동대로 1459,실외,건물주변,126.9133932,36.99086904
연세다움병원 주차장,평택시,경기 평택시 중앙로 105,실내,지상,127.0949775,36.99373953
평택스테이호텔2주차장,평택시,경기 평택시 평택동 64-2,미분류,미분류,127.0864409,36.99374704
한샘할인마트 청북점 주차장,평택시,경기 평택시 청북읍 청북남로 260,실내,지상,126.9156287,37.01964371
평택남부 노상공영주차장,평택시,경기 평택시 평택동 300,실외,노상,127.089127,36.99166905
해뜨르다 제2주차장,평택시,경기 평택시 고덕면 해창리 267-3,실외,건물주변,127.0203422,37.02203765
여술근린공원 주차장,평택시,경기 평택시 포승읍 도곡리 1128,실외,야외시설,126.843312,36.99086967
갈평고가하부 노상공영주차장,평택시,경기 평택시 서정동 434-11,실외,노상,127.0541082,37.0607207
송탄농협하나로마트 본점 주차장,평택시,경기 평택시 서정동 270-21,실외,건물주변,127.0570144,37.05765037
안일공영주차장,평택시,경기 평택시 안중읍 안중리 281-21,실외,노외,126.9294074,36.98795157
한국소리터 주차장,평택시,경기 평택시 현덕면 평택호길 159,실외,건물주변,126.9216911,36.92113476
스타벅스 평택죽백DT점 주차장,평택시,경기 평택시 만세로 1707,실외,건물주변,127.1132877,37.01385632
비전동노외임시공영주차장,평택시,경기 평택시 비전동 1058,실외,노외,127.1129231,37.00325897
나이스파크 평택 로데오1103 주차장,평택시,경기 평택시 비전5로 20-24,미분류,미분류,127.1141665,36.99887501
노상공영주차장,평택시,경기 평택시 포승읍 도곡리 1164,실외,노상,126.8418436,36.98861979
공영주차장,평택시,경기 평택시 합정동 868-4,실외,노외,127.1157137,36.98958695
우리은행 평택금융센터 주차장,평택시,경기 평택시 중앙로 31,실외,건물주변,127.0866033,36.99508764
평택공설운동장 주차장2,평택시,경기 평택시 평남로 616,실외,야외시설,127.1054349,36.98808271
평택해장왕 주차장,평택시,경기 평택시 서정동 788-3,실외,건물주변,127.0583728,37.07052865
서정시장 노상 공영 주차장,평택시,경기 평택시 서정동 322-4,실외,노상,127.0550509,37.05700343
다연빌딩 민영 주차장,평택시,경기 평택시 용이동 720,실내,지상,127.1262354,36.99336646
송탄중앙침례교회 주차장,평택시,경기 평택시 지산천로 74,실외,건물주변,127.0594784,37.0831503
경기주차장,평택시,경기 평택시 평택1로 16,미분류,미분류,127.0873684,36.99323986
현화제1공영주차장,평택시,경기 평택시 안중읍 현화리 852,실외,노외,126.9275543,36.98357839
브라운도트호텔 주차장,평택시,경기 평택시 신장동 323-24,골목길,주택가,127.0525411,37.08131828
송탄역 주차장,평택시,경기 평택시 신장동 248-52,실외,야외시설,127.0547444,37.07473028
탄현 공영주차장,평택시,경기 평택시 신장동 252-1,실외,노외,127.0557112,37.07370747
세교공영주차장,평택시,경기 평택시 세교동 559-3,미분류,미분류,127.0829574,37.00014577
뉴코아주차빌딩,평택시,경기 평택시 비전동,실내,지상,127.0952512,37.00060916
카라반파크172,평택시,경기 평택시 팽성읍 팽성서로 172 1층,미분류,미분류,127.0099404,36.95682518
세교동행정복지센터 주차장1,평택시,경기 평택시 세교3로 37,미분류,미분류,127.082753,36.99982918
빵과당신 주차장,평택시,경기 평택시 만세로 1720-4,실외,건물주변,127.1117122,37.01383178
나이스파크 평택 중앙식자재마트 주차장,평택시,경기 평택시 문화촌로19번길 24,미분류,미분류,127.1148129,36.99771379
이충레포츠공원 주차장2,평택시,경기 평택시 이충동 산 19-11,실외,야외시설,127.0715667,37.06558986
송탄공영주차장,평택시,경기 평택시 탄현로 399,실외,노외,127.0607272,37.08785956
투루파킹 평택비전주차타워 주차장,평택시,경기 평택시 비전7길 42,실내,지상,127.10437,37.0028605
제이스 주차장,평택시,경기 평택시 평택로 42,실외,노외,127.0873029,36.99152344
서정동 제1 노상 공영 주차장,평택시,경기 평택시 서정동 924,실외,노상,127.0634562,37.06902486
하이웨이마트 송탄지산점 주차장,평택시,경기 평택시 송탄공원로 91,실외,건물주변,127.0593083,37.07561564
솔믹스 주차장,평택시,경기 평택시 팽성읍 추팔산단로 107,실외,야외시설,127.0770391,36.95742795
삼성전자 평택캠퍼스 임직원주차장,평택시,경기 평택시 고덕동 1695,실외,노외,127.0531632,37.03561754
서정충혼탑공영주차장,평택시,경기 평택시 송일로 14,실외,야외시설,127.0601235057308,37.06265060671484
송신초등학교 주차장,평택시,경기 평택시 송월로32번길 32,실외,건물주변,127.0512007,37.07470663
삼성물산 주차장,평택시,경기 평택시 고덕동 1696,실외,야외시설,127.0459566,37.03476056
아카이브 주차장,평택시,경기 평택시 오성면 당거리 368-1,실외,건물주변,126.9772115,36.98914142
안중송담지구 제1공영주차장,평택시,경기 평택시 안중읍 송담리 853-7,실외,노외,126.9266657,36.97702786
해운대연탄생갈비 포승점 제1주차장,평택시,경기 평택시 포승읍 원정리 476-1,실외,건물주변,126.8445956,36.99201168
투루파킹 평택TS one 주차장,평택시,경기 평택시 비전2로 195,실내,지상,127.1121086527305,37.00138017737027
어반센터프라자 주차장,평택시,경기 평택시 고덕갈평5길 28,실내,지하,127.0483418,37.05640525
매봉공영주차장,평택시,경기 평택시 평택4로 98,실외,노외,127.10283625474692,36.99606497932397
매일유업평택공장 주차장,평택시,경기 평택시 진위면 견산리 386-2,실외,건물주변,127.0702918,37.10777588
송탄역1번출구 주차장,평택시,경기 평택시 송탄1로 42,실내,지상,127.054773,37.07692014
맥도날드 평택GS 주차장,평택시,경기 평택시 서동대로 3929,실외,건물주변,127.1427743,36.99627236
다미올주차빌딩,평택시,경기 평택시 현신1길 5,실내,지상,127.1361852,36.99415084
삼성고덕 신규주차장,평택시,경기 평택시 고덕동 1721,미분류,미분류,127.0467881,37.02641842
안중 제1공영주차장,평택시,경기 평택시 안중읍 안중리 302-7,실외,야외시설,126.929883,36.98548991
더빅바이트 주차장,평택시,경기 평택시 팽성읍 안정리 108-63,실외,건물주변,127.0443407,36.96364054
이충동 공영주차장,평택시,경기 평택시 이충로 84-6,실외,노외,127.0672162,37.06409663
유박사칼국수 주차장,평택시,경기 평택시 팽성읍 원정리 130-95,실외,건물주변,127.0415168,36.9705948
양평해장국 청북점 주차장,평택시,경기 평택시 청북읍 광승길 6,실외,건물주변,126.9324242,37.04736709
행운주차장,평택시,경기 평택시 평택로39번길 17-13,실외,노외,127.0875721,36.98959663
호커스포커스로스터스 주차장,평택시,경기 평택시 장안웃길 12,실외,건물주변,127.0763006,37.06345678
평택보건소 주차장1,평택시,경기 평택시 평택5로 56,실외,건물주변,127.1115941,36.99060011
평택시청안중출장소 주차장1,평택시,경기 평택시 안중읍 학현리 488-10,실외,건물주변,126.9206889,36.99050253
하이웨이식자재마트 통복점 주차장,평택시,경기 평택시 통복동 420-2,실외,건물주변,127.0792165,36.98902419
서정교회 주차장,평택시,경기 평택시 서두물로35번길 28,미분류,미분류,127.0552846,37.06005427
사리당카페 주차장,평택시,경기 평택시 서탄면 사리 768-1,실외,야외시설,127.0479663,37.11718431
안중제2공영주차장,평택시,경기 평택시 안중읍 안중리 293-36,실외,노상,126.9301276,36.98750344
나이스파크 토이스타 평택점 주차장,평택시,경기 평택시 신흥1로 70,미분류,미분류,127.1431661,37.00351866
부일프라자,평택시,경기 평택시 만세로 1845-4,미분류,미분류,127.1042285,37.00383389
우리타워 주차장,평택시,경기 평택시 평남로 929,실내,지상,127.10491042168611,37.00370794394222
고덕신도시 주차장,평택시,경기 평택시 고덕면 방축리 284-1,미분류,미분류,127.0502825,37.02284043
모던파킹,평택시,경기 평택시 어인남로8번길 4,미분류,미분류,127.0984493,36.99338185
세교지구 공영주차장,평택시,경기 평택시 세교동 614-1,실외,노외,127.0884119,37.00657826
평택호휴게소외부입주민주차장,평택시,경기 평택시 현덕면 권관리 243-3,실외,야외시설,126.9187476,36.92490386
연세다움병원 제2주차장,평택시,경기 평택시 비전로48번길 21,미분류,미분류,127.0961182,36.99411616
등촌샤브칼국수 비전점 주차장,평택시,경기 평택시 비전5로 20-26,실내,지하,127.1146034,36.99884756
한마음주차장,평택시,경기 평택시 통복동 94-10,실내,지상,127.0857287,36.99658317
지산초록공원 제1주차장,평택시,경기 평택시 지산동 산 182-3,실외,야외시설,127.0598689,37.07866521
안중 제1 공영주차장,평택시,경기 평택시 안중읍 안중로 115,실외,야외시설,126.929317,36.98886621
나이스파크 시티오브드림 주차장,평택시,경기 평택시 고덕여염9길 20,미분류,미분류,127.0488984407796,37.03914222421363
국제대학교 국제관 주차장,평택시,경기 평택시 장안웃길 56,실외,건물주변,127.0808008,37.06595878
맥도날드 평택세교DT점 주차장,평택시,경기 평택시 경기대로 570,실외,건물주변,127.0844706,37.00542351
LG전자 주차장,평택시,경기 평택시 진위면 청호리 367,미분류,미분류,127.0943478,37.12580092
불난버섯집 주차장,평택시,경기 평택시 고덕면 고덕북로 63,실외,건물주변,127.0329884,37.07422922
서부공설운동장 주차장1,평택시,경기 평택시 청북읍 후사리 285-8,실외,야외시설,126.9433472,37.02968467
꿈의도시두드림 주차장,평택시,경기 평택시 통복시장로6번길 37,실내,지상,127.0868263,36.99562993
안정주차장,평택시,경기 평택시 팽성읍 안정순환로 119,실외,건물주변,127.042502,36.95905648
농성공영주차장,평택시,경기 평택시 팽성읍 안정리 42-14,실외,노외,127.0456298,36.96454655
홈플러스평택안중점 주차장,평택시,경기 평택시 안중읍 서동대로 1489,실외,건물주변,126.9158925,36.99030919
안정리 임시공영주차장,평택시,경기 평택시 팽성읍 안정리 40-2,미분류,미분류,127.0462394,36.96217564
평택농업기술센터 주차장,평택시,경기 평택시 오성면 청오로 33-58,실외,건물주변,126.9804439,37.01419803
경기제일신협 주차장,평택시,경기 평택시 안중읍 안중리 307-28,실외,건물주변,126.9290945,36.98423198
하이파킹 평택슬로진위 주차장,평택시,경기 평택시 진위면 진위2산단로 15-35,미분류,미분류,127.0664946,37.12230062
공영주차장,평택시,경기 평택시 팽성읍 안정리 39-9,미분류,미분류,127.0459025,36.96188787
썬앤문주차타워 주차장,평택시,경기 평택시 고덕여염7길 21,실내,지상,127.0473434,37.03830305
나이스파크 카페 베네 송탄출장소 주차장,평택시,경기 평택시 관광특구로 32,실외,노상,127.0622415,37.0664852
대창P타워 민영 주차장,평택시,경기 평택시 고덕중앙로 200-5,미분류,미분류,127.0448732,37.04737136
아마노 시계탑주차장,평택시,경기 평택시 비전5로 21,실외,건물주변,127.1135817,37.0007354
평택호관광지 주차장3,평택시,경기 평택시 현덕면 권관리 536-49,실외,야외시설,126.9106311,36.91507728
그랜드메디컬타워 주차장,평택시,경기 평택시 고덕갈평5길 32,실내,지하,127.0475626,37.05640286
로이드빌딩 주차장,평택시,경기 평택시 평남로 862,미분류,미분류,127.1114917,37.00046526
Tmap주차 함박산프라자 주차장,평택시,경기 평택시 고덕로3길 27,실내,지하,127.02638612125982,37.03811312818335
Tmap주차 서부환경지제동 민영 주차장,평택시,경기 평택시 지제로 72,미분류,미분류,127.0640736,37.0209071
평택항 임시화물공영주차장,평택시,경기 평택시 포승읍 만호리 340-21,실외,노상,126.8533998,36.95316346
밥심 주차장,평택시,경기 평택시 고덕면 방축리 388,실외,건물주변,127.0416663,37.02363329
평택시송탄출장소 1주차장,평택시,경기 평택시 경기대로 1366,실외,건물주변,127.0645057,37.06586423
지산제1공영주차장,평택시,경기 평택시 지산2로 86,실내,지상,127.06129947220136,37.07926035605948
가이아프레지던스 주차장,평택시,경기 평택시 지산로 10,실내,지하,127.05590889791397,37.07886835080419
서정공영주차장,평택시,경기 평택시 서정동 874-7,실외,야외시설,127.0548169,37.06474817
덕심공빌딩 주차장,평택시,경기 평택시 용죽5길 10,실내,지상,127.1262876,36.99367971
합정3-4공영주차장,평택시,경기 평택시 합정동 924-3,실외,노외,127.1008818,36.98867408
에이치엠,평택시,경기 평택시 고덕면 방축3길 47,미분류,미분류,127.0419653,37.0210498
태강주차타워,평택시,경기 평택시 서재6길 2-3,실내,지상,127.0968571,37.00899512
안중백병원 주차장2,평택시,경기 평택시 안중읍 서동대로 1931-21,실외,건물주변,126.9589247,37.00378685
미투빌딩 주차장,평택시,경기 평택시 비전5로 22,실내,지하,127.11418057594504,37.00004370024199
수원지방검찰청평택지청 주차장,평택시,경기 평택시 평남로 1040,실내,지상,127.09574411165026,37.01025393543134
안중송담제2공영주차장,평택시,경기 평택시 안중읍 송담리 843-6,실외,노외,126.9270159,36.9790794
나이스파크 평택BYC 주차장,평택시,경기 평택시 비전동 844-1,실외,야외시설,127.1131505,36.99396094
평택프리미엄아울렛 주차장,평택시,경기 평택시 경기대로 945,실내,지하,127.06947664364324,37.03372820244421
스타주차타워,평택시,경기 평택시 모산영신2길 34 2~4층,실내,지상,127.0884477,37.0181918
깔끔이 고덕동 2186-1 나대지 민영 주차장,평택시,경기 평택시 고덕동 2186-1,실외,노외,127.0473433,37.04107107
합정3-2공영주차장,평택시,경기 평택시 합정동 898-14,실외,건물주변,127.1054456,36.99009247
엔에프써밋스퀘어고덕 주차장,평택시,경기 평택시 고덕중앙로 200-18,미분류,미분류,127.0448924,37.0468617
디어아롬 주차장,평택시,경기 평택시 용이동 444-3,실외,건물주변,127.1361889,36.99812344
이충레포츠공원 지하주차장,평택시,경기 평택시 이충동 산 19-11,실내,지하,127.0723761,37.06536951
"나이스파크 평택 센텀스카이 1,2주차장",평택시,경기 평택시 중앙2로 13,미분류,미분류,127.0885293,36.99196793
하이파킹 평택송탄역클래시아 주차장,평택시,경기 평택시 탄현로 261,미분류,미분류,127.0549497,37.07591509
신장근린공원 주차장2,평택시,경기 평택시 신장동 338,실외,야외시설,127.0520238,37.08404559
키네틱시네마 주차장,평택시,경기 평택시 관광특구로 19,실외,노상,127.0609078,37.06725126
서정전통 공영주차장,평택시,경기 평택시 정암로 11,실외,노상,127.0551543,37.05714116
성심주차장,평택시,경기 평택시 통복시장2로 42,실외,건물주변,127.0872418,36.99550798
송화1리 임시공영주차장,평택시,경기 평택시 팽성읍 송화리 788-2,실외,노외,127.059355,36.96225343
삼성생명평택빌딩 주차장,평택시,경기 평택시 평택2로 34,미분류,미분류,127.0899358,36.9936975
인화루 주차장,평택시,경기 평택시 탄현로 283,실외,건물주변,127.0551506,37.07787338
안중송담제3공영주차장,평택시,경기 평택시 안중읍 안중리 463-5,실외,노외,126.9329375,36.98332961
참사랑요양원 전용주차장,평택시,경기 평택시 합정동 974-5,실외,건물주변,127.114871,36.98911497
퍼스트건물관리,평택시,경기 평택시 신장1로17번길 22,실내,지상,127.0507871,37.08261181
좌율 공영주차장,평택시,경기 평택시 이충동 591-1,실외,노외,127.0674652,37.0644015
서정 제3 공영주차장,평택시,경기 평택시 서정로 229,실외,노상,127.0587709,37.06607626
서정 제4공영주차장,평택시,경기 평택시 정암로 23,실외,노상,127.0564426,37.05699368
트럭헬퍼 화물차주차장 평택 도곡리점,평택시,경기 평택시 포승읍 도곡리 943-33,실외,노외,126.8789381,36.98419737
깔끔이주차장,평택시,경기 평택시 고덕동 2183-7,실외,노외,127.0472058,37.04176378
퀸즈주차타워,평택시,경기 평택시 비전9길 12-12,실내,지상,127.1097288,37.00269708
파주옥 주차장,평택시,경기 평택시 비전동 47-10,실외,건물주변,127.1058823,37.00998563
평택호관광지 주차장1,평택시,경기 평택시 현덕면 권관리 536-21,실외,야외시설,126.9075487,36.91481856
깔끔이 고덕동 2010-4 나대지 주차장,평택시,경기 평택시 고덕동 2010-4,실외,노상,127.0508853,37.04577439
나이스파크 꿈땅주차장,평택시,경기 평택시 고덕면 효덕새싹길 106,미분류,미분류,127.0401215,37.02312165
원평동행정복지센터 주차장,평택시,경기 평택시 원평2로 9,실외,건물주변,127.0803195,36.98900344
합정3-3공영주차장,평택시,경기 평택시 합정동 933-1,실외,노외,127.1039435,36.98711211
지산초록공원 제2주차장,평택시,경기 평택시 지산동 694-1,실외,야외시설,127.0610143,37.07685951
송현성당 주차장,평택시,경기 평택시 서정동 2-19,실외,건물주변,127.0653689,37.07035677
혜원,평택시,경기 평택시 중앙로 46,미분류,미분류,127.0879289,36.9943184
고덕제일타워 주차장,평택시,경기 평택시 고덕중앙로 200-20,실내,지하,127.0454838,37.04685499
힐스테이트송담아파트 지하주차장,평택시,경기 평택시 안중읍 송담1로 65,실내,지하,126.928406,36.97606314
신당근린공원 주차장2,평택시,경기 평택시 포승읍 평택항로 98,실외,야외시설,126.8457855,36.97158637
삼화주차장,평택시,경기 평택시 탄현로 357,실외,건물주변,127.0575165,37.08407667
안정공원 주차장,평택시,경기 평택시 팽성읍 안정순환로267번길 42,실외,야외시설,127.0535072,36.96088665
태성추어탕 주차장,평택시,경기 평택시 만세로 1539,실외,건물주변,127.1227124,37.02682068
태평아파트주차장,평택시,경기 평택시 고덕면 방축리 424-3,실외,노외,127.0353127,37.01788025
카카오T 평택삼성생명빌딩 주차장,평택시,경기 평택시 평택동 284-4,실외,건물주변,127.0896963,36.99353954
안중제2공영주차장,평택시,경기 평택시 안중읍 안중리 245-9,실외,노외,126.9260167,36.98964453
현화택지제5공영주차장,평택시,경기 평택시 안중읍 현화리 832-1,실외,노외,126.919945,36.97919108
삼성물산 갈평리주차장,평택시,경기 평택시 고덕동 산 247,실외,야외시설,127.0462093,37.06665562
현화택지제4공영주차장,평택시,경기 평택시 안중읍 현화리 833-1,실외,노외,126.9200903,36.97866485
동화당약국 대한성공회 노상공영주차장,평택시,경기 평택시 안중읍 안중리 252-72,실외,노상,126.9249634,36.98822854
스타벅스 평택세교DT 주차장,평택시,경기 평택시 세교동 425,실외,건물주변,127.0787871,37.00734627
지산주차장,평택시,경기 평택시 지산동 1129,실외,노외,127.0642853,37.08003252
리치관리단,평택시,경기 평택시 이충로35번길 28-22,미분류,미분류,127.0659685,37.05985598
팽성레포츠공원 주차장1,평택시,경기 평택시 팽성읍 안정로 238-31,실외,야외시설,127.0651024,36.96932585
투썸플레이스 샤브촌 전용주차장,평택시,경기 평택시 오성면 당거리 501-141,실외,건물주변,126.9820918,36.99365038
현화택지 제2공영주차장,평택시,경기 평택시 안중읍 현화리 835-6,실외,노외,126.9224385,36.97845925
한국전력 서평택지사 고객주차장,평택시,경기 평택시 청북읍 옥길리 1159-5,실외,건물주변,126.9171829,37.01845006
서평택패션타운 주차장,평택시,경기 평택시 안중읍 서동대로 1787,실외,노외,126.9469144,36.99411527
현화택지제3공영주차장,평택시,경기 평택시 안중읍 현화리 836-1,실외,노외,126.922468,36.97919437
석천주차장,평택시,경기 평택시 칠원동 114-1,미분류,미분류,127.1013625,37.02745628
스타타워 주차장,평택시,경기 평택시 비전5로 33,미분류,미분류,127.1141166,37.0015747
유승한내들아파트 지하주차장 입구,평택시,경기 평택시 청북읍 안청로1길 75,실내,지하,126.909859,37.01811664
주차장,평택시,경기 평택시 평택동 300,미분류,미분류,127.089127,36.99166905
나이스파크 평택 프로방스레지던스 주차장,평택시,경기 평택시 신장로 46,실내,지하,127.05002648108282,37.07950983658547
포승파출소 주차장,평택시,경기 평택시 포승읍 서동대로 1150,실외,건물주변,126.8819931,36.98250938
나이스파크 평택 셀럽프라자 주차장,평택시,경기 평택시 중앙2로 16,실내,지하,127.0885953,36.99148184
나이스파크 평택 제니스타워 주차장,평택시,경기 평택시 고덕중앙로 200-19,미분류,미분류,127.0456537,37.0472532
푸르지오2차아파트 상가동 주차장,평택시,경기 평택시 현신3길 76,실내,지하,127.1426068,36.99803147
디케이비 고덕지점,평택시,경기 평택시 고덕여염9길 38,미분류,미분류,127.0509715,37.04014614
트럭헬퍼 화물차주차장 평택칠괴동점,평택시,경기 평택시 칠괴길 150-51 1층,실외,노외,127.0863952,37.02913385
나이스파크 평택 스타빌딩 주차장,평택시,경기 평택시 용죽2로 32-45,미분류,미분류,127.125122,36.99239338
나이스파크 평택 고덕하늘채 시그니처 A상가 주차장,평택시,경기 평택시 고덕면 효덕새싹길 55,미분류,미분류,127.0342808,37.02149064
경기실업,평택시,경기 평택시 동삭로 455,실외,건물주변,127.0993701,37.02649038
나이스파크 평택 비티온유안앨리츠 주차장,평택시,경기 평택시 중앙2로 55,미분류,미분류,127.0930382,36.99154152
프라우빌딩 주차장,평택시,경기 평택시 비전5로 16,미분류,미분류,127.1132658,36.99985436
웨스트157 주차장,평택시,경기 평택시 현덕면 권관리 768-17,실외,건물주변,126.9059613,36.92345493
영천유로주차장,평택시,경기 평택시 평택로88번길 30,미분류,미분류,127.0857518,36.99451661
에바다학교 주차장,평택시,경기 평택시 진위면 하북4길 129-23,실외,건물주변,127.0672322,37.11275433
리치타워2 노상 민영 주차장,평택시,경기 평택시 고덕중앙2로 79,실외,노상,127.044864,37.04556326
제이에스프라자종합상가 주차장,평택시,경기 평택시 지제동 905-11,실외,건물주변,127.0544562,37.02293419
팽성주차장,평택시,경기 평택시 팽성읍 대사로 230,미분류,미분류,127.0701016,36.94932965
모곡공원 주차장,평택시,경기 평택시 산단로52번길 21,실외,야외시설,127.0762222,37.0345071
안중레포츠공원 주차장5,평택시,경기 평택시 안중읍 현화리 919,실외,야외시설,126.9155232,36.99281601
차유료주차장,평택시,경기 평택시 합정동 733-26,미분류,미분류,127.0912521,36.99161895
투루파킹 평택마제스트타워 주차장,평택시,경기 평택시 산단로16번길 12,미분류,미분류,127.0711814,37.03585013
장강 주차장,평택시,경기 평택시 이충동 495-10,실외,건물주변,127.0556016,37.05460587
깔끔이 민영 주차장,평택시,경기 평택시 고덕동 2130-6,실외,노상,127.0495457,37.04289692
카카오T 썬앤문알파주차타워 주차장,평택시,경기 평택시 고덕여염7길 21 4층 이상층,실내,지상,127.0472873,37.03846527
노상 공영주차장,평택시,경기 평택시 안중읍 안중리 252-7,실외,노외,126.926717,36.98783992
신평택주차장,평택시,경기 평택시 팽성읍 안정순환로56번길 40,실외,야외시설,127.0503119,36.95645469
경기도외국어교육연수원 주차장1,평택시,경기 평택시 안중읍 안현로서1길 40,실외,건물주변,126.9309083,36.99464408
나이스파크 평택 금강 상가 주차장,평택시,경기 평택시 청원로 1200,미분류,미분류,127.0562777,37.05202947
정동실업,평택시,경기 평택시 평택로 25-1,미분류,미분류,127.0881368,36.98998557
나이스파크 평택 창신베스트 주차장,평택시,경기 평택시 고덕국제대로 7,미분류,미분류,127.048198,37.0388794
로얄프라자 주차장,평택시,경기 평택시 비전2로 216,미분류,미분류,127.1141625,37.00225047
아마노 평택명성빌딩 주차장,평택시,경기 평택시 경기대로 1286,미분류,미분류,127.064984,37.05985111
나이스파크 고덕메디컬센터 주차장,평택시,경기 평택시 함박산8길 35,미분류,미분류,127.0319286,37.03881722
나이스파크 평택 장당프라자 주차장,평택시,경기 평택시 경기대로 1194,미분류,미분류,127.0603432,37.05323428
비티컴퍼스,평택시,경기 평택시 세교산단로 37,미분류,미분류,127.0813418,37.01094031
안중레포츠공원 주차장1,평택시,경기 평택시 안중읍 현화6길 48,실외,야외시설,126.9150393,36.99284964
Tmap주차 명문프라자 주차장,평택시,경기 평택시 고덕국제7로 117,실내,지하,127.0297672,37.03518437
이창진가마솥곰탕 주차장,평택시,경기 평택시 통복동 539-8,실외,건물주변,127.0891779,37.0013798
동막지주차장,평택시,경기 평택시 지산동 18-4,실외,야외시설,127.0958921,37.07437625
오딧세이 이글오피스텔 주차장,평택시,경기 평택시 팽성읍 안정순환로104번길 46,실내,지상,127.0461975,36.95943986
하이파킹 PARK552점,평택시,경기 평택시 신촌2로 17,실내,지상,127.104697,37.02664512
좋은메디타워4차 주차장,평택시,경기 평택시 비전2로 212,실내,지하,127.1137124,37.00177783
바로종합관리,평택시,경기 평택시 안중읍 안현로서6길 10,미분류,미분류,126.9280969,36.98379733
모산제이앤제이,평택시,경기 평택시 모산1길 38 2층,미분류,미분류,127.0918754,37.01551786
고덕트라반트푸르지오시티 민영 주차장,평택시,경기 평택시 고덕중앙로 200-10,미분류,미분류,127.0441941,37.0470329
송탄한양빌딩 주차장,평택시,경기 평택시 경기대로 1365,실내,지하,127.06357097273882,37.06686672917701
LG전자 주차장,평택시,경기 평택시 진위면 청호리 363,실외,노외,127.0916202,37.12903382
더파킹플러스,평택시,경기 평택시 경기대로 945,미분류,미분류,127.0695575,37.03429286
적봉지구 공영주차장,평택시,경기 평택시 서정동 973,실외,노외,127.042238,37.07779984
근린공원 주차장1,평택시,경기 평택시 포승읍 2함대길 40,실외,야외시설,126.8342723,36.99432503
깔끔이주차장,평택시,경기 평택시 고덕동 2131-1,실외,노상,127.0485902,37.04294985
에스에스오,평택시,경기 평택시 고덕여염로 54,미분류,미분류,127.04925,37.04026662
나이스파크 평택 강일빌딩 주차장,평택시,경기 평택시 비전4로 47,미분류,미분류,127.1145909,37.00246721
아마노 평택로자벨시티1차 주차장,평택시,경기 평택시 고덕갈평6길 25,실내,지하,127.048375,37.05745589
평택농협 지하주차장,평택시,경기 평택시 평택1로 45,실내,지하,127.0874943,36.99623227
나이스파크 고덕 아크타워 주차장,평택시,경기 평택시 고덕여염7길 27,미분류,미분류,127.0478544,37.03846747
이리더스개발,평택시,경기 평택시 산단로16번길 26,미분류,미분류,127.0711018,37.03437349
평택부성타워 관리단,평택시,경기 평택시 산단로 95,미분류,미분류,127.0806451,37.03797791
나이스파크 아팰리스써밋파크 주차장,평택시,경기 평택시 경기대로 1220,미분류,미분류,127.0610959,37.05502297
태성주차장,평택시,경기 평택시 팽성읍 안정순환로104번길 32,미분류,미분류,127.0456684,36.95908414
평택시청안중출장소 주차장2,평택시,경기 평택시 안중읍 서동대로 1531,실외,건물주변,126.9196305,36.98957289
나이스파크 고덕제일타워 주차장,평택시,경기 평택시 고덕중앙로 200-20,미분류,미분류,127.04562535966036,37.04678645270511
나이스파크 평택 소사벌타워 주차장,평택시,경기 평택시 비전8길 6,미분류,미분류,127.105849,37.00243929
나이스파크 고덕 DS타워주차장,평택시,경기 평택시 함박산3길 3,미분류,미분류,127.0398909,37.04116995
웅이네한식뷔페 주차장,평택시,경기 평택시 고덕면 여염리 39-26,실외,건물주변,127.0525601,37.02422575
드림주차장,평택시,경기 평택시 중앙로 30,실외,건물주변,127.0864097,36.99479854
삼성타워 주차장,평택시,경기 평택시 평남로 858,미분류,미분류,127.1115563,37.0001327
믿음주차장,평택시,경기 평택시 고덕면 방축길 194,실외,노외,127.0514337,37.02194931
귀빈모텔주차장,평택시,경기 평택시 평택동 64-10,실외,건물주변,127.0857248,36.99408123
위건축,평택시,경기 평택시 원평로105번길 42,미분류,미분류,127.0780442,36.99340071
지엘컨스,평택시,경기 평택시 평택로39번길 5,실내,지상,127.0871938,36.99055539
동호빌딩 주차장,평택시,경기 평택시 죽백5로 41,미분류,미분류,127.1201816,37.00404579
Tmap주차 스타주차타워 민영 주차장,평택시,경기 평택시 모산영신2길 34,실내,지상,127.0884365,37.01823236
울성지주차장,평택시,경기 평택시 울성길 237-20,미분류,미분류,127.0593081,37.01614197
평택 지제종합상가 정문 주차장,평택시,경기 평택시 남북대로 260,실외,건물주변,127.0601897,37.0239701
나이스파크 평택 동원빌딩 주차장,평택시,경기 평택시 지제중앙로 161,실외,건물주변,127.058428,37.01974005
아마노 평택중앙프라자 주차장,평택시,경기 평택시 비전5로 7,실내,지하,127.1120539,37.00004302
파킹고,평택시,경기 평택시 고덕중앙2로 47,미분류,미분류,127.0413043,37.0451843
서울프라자,평택시,경기 평택시 지산로 70,실외,건물주변,127.0623845,37.07977502
나이스파크 평택 에스에스 원식자재마트 주차장,평택시,경기 평택시 청북읍 안청로4길 54,실내,지상,126.9184447,37.02181349
테마빌딩주차장,평택시,경기 평택시 탄현로 333-29,실외,건물주변,127.0555941,37.08213127
권관리수변친수공간 주차장,평택시,경기 평택시 현덕면 권관리 580-54,실외,야외시설,126.9053357,36.92192699
송화2리 임시공영주차장,평택시,경기 평택시 팽성읍 송화리 788-4,실외,노외,127.0588759,36.96190558
금성주유소 민영주차장,평택시,경기 평택시 장당동 52-7,미분류,미분류,127.0632325,37.04368372
화촌공영주차장,평택시,경기 평택시 통복동 242-5,미분류,미분류,127.0727199,36.99238344
씨케이프라퍼티 서정동지점,평택시,경기 평택시 경기대로 1393,미분류,미분류,127.0639806,37.06952963
나이스파크 평택고덕 파인트리 주차장,평택시,경기 평택시 고덕면 방축3길 57-8,미분류,미분류,127.0427874,37.02275119
나이스파크 청북센터프라자 주차장,평택시,경기 평택시 청북읍 청북남로 254,미분류,미분류,126.9159399,37.01967006
안중상업지역공영주차장,평택시,경기 평택시 안중읍 안중리 245-3,실외,노외,126.9275462,36.98918511
서부공설운동장 주차장2,평택시,경기 평택시 청북읍 후사리 264-1,실외,야외시설,126.941532,37.0319346
나이스파크 평택 진영주차장,평택시,경기 평택시 고덕면 효덕새싹길 120-19,실외,건물주변,127.0415897,37.02409972
송탄동주민센터주차장,평택시,경기 평택시 가재동 23-2,실외,건물주변,127.095227,37.04431429
나이스파크 평택 방축리111 주차장,평택시,경기 평택시 고덕면 방축길 109,실외,건물주변,127.046944,37.01509873
안중레포츠공원 주차장3,평택시,경기 평택시 안중읍 학현리 377-11,실외,야외시설,126.9177695,36.99449874
대운빌딩 주차장,평택시,경기 평택시 고덕동 1792-1,실외,건물주변,127.0493637,37.06453242
아이원코리아,평택시,경기 평택시 청북읍 안청로4길 54,실외,노상,126.9184447,37.02181349
안중레포츠공원 주차장4,평택시,경기 평택시 안중읍 학현리 산 92-2,실외,야외시설,126.9185435,36.99342879
안중레포츠공원 주차장2,평택시,경기 평택시 안중읍 학현리 산 91,실외,야외시설,126.9161398,36.99320365
월곡지주차장,평택시,경기 평택시 관동길 20,미분류,미분류,127.1299288,37.02099835
안중레포츠공원 다목적주차장,평택시,경기 평택시 안중읍 학현리 산 92-5,실외,야외시설,126.9170739,36.99371972
