name,region,address,type1,type2,lon,lat,cluster
광명역 A환승주차장,광명시,경기 광명시 일직동 179-5,실내,지상,126.88445792475,37.4189791711302,2
광명역 B주차장,광명시,경기 광명시 덕안로 16,실내,지상,126.88257542497011,37.415583270599626,2
광명동굴 제1주차장,광명시,경기 광명시 가학동 10-4,실외,야외시설,126.865269960838,37.4236884819431,2
광명전통시장 공영주차장,광명시,경기 광명시 광명로 938,실내,지상,126.856111527313,37.4823488342608,0
철산동 삼각주마을 제1공영주차장,광명시,경기 광명시 철산동 606-9,실외,노외,126.868533514915,37.4944200478938,0
광명전통시장 제2공영주차장,광명시,경기 광명시 광명동 105-8 지하1층,실외,노상,126.85663492061,37.481448101939,0
철산동 지하공영주차장,광명시,경기 광명시 시청로 20,실내,지하,126.86513676955036,37.477004786757576,0
광명사거리 공영주차장,광명시,경기 광명시 광명로887번길 22,실외,노외,126.851586000189,37.4792978283442,0
광명역 D주차장,광명시,경기 광명시 서독로 392,실내,지상,126.883177420938,37.41346196795725,2
광명역 C주차장,광명시,경기 광명시 일직동 171-1,실외,노외,126.885904247816,37.4207671141188,2
광명동굴 제2주차장,광명시,경기 광명시 가학동 산 26-3,실외,야외시설,126.867055539761,37.4240637948583,2
AK플라자 광명 지하주차장,광명시,경기 광명시 양지로 17,실내,지하,126.882889156892,37.418680381669,2
광명역사컨벤션웨딩홀 제1주차장,광명시,경기 광명시 광명역로 28,실외,건물주변,126.88674233140948,37.41651988998812,2
매화쌈밥 광명점 주차장,광명시,경기 광명시 밤일로 36,실내,건물주변,126.860332022319,37.4526529921809,1
광명시민체육관 주차장,광명시,경기 광명시 오리로 703,실외,노외,126.872397757608,37.4626840868261,1
투루파킹 광명역점 주차장,광명시,경기 광명시 일직동 464-6 KTX 광명역 C 주차장,실외,노외,126.88588116,37.41975101,2
철산동 상업지역 공영주차장,광명시,경기 광명시 철산동 430,실외,노외,126.869035899963,37.474942708259,0
광명동굴 제3공영주차장,광명시,경기 광명시 소하동 1384,실외,야외시설,126.878326606498,37.4318956757215,2
이케아 광명점 정문주차장,광명시,경기 광명시 일직로 17,실내,지상,126.881827101508,37.4245359392381,2
광명시 중앙대학교광명병원 주차장,광명시,경기 광명시 덕안로 110,미분류,미분류,126.885948267322,37.424591525259,2
하이파킹 광명크로앙스점,광명시,경기 광명시 오리로 970,실내,지하,126.8556354448506,37.479456016877855,0
광명새마을시장 공영주차장,광명시,경기 광명시 광명동 290-10,실외,노외,126.850553067945,37.4742607877743,0
철산동중앙로변 노상공영주차장,광명시,경기 광명시 철산로 지하 13,실외,노상,126.86808766257305,37.47627019157944,0
롯데몰광명점 주차장,광명시,경기 광명시 일직로 17,실내,지하,126.884786506272,37.4241676414444,2
광북공영주차장,광명시,경기 광명시 사성로 74,실내,지상,126.86561672567592,37.48676865894671,0
광명새빛공원 주차장,광명시,경기 광명시 일직동 424,실외,야외시설,126.887050654912,37.4140827494072,2
철산동상업지역 제1노상공영주차장,광명시,경기 광명시 철산동 531,실외,노상,126.870679416275,37.4749603762052,0
철산동상업지역 제2노상 공영주차장,광명시,경기 광명시 철산동 430,실외,노상,126.869035899963,37.474942708259,0
광명자이타워 주차장,광명시,경기 광명시 새빛공원로 67,실내,지하,126.88846123664352,37.41907861394701,2
지아이디씨지식산업센터 관리단,광명시,경기 광명시 일직로 43,실내,지상,126.886946212034,37.4227699960931,2
도덕산공원 주차장,광명시,경기 광명시 광명동 산 75,실외,야외시설,126.85682761,37.46969954,0
광명역사컨벤션웨딩홀 제3주차장,광명시,경기 광명시 서독로 392,실외,건물주변,126.88322247870924,37.41354310416757,2
광명성애병원 주차장,광명시,경기 광명시 디지털로 36,실외,건물주변,126.871332367803,37.4736622838936,0
경기주차장,광명시,경기 광명시 오리로 988,실외,건물주변,126.853678696704,37.4798842919277,0
목감천변 노상공영주차장,광명시,경기 광명시 광명동 158-186,실외,노상,126.854019750177,37.4825232262948,0
돼지집 주차장,광명시,경기 광명시 소하동 1369-3,실외,건물주변,126.886194026162,37.4359120410299,2
성일주차장,광명시,경기 광명시 광명동 156-4,실외,건물주변,126.857594179662,37.4793393706413,0
철산동 삼각주마을 제3공영주차장,광명시,경기 광명시 철산동 9-80,실외,노외,126.869086231274,37.4926846924557,0
소하동 제3노외공영주차장,광명시,경기 광명시 소하동 1342-2,실외,노외,126.88282417651,37.4471090804235,1
광명시자원회수시설 주차장,광명시,경기 광명시 가학로85번길 142,실외,야외시설,126.863768107519,37.4250427012687,2
소하동 제4노외공영주차장,광명시,경기 광명시 소하동 1339-2,실외,노외,126.884026630315,37.4472370390661,1
자동차경매장 주변 노상공영주차장,광명시,경기 광명시 하안동 717-3,실외,노상,126.876692857679,37.4592748039266,1
광명G타워 주차장,광명시,경기 광명시 소하로 190,실내,지상,126.893820645015,37.4461212376515,1
광명시공영주차장,광명시,경기 광명시 철산로 지하 13,실외,노외,126.8664185543,37.4771495032417,0
카카오T 위드위 주차장,광명시,경기 광명시 광명동 158-104,실외,건물주변,126.854396441834,37.4806184192096,0
광명무역센터 주차장,광명시,경기 광명시 일직로 72,실내,지하,126.88967448589884,37.41986544007893,2
한신주차장,광명시,경기 광명시 광명동 158-497,실외,노외,126.856269227018,37.4785241555513,0
광명시보건소 주차장,광명시,경기 광명시 오리로 613,실외,건물주변,126.878468170013,37.4560752570138,1
광명6동노외주차장,광명시,경기 광명시 도덕로 5,실외,노외,126.848782299978,37.4680028244285,0
광명시하안도서관 주차장,광명시,경기 광명시 하안동 683,실외,건물주변,126.871240789976,37.4643078054104,1
광명유플래닛 주차장,광명시,경기 광명시 양지로 19,실내,지하,126.88312802213984,37.41980959356934,2
뉴코아팩토리아울렛 광명점 주차장,광명시,경기 광명시 하안로287번길 8,미분류,미분류,126.87942176618,37.4612029916526,1
세종주차장,광명시,경기 광명시 오리로 935,실내,지상,126.859093217476,37.4778358526288,0
광명5동한진1길 노외공영주차장,광명시,경기 광명시 광명동 207-24,실외,노외,126.850653616542,37.4775325687126,0
버거킹 광명소하DT점 주차장,광명시,경기 광명시 소하동 1077-4,실외,건물주변,126.879187420398,37.4345883433508,2
하안동상업지역 제2노상공영주차장,광명시,경기 광명시 하안동 54,실외,노상,126.880655342814,37.4623690714765,1
소올투베이커리 주차장,광명시,경기 광명시 가학동 213-4,실외,건물주변,126.859485505742,37.4169983598886,2
하안동상업지역 제1노상공영주차장,광명시,경기 광명시 범안로 1063,실외,노상,126.88046950288664,37.46337188942164,1
IDS타워 주차장,광명시,경기 광명시 신기로17번길 4,실내,지하,126.8836612559226,37.42052642869794,2
광명스피돔 4주차장,광명시,경기 광명시 광명로 721,실외,노외,126.845290524505,37.4685172862788,0
개운어린이공원 공영 주차장,광명시,경기 광명시 영당안로 49,실외,야외시설,126.877500222739,37.4369547456704,2
남해바다장어 주차장,광명시,경기 광명시 밤일로 18,미분류,미분류,126.862609863423,37.4523664370584,1
철산동등기소주변 노상공영주차장,광명시,경기 광명시 철산동 525,실외,노상,126.866484133924,37.4766368131243,0
유플래닛광명역유스트리트몰 주차장,광명시,경기 광명시 일직동 512,실내,지하,126.881799522622,37.4181473361657,2
명장시대 주차장,광명시,경기 광명시 하안동 342-9,실외,건물주변,126.868391936034,37.4554798887404,1
긴자 광명점 주차장,광명시,경기 광명시 하안동 871-7,실외,건물주변,126.860774070362,37.4534883920251,1
나이스파크 가산디오스텔 주차장,광명시,경기 광명시 서부샛길 778,실내,지상,126.87348019699029,37.4870764758699,0
코스트코 광명점 제2주차장,광명시,경기 광명시 일직로 40,실내,지상,126.88686689295,37.4200745258525,2
광명시청 주차장,광명시,경기 광명시 시청로 20,실외,건물주변,126.863803620513,37.4777556000485,0
광명역써밋플레이스아파트 정문주차장,광명시,경기 광명시 양지로 16,실내,지하,126.880369900822,37.4173155198187,2
뜨락주차장,광명시,경기 광명시 광명동 35-16,골목길,주택가,126.85917272566,37.4785429689822,0
강남면옥 광명점 주차장,광명시,경기 광명시 하안동 362-12,실외,건물주변,126.86491741126,37.4517025277853,1
광명센트럴스퀘어 주차장,광명시,경기 광명시 신기로17번길 11,실내,지하,126.883486171276,37.42124346638,2
소하고택 주차장,광명시,경기 광명시 신촌북로 7,실외,건물주변,126.890767465318,37.4505730665399,1
철산 배수지 공원 주차장,광명시,경기 광명시 철산동 467-93,실외,야외시설,126.861336305546,37.4743797126297,0
빵명장 주차장,광명시,경기 광명시 밤일로 38,실내,지상,126.860145499065,37.4526761979334,1
장우생오리주차장,광명시,경기 광명시 소하동 160-2,실외,건물주변,126.88002453084,37.4489812808513,1
기아로주차장,광명시,경기 광명시 소하동 1242-7,실외,건물주변,126.879900867232,37.435565050407,2
다이소 광명하안점 주차장,광명시,경기 광명시 오리로 665,실외,건물주변,126.876056392811,37.4600984737635,1
낙원주차장,광명시,경기 광명시 오리로984번길 11,골목길,상가,126.854369505267,37.480458186737,0
광명SK 테크노파크 운영위원회,광명시,경기 광명시 하안로 60,미분류,미분류,126.894026227665,37.4447447627685,1
나이스파크 다이소 광명소하점 주차장,광명시,경기 광명시 소하동 38-2,실외,건물주변,126.890082328672,37.4505997320194,1
JS부띠크호텔 주차장,광명시,경기 광명시 오리로854번길 16-18,실내,지상,126.868856552332,37.4742581927167,0
해솔개발,광명시,경기 광명시 광명로 896,미분류,미분류,126.854507907353,37.4788751952478,0
도덕파크타운2단지아파트 주차장,광명시,경기 광명시 가림일로 101,실외,건물주변,126.8668218333,37.4703257125038,0
하이파킹 NH농협은행광명시지부 주차장,광명시,경기 광명시 철산로 32,실내,지하,126.86992599465772,37.476225377119285,0
KM파크 다이소 광명하안점 주차장,광명시,경기 광명시 하안동 302-6,골목길,상가,126.876054699307,37.4600973006645,1
소하도서관 주차장,광명시,경기 광명시 소하동 1331,실외,건물주변,126.886631327506,37.4491572835058,1
광명역 M클러스터관리단,광명시,경기 광명시 덕안로104번길 17,미분류,미분류,126.887062889841,37.4242148889505,2
하안주공5단지종합상가 주차장,광명시,경기 광명시 하안동 702-2,실외,건물주변,126.865852887993,37.4650963233426,0
장릉공영주차장,광명시,경기 광명시 시청로 34,미분류,미분류,126.864196593462,37.4797601660308,0
구름산추어탕 주차장,광명시,경기 광명시 하안동 316,실외,건물주변,126.871825894857,37.4574022783064,1
광명시 연서도서관 주차장,광명시,경기 광명시 연서일로 10,실내,지상,126.864803983612,37.4828771800849,0
광명역효성해링턴더퍼스트오피스텔 지하주차장,광명시,경기 광명시 일직동 509-1,실내,지하,126.884123561277,37.4223382886148,2
하안3동 행정복지센터 주차장,광명시,경기 광명시 금당로 28,실외,건물주변,126.881560731657,37.4587886412824,1
광명스피돔 주차장,광명시,경기 광명시 광명로 721,실외,야외시설,126.845853402225,37.469653294478,0
행운주차장,광명시,경기 광명시 소하동 217-7,미분류,미분류,126.879729359207,37.4441698376196,1
철화빌딩 주차장,광명시,경기 광명시 오리로854번길 6,실외,건물주변,126.867398923595,37.4744872243522,0
두산위브아파트 주차장,광명시,경기 광명시 사성로 91,실외,건물주변,126.865840936906,37.4884790257478,0
소들녘 광명점 주차장,광명시,경기 광명시 오리로876번길 6,실외,건물주변,126.865799213892,37.4764045679742,0
웅진빌딩 주차장,광명시,경기 광명시 철산로 15,실외,야외시설,126.867708618706,37.4764481676103,0
광명경영회계고등학교 주차장,광명시,경기 광명시 기아로13번안길 9-9,실외,건물주변,126.882194571376,37.4380443397694,1
카카오T KB국민은행 광명지점 주차장,광명시,경기 광명시 광명로 843,실외,건물주변,126.851746684194,37.4746479233664,0
광명역파크자이아파트 후문 주차장,광명시,경기 광명시 광명역로 26,실내,지하,126.886474910609,37.4140733679868,2
홈플러스익스프레스 광명하안점 주차장,광명시,경기 광명시 오리로 801,골목길,상가,126.867581745113,37.4669793133058,0
도덕파크타운 1단지아파트 주차장,광명시,경기 광명시 가림일로 101,실내,지상,126.864625646214,37.4708007521598,0
KTX 광명주차장,광명시,경기 광명시 일직동 507,실외,노외,126.890623194813,37.4206451614716,2
나이스파크 광명일직점 주차장,광명시,경기 광명시 일직동 509,실외,노외,126.883495872391,37.4224923763953,2
대명프라자 주차장,광명시,경기 광명시 광명로 890,미분류,미분류,126.854247043383,37.4783136354717,0
푸주옥 주차장,광명시,경기 광명시 하안동 888-5,실외,건물주변,126.861947097767,37.4525054117963,1
투썸플레이스 광명밤일점 주차장,광명시,경기 광명시 밤일안로 7,실내,지상,126.86435548503,37.4526450643627,1
광명빌딩 주차장,광명시,경기 광명시 광명로 907,실외,건물주변,126.854382550305,37.4801446519005,0
광명G타워모델하우스 주차장,광명시,경기 광명시 신기로17번길 7,실내,지상,126.883292448725,37.4208648478595,2
장수촌 주차장,광명시,경기 광명시 밤일로 37,미분류,미분류,126.860287438555,37.4523177627656,1
나이스파크 소하동 비엔팰리스 주차장,광명시,경기 광명시 금하로 529,미분류,미분류,126.890783872979,37.4515695121657,1
노브랜드 광명소하점 주차장,광명시,경기 광명시 한내일로 53,실내,지상,126.881772968475,37.4560786093145,1
광명제9알구역주택재개발정비사업조합,광명시,경기 광명시 광명로 841,미분류,미분류,126.851665094078,37.4742880479726,0
경기도시각장애인연합회 광명시지회 주차장,광명시,경기 광명시 오리로 653,미분류,미분류,126.876806923684,37.459400073435,1
기아자동차 직원전용주차장,광명시,경기 광명시 소하동 1253,실내,지상,126.884462537687,37.4353128077984,2
센트럴광명 주차장,광명시,경기 광명시 광명로832번길 5,실내,지하,126.852379924337,37.4734206404923,0
이마트 광명소하점 주차장,광명시,경기 광명시 소하로 97,실내,지하,126.88462661547084,37.44663881253875,1
케이엠파크 광명스마트주차장,광명시,경기 광명시 일직로 22,실내,지하,126.884164679105,37.4222676891461,2
에이스텔빌딩주차장,광명시,경기 광명시 시청로 7,실외,건물주변,126.863021682439,37.477531245942,0
맥도날드 광명소하DT점 주차장,광명시,경기 광명시 오리로 512,실외,건물주변,126.881759090331,37.4476631342092,1
행운화물주차장,광명시,경기 광명시 광명동 635-4,실외,노외,126.845289726723,37.4591396549951,0
웅신아트 주차장,광명시,경기 광명시 금하로 458,실내,지하,126.883310047506,37.4483920639127,1
나이스파크 광명산타마리아 주차장,광명시,경기 광명시 일직로 79,미분류,미분류,126.89012201421,37.4206760521376,2
가학동경관광장,광명시,경기 광명시 가학로85번길 87-16,미분류,미분류,126.86545906495,37.4233182891646,2
카카오 T 이마트 광명 소하점 주차장,광명시,경기 광명시 소하로 97,실내,지상,126.884553002261,37.446594050365,1
광명문화원 주차장,광명시,경기 광명시 하안동 863-8,실외,건물주변,126.8720634181,37.4677843477571,0
광문초등학교 주차장,광명시,경기 광명시 덕단이로 29,실외,건물주변,126.850901462649,37.4664774037708,0
광명역클래시아 주차장,광명시,경기 광명시 일직로12번길 24,실내,지하,126.881841916132,37.4208598029089,2
동일센타시아 주차장,광명시,경기 광명시 일직로12번길 19,실내,지하,126.882722786286,37.4210516957938,2
홍익돈까스 광명점 주차장,광명시,경기 광명시 하안동 883-3,실외,건물주변,126.863077898641,37.4528467694758,1
Tmap주차 세이브존 광명점,광명시,경기 광명시 철망산로 87,미분류,미분류,126.87772570869,37.4705888804702,1
광명도서관 주차장,광명시,경기 광명시 광명동 495-1,실내,지상,126.851660585433,37.4653570515174,0
한국전력공사 주차장,광명시,경기 광명시 철산로 3-13,실외,건물주변,126.866025985481,37.4766661179465,0
광명농협 학온지점,광명시,경기 광명시 금하로 450,실외,건물주변,126.882324591024,37.4483156720165,1
도덕파크타운1단지아파트 102동 지하주차장,광명시,경기 광명시 가림일로 101,실내,지하,126.864572385793,37.4702456689878,0
광명역지웰스테이트 주차장,광명시,경기 광명시 덕안로77번길 5,실내,지하,126.884443831754,37.4214606505867,2
주차장,광명시,경기 광명시 광명동 372-1,미분류,미분류,126.850175423222,37.4732124356801,0
영은주차장,광명시,경기 광명시 신촌로 9,미분류,미분류,126.889373939017,37.4475371570036,1
코리아산업 주차장,광명시,경기 광명시 원광명안로 39,미분류,미분류,126.84959121553,37.4646213734418,0
세이브존 옥외주차장,광명시,경기 광명시 철망산로 87,실내,지상,126.87724190687,37.4705694576408,1
광명해모로이연아파트 지하주차장,광명시,경기 광명시 목감로 58,실내,지하,126.846383669283,37.4729228480856,0
광명한라비발디큐브 노상 민영 주차장,광명시,경기 광명시 소하로92번길 11,실외,노상,126.882226808531,37.4464587656526,1
GS STEEL 타워 민영 주차장,광명시,경기 광명시 신기로 21,실내,지하,126.883729474793,37.4201707739718,2
노블빌딩 주차장,광명시,경기 광명시 하안로 295,실외,건물주변,126.879968736155,37.4619730122823,1
선우퓨쳐마크 주차장,광명시,경기 광명시 소하로 94,실내,지하,126.883384847744,37.4465078478647,1
투루 파킹 광명역점,광명시,경기 광명시 일직로 40,실외,노외,126.885904247816,37.4207671141188,2
광명시어린이교통공원 주차장2,광명시,경기 광명시 소하일로 51,실외,건물주변,126.887439030657,37.4461405607351,1
나이스파크 철산13단지마상가 주차장,광명시,경기 광명시 모세로 40,실외,건물주변,126.86917785939092,37.48060435499838,0
옥길주차장,광명시,경기 광명시 금오로707번길 87,실외,노외,126.827132283408,37.4617723821308,0
SH&01프라자 주차장,광명시,경기 광명시 일직로12번길 21,실내,지하,126.882514049774,37.4208857012786,2
소문난삼부자순대국 주차장,광명시,경기 광명시 일직동 505-17,실외,건물주변,126.891025507152,37.4210172028469,2
도덕파크타운1단지아파트 지하주차장,광명시,경기 광명시 가림일로 79,실내,지하,126.86537746016,37.4695059586466,0
태양,광명시,경기 광명시 가학동 1038-7,미분류,미분류,126.867494938667,37.4038427268328,2
계동주차장,광명시,경기 광명시 너부대로 36,실내,지상,126.849273894372,37.4776406497094,0
세진빌딩 민영 주차장,광명시,경기 광명시 덕안로77번길 9,미분류,미분류,126.883709065745,37.4217531212116,2
휴먼시아2단지아파트 지하주차장,광명시,경기 광명시 소하로 38,실내,지하,126.88336377611,37.4520733867605,1
