name,region,address,type1,type2,lon,lat
율동공원 B주차장,성남시 분당구,경기 성남시 분당구 서현로 459,실외,야외시설,127.1474514,37.37364583
공원마을 공영주차장,성남시 분당구,경기 성남시 분당구 분당동 102,실내,지하,127.1444343,37.37516418
천주교분당성요한성당 주차장,성남시 분당구,경기 성남시 분당구 서현로 498,실내,지하,127.1478665,37.36881762
분당동공영주차장,성남시 분당구,경기 성남시 분당구 분당로381번길 11,실내,지상,127.1464304,37.36877075
장안타운건영빌라 지하주차장,성남시 분당구,경기 성남시 분당구 서현로 471,실내,지하,127.1486285,37.37169994
샛별현대아파트 지하주차장,성남시 분당구,경기 성남시 분당구 불정로 308,실내,지하,127.1311011,37.3696357
쏘카존 율동공원B공영주차장,성남시 분당구,경기 성남시 분당구 서현로 459 지상 1층,실외,야외시설,127.1476842,37.37375456
율동공원B공영주차장 전기차충전소,성남시 분당구,경기 성남시 분당구 서현로 459 지상주차장,실외,야외시설,127.1469387,37.37296169
분당동 장안타운 건영아파트 모든 동의 지하1층 주차장 민방위대피소,성남시 분당구,경기 성남시 분당구 분당로263번길 24,실내,지하,127.1394302,37.37012805
율동자연공원 B주차장 전기차충전소,성남시 분당구,경기 성남시 분당구 서현로 459 율동자연공원 B주차장(서현로방면) 출입구 왼쪽,실외,야외시설,127.147041,37.37275433
분당동 두산건영빌라 모든 동의 지하1층 주차장 민방위대피소,성남시 분당구,경기 성남시 분당구 장안로 67,실내,지하,127.1456336,37.37242179
분당동 한신라이프빌라 모든 동의 지하1층 주차장 민방위대피소,성남시 분당구,경기 성남시 분당구 분당로263번길 68,실내,지하,127.1434002,37.37343366
분당동 샛별마을 우방아파트 모든 동의 지하1층 주차장 민방위대피소,성남시 분당구,경기 성남시 분당구 수내로 181,실내,지하,127.1282467,37.37201393
분당동 샛별마을 동성아파트 모든 동의 지하1층 주차장 민방위대피소,성남시 분당구,경기 성남시 분당구 분당로 212,실내,지하,127.1323446,37.37188598
분당동 샛별마을 라이프아파트 모든 동의 지하1층 주차장 민방위대피소,성남시 분당구,경기 성남시 분당구 분당로 190,실내,지하,127.1303773,37.37278378
분당동 샛별마을 삼부아파트 모든 동의 지하1층 주차장 민방위대피소,성남시 분당구,경기 성남시 분당구 수내로 201,실내,지하,127.128633,37.37016911
수내역환승공영주차장,성남시 분당구,경기 성남시 분당구 수내동 15-1,실내,지하,127.114812,37.37798171
분당구청 주차장2,성남시 분당구,경기 성남시 분당구 분당로 50,실외,야외시설,127.1185127,37.38203987
분당구청 주차장3,성남시 분당구,경기 성남시 분당구 분당로 50,실외,건물주변,127.1191817,37.38241763
황새울공원 공영주차장,성남시 분당구,경기 성남시 분당구 수내동 42,실외,야외시설,127.1186957,37.38357143
MS프라자 주차장,성남시 분당구,경기 성남시 분당구 황새울로214번길 8,실내,지상,127.1122921,37.37811387
MS프라자 주차장,성남시 분당구,경기 성남시 분당구 황새울로214번길 8,실내,지상,127.1122921,37.37811387
MS프라자 주차장,성남시 분당구,경기 성남시 분당구 황새울로214번길 8,실내,지하,127.1122921,37.37811387
MS프라자 주차장,성남시 분당구,경기 성남시 분당구 황새울로214번길 8,실내,지하,127.1122921,37.37811387
분당중앙공원 주차장,성남시 분당구,경기 성남시 분당구 수내동,실외,야외시설,127.1220567,37.37562819
현대오피스 주차장,성남시 분당구,경기 성남시 분당구 황새울로240번길 3,실내,지상,127.114946,37.37995842
초림 주차장,성남시 분당구,경기 성남시 분당구 황새울로240번길 3,실내,지하,127.1149957,37.37996378
분당중앙공원 A주차장,성남시 분당구,경기 성남시 분당구 수내동 69-1,실외,야외시설,127.1227014,37.37492832
수내제2공영주차장,성남시 분당구,경기 성남시 분당구 수내동 119-2,실외,노외,127.1285126,37.36638494
분당중앙공원 B주차장,성남시 분당구,경기 성남시 분당구 수내동 66,실외,야외시설,127.1211818,37.37635351
수내동 공영주차장,성남시 분당구,경기 성남시 분당구 발이봉북로 7,실내,지하,127.1282014,37.36664747
롯데백화점 수내점 그린지하주차장,성남시 분당구,경기 성남시 분당구 수내동 14,실내,지하,127.1150217,37.37852392
롯데백화점 분당점 주차장,성남시 분당구,경기 성남시 분당구 황새울로200번길 45,실내,지상,127.1148885,37.37857631
수내역 환승공영주차장 지하1층~지하3층 민방위대피소,성남시 분당구,경기 성남시 분당구 황새울로200번길 45,실내,지하,127.114317,37.37844712
롯데백화점 분당점 그린지상주차장,성남시 분당구,경기 성남시 분당구 수내동 15-2,미분류,미분류,127.1149651,37.37842126
금호행복시장 주차장,성남시 분당구,경기 성남시 분당구 내정로165번길 38,실외,건물주변,127.1174902,37.37586888
황새울국민체육센터 주차장,성남시 분당구,경기 성남시 분당구 수내동 43,실내,지하,127.1171111,37.38254314
후너스빌딩 주차장,성남시 분당구,경기 성남시 분당구 백현로 93,실내,지상,127.1110712,37.37706984
성남후너스빌딩 주차장,성남시 분당구,경기 성남시 분당구 백현로 93,실외,건물주변,127.1110792,37.37710948
돌고래시장 주차장,성남시 분당구,경기 성남시 분당구 내정로174번길 42,실외,건물주변,127.1221093,37.37184022
휴맥스빌리지 주차장,성남시 분당구,경기 성남시 분당구 황새울로 216,실내,지하,127.113075,37.37837983
초림프라자 주차장,성남시 분당구,경기 성남시 분당구 백현로101번길 17,실내,지하,127.112604,37.37753602
카카오T 도담빌딩 주차장,성남시 분당구,경기 성남시 분당구 황새울로 246,실내,지하,127.115486,37.380139
마루공원 주차장,성남시 분당구,경기 성남시 분당구 수내동 49-1,실외,야외시설,127.113693,37.38316368
하이파킹 수내N타워가든 주차장,성남시 분당구,경기 성남시 분당구 황새울로200번길 26,실내,지하,127.1130327,37.37654178
현대제일상가 주차장,성남시 분당구,경기 성남시 분당구 돌마로 364,실내,지하,127.1237373,37.36978329
로얄펠리스하우스빌 주차장,성남시 분당구,경기 성남시 분당구 백현로 105,실내,지상,127.1121041,37.37620749
로얄펠리스 하우스빌 민영 주차장,성남시 분당구,경기 성남시 분당구 백현로 105,실내,지하,127.1121041,37.37620749
분당 수내동 대명상가 주차장,성남시 분당구,경기 성남시 분당구 내정로173번길 11,실외,건물주변,127.1186902,37.3743062
코끼리 종합상가재래시장 주차장,성남시 분당구,경기 성남시 분당구 수내동 56,실내,지하,127.1204733,37.37246181
오너스타워 주차장,성남시 분당구,경기 성남시 분당구 황새울로200번길 28,실내,지하,127.113409,37.37676488
파크타운대림아파트101동 지하주차장,성남시 분당구,경기 성남시 분당구 내정로 186,실내,지하,127.1215614,37.3744024
조이시티타워 주차장,성남시 분당구,경기 성남시 분당구 황새울로258번길 25,실내,지하,127.1168928,37.37943482
KB국민은행 수내역종합금융센터 주차장,성남시 분당구,경기 성남시 분당구 수내동 16-1,실내,지하,127.1141497,37.37751472
대덕글로리 주차장,성남시 분당구,경기 성남시 분당구 수내로46번길 11,실내,지하,127.1168338,37.37996558
한솔인피니티 주차장,성남시 분당구,경기 성남시 분당구 황새울로200번길 22,실내,지하,127.1125468,37.37630167
보보스쉐르빌 주차장,성남시 분당구,경기 성남시 분당구 수내로 54,실내,지상,127.1178457,37.38011235
청구블루빌 주차장,성남시 분당구,경기 성남시 분당구 황새울로 224,실내,지하,127.1130643,37.37882945
양지프라임 주차장,성남시 분당구,경기 성남시 분당구 내정로 167,실내,지하,127.1190146,37.37387519
동신코아 주차장,성남시 분당구,경기 성남시 분당구 돌마로 361,실내,지하,127.1229654,37.37062475
아마노 수내역그라테아오피스텔 주차장,성남시 분당구,경기 성남시 분당구 황새울로258번길 23,실내,지상,127.117119,37.37964814
다운타운빌딩 주차장,성남시 분당구,경기 성남시 분당구 백현로 97,실내,지상,127.1114572,37.37699649
새하늘새땅,성남시 분당구,경기 성남시 분당구 발이봉로7번길 6-1,골목길,주택가,127.1274428,37.3659545
두산위브센티움2동 주차장,성남시 분당구,경기 성남시 분당구 수내로 42,실내,지상,127.1167324,37.38081445
두산위브센티움2동 주차장,성남시 분당구,경기 성남시 분당구 수내로 42,실내,지상,127.1167324,37.38081445
두산위브센티움2동 주차장,성남시 분당구,경기 성남시 분당구 수내로 42,실내,지하,127.1167324,37.38081445
두산위브센티움2동 주차장,성남시 분당구,경기 성남시 분당구 수내로 42,실내,지하,127.1167324,37.38081445
동현프라자 주차장,성남시 분당구,경기 성남시 분당구 백현로101번길 11,실내,지하,127.1119271,37.37710688
나이스파크 동국대학교 분당한방병원주차장,성남시 분당구,경기 성남시 분당구 불정로 268,실내,지하,127.1280072,37.36726759
나이스파크 동국대학교 분당한방병원주차장,성남시 분당구,경기 성남시 분당구 불정로 268,실내,지하,127.1280072,37.36726759
나이스파크 동국대학교 분당한방병원주차장,성남시 분당구,경기 성남시 분당구 불정로 268,실외,건물주변,127.1280072,37.36726759
나이스파크 동국대학교 분당한방병원주차장,성남시 분당구,경기 성남시 분당구 불정로 268,실외,건물주변,127.1280072,37.36726759
파크타운대림아파트 지하주차장,성남시 분당구,경기 성남시 분당구 내정로166번길 7-6,실내,지하,127.1210947,37.37276031
양지마을1단지금호아파트 지하주차장,성남시 분당구,경기 성남시 분당구 수내로 74,실내,지하,127.1183395,37.37819087
양지금호1 6단지 입주자 대표회의,성남시 분당구,경기 성남시 분당구 수내로 74,실외,건물주변,127.1188561,37.37927969
대덕프라자 주차장,성남시 분당구,경기 성남시 분당구 백현로101번길 16,실내,지하,127.1127172,37.37696827
코리아나빌딩 주차장,성남시 분당구,경기 성남시 분당구 황새울로258번길 32,실내,지상,127.1160798,37.37937075
코포모타워 주차장,성남시 분당구,경기 성남시 분당구 황새울로200번길 34,실내,지상,127.1138612,37.37714828
나이스파크 코포모타워 주차장,성남시 분당구,경기 성남시 분당구 황새울로200번길 34,실내,지하,127.1138623,37.37714648
나이스파크 분당 동신파크 주차장,성남시 분당구,경기 성남시 분당구 내정로 170,실외,건물주변,127.1196587,37.37348259
수내3동 행정복지센터 노상주차장,성남시 분당구,경기 성남시 분당구 수내동 80,실외,건물주변,127.1260421,37.36679756
카카오 T 티맥스 수내타워 주차장,성남시 분당구,경기 성남시 분당구 황새울로258번길 29,실내,지상,127.1167988,37.37919614
판테온오피스텔 주차장,성남시 분당구,경기 성남시 분당구 황새울로200번길 9-7,실내,지상,127.1119067,37.37782501
수내초등학교 주차장,성남시 분당구,경기 성남시 분당구 백현로243번길 12,실외,건물주변,127.1247277,37.36793515
퍼스티플러스 주차장,성남시 분당구,경기 성남시 분당구 황새울로 196,실내,지하,127.1108796,37.37727455
중앙BD,성남시 분당구,경기 성남시 분당구 황새울로258번길 41,미분류,미분류,127.1157488,37.37850609
그린프라자 주차장,성남시 분당구,경기 성남시 분당구 백현로101번길 20,실내,지하,127.1130833,37.37719498
가나프라자 주차장,성남시 분당구,경기 성남시 분당구 황새울로258번길 10-7,실내,지하,127.1162741,37.38017878
세인프라자 주차장,성남시 분당구,경기 성남시 분당구 백현로101번길 12,실내,지하,127.1124932,37.37668826
쏘카존 후너스빌딩 주차장 (기계식),성남시 분당구,경기 성남시 분당구 백현로 93 기계식 주차장 기게식 (좌측) 사용,실내,지상,127.1110792,37.37711038
쏘카존 후너스빌딩 주차장 (기계식),성남시 분당구,경기 성남시 분당구 백현로 93 기계식 주차장 기게식 (좌측) 사용,실내,지상,127.1110792,37.37711038
쏘카존 후너스빌딩 주차장 (기계식),성남시 분당구,경기 성남시 분당구 백현로 93 기계식 주차장 기게식 (좌측) 사용,실외,건물주변,127.1110792,37.37711038
쏘카존 후너스빌딩 주차장 (기계식),성남시 분당구,경기 성남시 분당구 백현로 93 기계식 주차장 기게식 (좌측) 사용,실외,건물주변,127.1110792,37.37711038
쏘카존 MS프라자 주차장,성남시 분당구,경기 성남시 분당구 황새울로214번길 8 지상 6층,실내,지상,127.1122346,37.37813195
쏘카존 [부름호출존] 수내동 공영주차장,성남시 분당구,경기 성남시 분당구 발이봉북로 7 지하 1층,실내,지하,127.1279578,37.3667937
양지마을 금호3단지 301동 앞 지하1~2층 주차장 민방위대피소,성남시 분당구,경기 성남시 분당구 내정로 151,실내,지하,127.1175228,37.37430286
수내역환승주차장 전기차충전소,성남시 분당구,경기 성남시 분당구 황새울로200번길 40 B3 출구쪽 A424기둥,실내,지하,127.1149494,37.37776172
수내제2주차장 전기차충전소,성남시 분당구,경기 성남시 분당구 수내동 119-2 주차장,실내,지하,127.1289398,37.36666559
양지마을 한양5단지 514동 앞 지하1층 주차장 민방위대피소,성남시 분당구,경기 성남시 분당구 내정로165번길 35,실내,지하,127.114206,37.37446379
수내동 공영주차장 전기차충전소,성남시 분당구,경기 성남시 분당구 발이봉북로 7 (주차관리실 옆),실내,지하,127.1279578,37.36676757
수내역환승주차장 전기차충전소,성남시 분당구,경기 성남시 분당구 황새울로200번길 40 지하3층 전기실 앞 벽면 (9기),실내,지하,127.1149258,37.37782031
수내2동 파크타운 롯데아파트 모든 동 주차장 민방위대피소,성남시 분당구,경기 성남시 분당구 내정로 152,실내,지하,127.1185641,37.37238895
수내동 푸른마을 쌍용아파트 506동앞 지하1층 주차장 민방위대피소,성남시 분당구,경기 성남시 분당구 백현로 227,실내,지하,127.122433,37.36816911
수내2동 파크타운 삼익아파트 모든 동 주차장 민방위대피소,성남시 분당구,경기 성남시 분당구 내정로166번길 42,실외,건물주변,127.1203364,37.37087524
수내2동 파크타운 서안아파트 모든 동 주차장 민방위대피소,성남시 분당구,경기 성남시 분당구 수내로 148,실외,건물주변,127.1238276,37.37254484
수내동 푸른마을 벽산아파트 201동앞 지하1층 주차장 민방위대피소,성남시 분당구,경기 성남시 분당구 수내로 174,실내,지하,127.1246247,37.36982741
양지마을 청구2단지 208동 앞 지하1층 주차장 민방위대피소,성남시 분당구,경기 성남시 분당구 내정로 185,실내,지하,127.1193305,37.37514171
정자역 환승 공영주차장,성남시 분당구,경기 성남시 분당구 성남대로331번길 6,실내,지하,127.107266,37.36573124
정자동공영주차장,성남시 분당구,경기 성남시 분당구 정자동 72,실내,지하,127.1120383,37.37142491
한국잡월드 주차장,성남시 분당구,경기 성남시 분당구 정자동 4-6,실외,야외시설,127.1055861,37.37771189
분당서울대학교병원 헬스케어혁신 파크 주차장,성남시 분당구,경기 성남시 분당구 돌마로 172,실내,지하,127.1209792,37.35422361
킨스타워 주차장,성남시 분당구,경기 성남시 분당구 성남대로331번길 8,실내,지상,127.1063066,37.36587537
카카오T 정자엠코헤리츠 3단지 주차장,성남시 분당구,경기 성남시 분당구 정자일로 136,실내,지하,127.1068377,37.36222574
인텔리지2타운 주차장,성남시 분당구,경기 성남시 분당구 정자일로 177,실외,건물주변,127.1053569,37.3664718
정자전원마을 공영주차장,성남시 분당구,경기 성남시 분당구 정자동 239,실내,지하,127.1243213,37.35902443
카카오 T 정자엠코헤리츠 2단지 주차장,성남시 분당구,경기 성남시 분당구 정자일로 140,실내,지하,127.1068608,37.36260865
정자2동 행정복지센터 노상주차장,성남시 분당구,경기 성남시 분당구 내정로 66,미분류,미분류,127.1152679,37.36600484
정자2동 행정복지센터 지하주차장,성남시 분당구,경기 성남시 분당구 내정로 66,실내,지하,127.1152679,37.36600484
백궁동양파라곤오피스텔 주차장,성남시 분당구,경기 성남시 분당구 느티로 22,실내,지상,127.1072389,37.36810277
카카오T 정자역엠코헤리츠1단지 주차장,성남시 분당구,경기 성남시 분당구 정자일로 146,실내,지하,127.1068703,37.36298257
두산위브파빌리온 주차장,성남시 분당구,경기 성남시 분당구 정자동 7,실외,건물주변,127.1075938,37.37155518
정자역AK와이즈플레이스오피스텔 주차장,성남시 분당구,경기 성남시 분당구 느티로 2,실내,지하,127.1051134,37.36832723
폴라리스1빌딩 주차장,성남시 분당구,경기 성남시 분당구 성남대로 381,실내,지하,127.107346,37.37036875
카카오T 정자엠코헤리츠 4단지 주차장,성남시 분당구,경기 성남시 분당구 정자일로 132,실내,지하,127.106826,37.36194463
정자1동 행정복지센터 노상주차장,성남시 분당구,경기 성남시 분당구 정자동 147,골목길,상가,127.1115461,37.36155103
미켈란쉐르빌 상가동 주차장,성남시 분당구,경기 성남시 분당구 정자일로 100,실내,지하,127.1066568,37.35886237
서울24시감자탕해장국 정자2호점 주차장,성남시 분당구,경기 성남시 분당구 내정로107번길 2,실내,지하,127.1145243,37.36992682
대림아크로텔오피스텔 주차장,성남시 분당구,경기 성남시 분당구 성남대로 295,실내,지하,127.1073704,37.36216759
정자1동 노상공영주차장,성남시 분당구,경기 성남시 분당구 정자동 189-7,실외,노상,127.1109119,37.36167957
백궁지엔느 주차장,성남시 분당구,경기 성남시 분당구 정자일로 227,실내,지상,127.1055568,37.37054877
젤존타워 제1민영 주차장,성남시 분당구,경기 성남시 분당구 느티로 16,실내,지하,127.106294,37.36816129
더채움,성남시 분당구,경기 성남시 분당구 정자일로198번길 2,실외,건물주변,127.1061094,37.36773347
분당도서관 부설주차장,성남시 분당구,경기 성남시 분당구 불정로 50,실내,지하,127.1172111,37.35829645
정자유스센터 주차장,성남시 분당구,경기 성남시 분당구 정자동 6-1 지하1층,실외,건물주변,127.1065544,37.3726815
대명제스트빌딩 주차장,성남시 분당구,경기 성남시 분당구 성남대로331번길 3-13,실내,지상,127.107684,37.36437933
삼성아데나루체 주차장,성남시 분당구,경기 성남시 분당구 정자일로 120,실외,건물주변,127.1065645,37.36145741
금산주차프라자,성남시 분당구,경기 성남시 분당구 내정로17번길 4-11,실내,지하,127.1138245,37.36260666
한국잡월드 제2주차장,성남시 분당구,경기 성남시 분당구 분당수서로 501,실외,야외시설,127.1062078,37.37747076
한국잡월드 제1주차장,성남시 분당구,경기 성남시 분당구 분당수서로 501,미분류,미분류,127.106277,37.37849786
그린팩토리 주차장,성남시 분당구,경기 성남시 분당구 불정로 6,실내,지하,127.1057985,37.3593569
백궁프라자3 주차장,성남시 분당구,경기 성남시 분당구 성남대로331번길 3-9,실내,지하,127.1076008,37.36463709
주택전시관 주차장,성남시 분당구,경기 성남시 분당구 불정로 64,실외,야외시설,127.1109187,37.35934861
평림빌딩 주차장,성남시 분당구,경기 성남시 분당구 정자로 82,골목길,상가,127.1140625,37.36318399
서울감자탕 정자1호점 주차장,성남시 분당구,경기 성남시 분당구 내정로31번길 7-13,골목길,상가,127.1141218,37.36214055
이마트 분당점 주차장,성남시 분당구,경기 성남시 분당구 불정로 134,실내,지상,127.1197516,37.35879397
정자역프라자 주차장,성남시 분당구,경기 성남시 분당구 성남대로 345,실내,지하,127.1076786,37.36692022
정자아이파크오피스텔 주차장,성남시 분당구,경기 성남시 분당구 백현로 100,실내,지상,127.1104466,37.37615859
백궁프라자2 주차장,성남시 분당구,경기 성남시 분당구 정자일로 158,실내,지하,127.1063653,37.36425077
분당도서관 주차장,성남시 분당구,경기 성남시 분당구 불정로 110,실내,지하,127.116581,37.35810425
분당 정자3공영주차장,성남시 분당구,경기 성남시 분당구 불정로 110,실외,건물주변,127.1164165,37.35832696
정자스타빌딩 주차장,성남시 분당구,경기 성남시 분당구 성남대로331번길 7,실내,지상,127.1070386,37.36543411
백궁프라자1 주차장,성남시 분당구,경기 성남시 분당구 성남대로331번길 13,실내,지하,127.1061489,37.36519912
아이파크분당1단지아파트 주차장,성남시 분당구,경기 성남시 분당구 정자일로 239,실내,지하,127.105594,37.37126865
젤존타워3 주차장,성남시 분당구,경기 성남시 분당구 성남대로331번길 3-3,실내,지하,127.1077124,37.36531997
하나프라자 주차장,성남시 분당구,경기 성남시 분당구 느티로 27,실내,지상,127.1072851,37.36888752
더샵스타파크 주차장,성남시 분당구,경기 성남시 분당구 정자일로 121,실내,지하,127.1057373,37.36078418
지파크프라자 주차장,성남시 분당구,경기 성남시 분당구 정자일로 192,실내,지하,127.1062162,37.36737566
반포메딕스빌딩,성남시 분당구,경기 성남시 분당구 정자일로 192,실외,건물주변,127.1062952,37.3673828
아마노 분당뉴본타워 주차장,성남시 분당구,경기 성남시 분당구 정자일로156번길 6,실내,지하,127.1061469,37.36387794
SPG센터 주차장,성남시 분당구,경기 성남시 분당구 정자일로 166,실내,지하,127.106242,37.36486538
푸르지오시티2차 주차장,성남시 분당구,경기 성남시 분당구 정자일로 197,실내,지하,127.105632,37.3678303
푸르지오시티 주차장,성남시 분당구,경기 성남시 분당구 정자일로 197,실내,지상,127.105703,37.36773023
정자3동 행정복지센터 주차장,성남시 분당구,경기 성남시 분당구 정자동 201,실외,건물주변,127.1194954,37.36092696
석우재빌딩 주차장,성남시 분당구,경기 성남시 분당구 성남대로331번길 9-9,실내,지상,127.107093,37.36478713
아데나팰리스 주차장,성남시 분당구,경기 성남시 분당구 성남대로 275,미분류,미분류,127.1076158,37.36089061
젤존타워2 주차장,성남시 분당구,경기 성남시 분당구 정자일로 162,실내,지하,127.1062597,37.36461398
폴라리스II 주차장,성남시 분당구,경기 성남시 분당구 성남대로 389,실내,지상,127.10749,37.37085247
분당클리닉 주차장,성남시 분당구,경기 성남시 분당구 성남대로 385,실내,지하,127.1075122,37.37056052
신수빌딩 주차장,성남시 분당구,경기 성남시 분당구 성남대로343번길 12-2,미분류,미분류,127.1067392,37.36680574
쏘카존 이마트 분당점 별관 주차장,성남시 분당구,경기 성남시 분당구 정자동 212 지상 1층,실외,야외시설,127.1197722,37.35753341
쏘카존 정자전원마을 공영주차장,성남시 분당구,경기 성남시 분당구 불곡로13번길 6 지하 3층 '하' 구역,실내,지하,127.1242954,37.35908662
쏘카존 [부름호출존] 정자동공영주차장,성남시 분당구,경기 성남시 분당구 백현로144번길 31 지하 2층,,,127.1122083,37.37109227
쏘카존 백궁지엔느빌딩 주차장,성남시 분당구,경기 성남시 분당구 정자일로 227 지상 7층,실내,지상,127.1057038,37.3706964
월드비터 주차관리실,성남시 분당구,경기 성남시 분당구 정자로 13,실내,지상,127.1063239,37.363721
경남선경빌라 114동 지하1층 주차장 민방위대피소,성남시 분당구,경기 성남시 분당구 황새울로132번길 27,실내,지하,127.1123693,37.37384745
정자동공영주차장 전기차충전소,성남시 분당구,경기 성남시 분당구 황새울로116번길 19-8 지하1층주차장 구석(화장실 옆),실내,지하,127.112223,37.37109135
경기성남 정자역 환승주차장 전기차충전소,성남시 분당구,경기 성남시 분당구 성남대로331번길 6 지하3층 지하주차장 3대,실내,지하,127.1073315,37.36575191
금곡공원 국민체육센터부설주차장 전기차충전소,성남시 분당구,경기 성남시 분당구 금곡로 298,실외,건물주변,127.1093753,37.35678572
분당파크뷰 지하1층 주차장 민방위대피소,성남시 분당구,경기 성남시 분당구 정자일로 248,실내,지하,127.1052558,37.37486945
정자프라자 지하2층~3층 주차장 민방위대피소,성남시 분당구,경기 성남시 분당구 내정로113번길 4,실내,지하,127.1148609,37.37077797
샘물교회 지하2층~4층 주차장 민방위대피소,성남시 분당구,경기 성남시 분당구 내정로17번길 8,실내,지하,127.1137727,37.36188048
정자역환승주차장 전기차충전소,성남시 분당구,경기 성남시 분당구 성남대로331번길 6 지하 3층 B3 D기둥 주변,실내,지하,127.1073315,37.36575191
정자전원마을 공영주차장 지하1층~3층 민방위대피소,성남시 분당구,경기 성남시 분당구 불곡로13번길 6,실내,지하,127.1245112,37.35921975
상록마을 라이프 아파트 103동 앞 지하1층 주차장 민방위대피소,성남시 분당구,경기 성남시 분당구 정자로 56,실내,지하,127.1120227,37.36246152
정자전원마을공영주차장 전기차충전소,성남시 분당구,경기 성남시 분당구 불곡로13번길 6 ( B1 좌측 끝 위치 ),실내,지하,127.1241959,37.35900023
한솔마을 한일아파트 303동 지하1층 주차장 민방위대피소,성남시 분당구,경기 성남시 분당구 백현로 234,실내,지하,127.1208334,37.36678318
정든마을 동아1단지아파트 104동 앞 지하주차장 1층 민방위대피소,성남시 분당구,경기 성남시 분당구 불정로 141,실내,지하,127.1203745,37.35939973
상록마을 임광보성아파트 지하1층 주차장 민방위대피소,성남시 분당구,경기 성남시 분당구 정자일로 80,실내,지하,127.1063306,37.35728046
정든마을 한진6단지아파트 601동 앞 지하주차장 1층 민방위대피소,성남시 분당구,경기 성남시 분당구 내정로 24,실내,지하,127.1150226,37.36211985
상록마을 우성아파트 323동 앞 지하1층 주차장 민방위대피소,성남시 분당구,경기 성남시 분당구 내정로 55,실내,지하,127.113169,37.36579692
백궁지엔느주차전용빌딩 전기차충전소,성남시 분당구,경기 성남시 분당구 정자일로 227 백궁지엔느주차전용빌딩,실내,지상,127.1056033,37.37070821
백궁지엔느주차전용빌딩 전기차충전소,성남시 분당구,경기 성남시 분당구 정자일로 227 백궁지엔느주차전용빌딩,실내,지상,127.1056033,37.37070821
백궁지엔느주차전용빌딩 전기차충전소,성남시 분당구,경기 성남시 분당구 정자일로 227 백궁지엔느주차전용빌딩,실내,지하,127.1056033,37.37070821
백궁지엔느주차전용빌딩 전기차충전소,성남시 분당구,경기 성남시 분당구 정자일로 227 백궁지엔느주차전용빌딩,실내,지하,127.1056033,37.37070821
정든마을동아1단지2(2주차장 106동) 전기차충전소,성남시 분당구,"경기 성남시 분당구 불정로 141 (정자동, 정든마을)",실내,지하,127.1205101,37.36014474
정든마을동아1단지1(1주차장 107동) 전기차충전소,성남시 분당구,"경기 성남시 분당구 불정로 141 (정자동, 정든마을)",실외,건물주변,127.1206107,37.35952563
서현역환승 공영주차장,성남시 분당구,경기 성남시 분당구 황새울로360번길 43,실내,지하,127.1240448,37.3844129
분당제생병원 본관 주차장,성남시 분당구,경기 성남시 분당구 서현로180번길 20,실내,지상,127.1215357,37.38855571
분당제생병원 본관 주차장,성남시 분당구,경기 성남시 분당구 서현로180번길 20,실내,지하,127.1215357,37.38855571
비전월드 주차장,성남시 분당구,경기 성남시 분당구 서현로180번길 19,실내,지상,127.1227352,37.38735521
하이파킹 분당비전월드,성남시 분당구,경기 성남시 분당구 서현로180번길 19,실내,지하,127.1226989,37.38723631
AK플라자 분당 주차장,성남시 분당구,경기 성남시 분당구 황새울로360번길 42,실내,지하,127.122791,37.38489626
분당제생병원 별관 주차장,성남시 분당구,경기 성남시 분당구 황새울로341번길 23,실내,지하,127.1213285,37.38755308
점골공영주차장,성남시 분당구,경기 성남시 분당구 불정로 419,실내,지하,127.1400375,37.37679041
서머셋 센트럴 분당 호텔 주차장,성남시 분당구,경기 성남시 분당구 황새울로311번길 36,실내,지하,127.1212312,37.38669631
세현주차빌딩,성남시 분당구,경기 성남시 분당구 황새울로 348,실내,지상,127.1238473,37.38657466
AK플라자 분당 B주차장,성남시 분당구,경기 성남시 분당구 성남대로 지하 601,실내,지하,127.1234303,37.38501453
메가박스 분당 주차장,성남시 분당구,경기 성남시 분당구 황새울로 332,실내,지하,127.1221912,37.3854483
빨간뻘낙지 주차장,성남시 분당구,경기 성남시 분당구 서현동 194-2,실외,건물주변,127.1351163,37.38510357
만강홍 주차장,성남시 분당구,경기 성남시 분당구 황새울로 337,실내,지하,127.1224308,37.38628511
서울나우병원 주차장,성남시 분당구,경기 성남시 분당구 분당로 43 지하1층~지하4층,실내,지하,127.1204467,37.38405621
나이스파크 분당타워갤러리 주차장,성남시 분당구,경기 성남시 분당구 황새울로 321,실내,지하,127.1212109,37.38531867
서현1동 행정복지센터 주차장,성남시 분당구,경기 성남시 분당구 서현동 89-1,골목길,상가,127.1262847,37.3828833
성남시 서현도서관 주차장,성남시 분당구,경기 성남시 분당구 중앙공원로 77,실외,건물주변,127.1321813,37.38366074
AK플라자 분당 A주차장,성남시 분당구,경기 성남시 분당구 황새울로360번길 42 지하5~2층,실내,지하,127.1231789,37.38521752
한국정보공학 본사사옥 주차장,성남시 분당구,경기 성남시 분당구 서현동 253-4,실내,지상,127.1235893,37.38761742
LG에클라트2차 주차장,성남시 분당구,경기 성남시 분당구 서현로 204,실내,지하,127.1251227,37.38711158
AK플라자 분당 C주차장,성남시 분당구,경기 성남시 분당구 황새울로312번길 36,실내,지상,127.1233598,37.38399194
서현궁 본점 주차장,성남시 분당구,경기 성남시 분당구 서현동 195-2,실외,건물주변,127.134596,37.3846104
만강 주차장,성남시 분당구,경기 성남시 분당구 돌마로 582 1층,실외,야외시설,127.1389891,37.38500177
한서빌딩 주차장,성남시 분당구,경기 성남시 분당구 황새울로360번길 25,실외,건물주변,127.1253801,37.38552065
야베스벨리빌딩 주차장,성남시 분당구,경기 성남시 분당구 서현로 192,실내,지상,127.1244218,37.38777422
성지하이츠텔 주차장,성남시 분당구,경기 성남시 분당구 서현로210번길 2,실내,지하,127.1254602,37.38680993
어반포트 서현265 KT&G분당 주차장,성남시 분당구,경기 성남시 분당구 황새울로312번길 26,실내,지하,127.1226645,37.38342952
코코프라자 주차장,성남시 분당구,경기 성남시 분당구 서현로210번길 20,실내,지하,127.1240575,37.3860077
서현파크프라자 주차장,성남시 분당구,경기 성남시 분당구 서현동 89,실외,건물주변,127.1256215,37.38333451
까사미아분당점 주차장,성남시 분당구,경기 성남시 분당구 황새울로 354,실내,지하,127.1239831,37.38675563
분당퍼스트타워 주차장,성남시 분당구,경기 성남시 분당구 분당로 55,실내,지하,127.1214816,37.38302799
하이파킹 서현빌딩 주차장,성남시 분당구,경기 성남시 분당구 황새울로 326,실내,지하,127.1218542,37.38513149
안집 한옥반점 공용주차장,성남시 분당구,경기 성남시 분당구 서현동 136-12,실외,건물주변,127.1362969,37.38361282
강남면옥 분당점 주차장,성남시 분당구,경기 성남시 분당구 새마을로 5,골목길,상가,127.1311582,37.38428269
아우디_분당 전시장 서비스센터 주차장,성남시 분당구,경기 성남시 분당구 새마을로 31,실외,건물주변,127.1341148,37.38389463
서현2동 행정복지센터 노상주차장,성남시 분당구,경기 성남시 분당구 서현동 295,실외,노상,127.1345837,37.37587229
대현빌딩 주차장,성남시 분당구,경기 성남시 분당구 황새울로 315,실외,건물주변,127.1203152,37.38514118
신영팰리스타워 주차장,성남시 분당구,경기 성남시 분당구 황새울로360번길 21,실내,지상,127.125709,37.38570141
케이엠파크 미래에셋플레이스 주차장,성남시 분당구,경기 성남시 분당구 황새울로359번길 11,실내,지하,127.1234314,37.3877185
효자촌프라자 주차장,성남시 분당구,경기 성남시 분당구 돌마로 478,실내,지하,127.1334351,37.37693139
서원플라자,성남시 분당구,경기 성남시 분당구 분당로53번길 11,미분류,미분류,127.1215533,37.38406679
시범단지삼성 한신아파트 상가동 주차장,성남시 분당구,경기 성남시 분당구 중앙공원로 53,실외,건물주변,127.1290885,37.3829947
월페이퍼 주차장,성남시 분당구,경기 성남시 분당구 서현동 51,실외,노외,127.1416284,37.38344888
스타벅스 분당구청점 주차장,성남시 분당구,경기 성남시 분당구 서현동 267-3,실외,건물주변,127.120386,37.38421756
N타운빌딩 주차장,성남시 분당구,경기 성남시 분당구 황새울로335번길 5,실내,지하,127.1216987,37.38604799
보람코아 주차장,성남시 분당구,경기 성남시 분당구 서현로210번길 1,실내,지하,127.1259271,37.38645083
서현리더스빌딩 주차장,성남시 분당구,경기 성남시 분당구 황새울로311번길 14,실내,지하,127.1196813,37.38559053
나이스파크 우리은행 분당중앙금융센터 주차장,성남시 분당구,경기 성남시 분당구 황새울로 346,실내,지하,127.1233432,37.38629497
유성트윈프라자 주차장,성남시 분당구,경기 성남시 분당구 서현로210번길 16,골목길,상가,127.1242835,37.38609396
금화빌딩 주차장,성남시 분당구,경기 성남시 분당구 황새울로360번길 19,실내,지하,127.1259183,37.38589941
농협협동조합중앙회 주차장,성남시 분당구,경기 성남시 분당구 분당로53번길 3,실내,지하,127.1209065,37.38350251
시그마타워 주차장,성남시 분당구,경기 성남시 분당구 황새울로 307,실내,지상,127.1198161,37.38446411
하이파킹 센터포인트서현점,성남시 분당구,경기 성남시 분당구 황새울로360번길 27,실내,지하,127.1252534,37.3853595
평양면옥 주차장,성남시 분당구,경기 성남시 분당구 서현동 203-1,실외,건물주변,127.1346702,37.38511489
서현유스센터 주차장,성남시 분당구,경기 성남시 분당구 불정로386번길 38,실내,지상,127.1398754,37.37217014
여암빌딩 주차장,성남시 분당구,경기 성남시 분당구 황새울로351번길 10,실내,지하,127.1230461,37.38759906
신영G타워 주차장,성남시 분당구,경기 성남시 분당구 황새울로 318,실내,지상,127.1212438,37.38470504
삼성생명 주차장,성남시 분당구,경기 성남시 분당구 서현로 200,실내,지하,127.1249372,37.38737453
서현지엔느오피스텔 지하주차장,성남시 분당구,경기 성남시 분당구 중앙공원로39번길 49,실내,지하,127.1249198,37.38367765
분당오벨리스크 주차장,성남시 분당구,경기 성남시 분당구 서현동 245-1,실외,건물주변,127.1259612,37.38616643
서현프라자 주차장,성남시 분당구,경기 성남시 분당구 서현로180번길 13,실내,지하,127.1228906,37.38778303
금호리빙스텔 주차장,성남시 분당구,경기 성남시 분당구 황새울로342번길 11,미분류,미분류,127.1236694,37.38621624
아름빌딩 주차장,성남시 분당구,경기 성남시 분당구 서현로180번길 26,실내,지하,127.1212682,37.38725581
삼보프라자 주차장,성남시 분당구,경기 성남시 분당구 황새울로360번길 26,미분류,미분류,127.1250634,37.38584265
토탈파킹주차장,성남시 분당구,경기 성남시 분당구 서현동 261-1,실내,지하,127.1212523,37.38648094
분당풍림아이원플러스오피스텔 주차장 입구,성남시 분당구,경기 성남시 분당구 서현로 170,실내,지하,127.1224272,37.38823312
분당풍림아이원플러스오피스텔 주차장 출구,성남시 분당구,경기 성남시 분당구 서현동 255-1,실내,지하,127.1216379,37.38893403
쏘카존 스카이파크 호텔주차장,성남시 분당구,경기 성남시 분당구 황새울로311번길 36 지하 5층,실내,지하,127.1213539,37.38645381
쏘카존 우성프라자 주차장,성남시 분당구,경기 성남시 분당구 돌마로 481 지하 3층,실내,지하,127.1330641,37.37781481
쏘카존 AK플라자 분당 B주차장,성남시 분당구,경기 성남시 분당구 성남대로 지하 601 지하 4층 B 주차장,실내,지하,127.1230859,37.38425803
투루카 한길렌트카 앞 주차장,성남시 분당구,경기 성남시 분당구 새마을로51번길 9-3,실외,야외시설,127.1362447,37.38408141
투루카 서현역5번출구(비전월드주차장6층),성남시 분당구,경기 성남시 분당구 서현로180번길 19 6층,실내,지상,127.1224461,37.38735911
"시범현대 410~412,426~429동 지하1층 주차장 민방위대피소",성남시 분당구,경기 성남시 분당구 중앙공원로 20,실내,지하,127.1290727,37.37903021
점골 공영주차장 전기차충전소,성남시 분당구,경기 성남시 분당구 불정로 419 (B2 2-23 기둥),실내,지하,127.1401895,37.37718217
서현역환승주차장 전기차충전소,성남시 분당구,경기 성남시 분당구 황새울로360번길 43 지하 3층 307기둥 주변,실내,지하,127.1237204,37.38426097
서현역환승주차장 전기차충전소,성남시 분당구,경기 성남시 분당구 황새울로360번길 43 지하3층 전기실 앞 벽면 (6기),미분류,미분류,127.1237204,37.38426097
분당 올림픽스포츠센터 주차장 (지하2층~지하3층) 민방위대피소,성남시 분당구,경기 성남시 분당구 중앙공원로 35,실내,지하,127.1289471,37.38085042
범한프라자 주차장(지하2층~지하3층) 민방위대피소,성남시 분당구,경기 성남시 분당구 서현동 312-3,실내,지하,127.1393802,37.37181392
효자촌 현대아파트 101동~114동 앞 지하1층 주차장 민방위대피소,성남시 분당구,경기 성남시 분당구 분당로201번길 17,실내,지하,127.1327949,37.37625274
서현파크프라자 지하주차장 (지하1층~지하4층) 민방위대피소,성남시 분당구,경기 성남시 분당구 중앙공원로31번길 42,실외,건물주변,127.125567,37.38314446
"효자촌 임광아파트 307동,315동 앞 지하1층 주차장 민방위대피소",성남시 분당구,경기 성남시 분당구 불정로 397,실내,지하,127.1379945,37.37588097
율동공원 A주차장,성남시 분당구,경기 성남시 분당구 문정로 145,실외,야외시설,127.1496449,37.38323177
스타벅스 분당율동공원점 주차장,성남시 분당구,경기 성남시 분당구 율동 300,실외,건물주변,127.1500188,37.38385751
성남 영어마을 주차장1,성남시 분당구,경기 성남시 분당구 율동 196-4,실외,야외시설,127.1562545,37.3895466
성남영어마을 주차장3,성남시 분당구,경기 성남시 분당구 새마을로 257,실외,야외시설,127.1590255,37.39272531
엘레멘츠 주차장,성남시 분당구,경기 성남시 분당구 새마을로165번길 17,실외,건물주변,127.1490269,37.3847769
율동공원A주차장 전기차충전소,성남시 분당구,경기 성남시 분당구 문정로 145 출구 쪽,실외,야외시설,127.1500785,37.38324293
율동공원A공영주차장 전기차충전소,성남시 분당구,경기 성남시 분당구 문정로 145 지상주차장,실외,야외시설,127.1500115,37.38303308
매송중학교 주차장,성남시 분당구,경기 성남시 분당구 탄천로 49,실외,건물주변,127.1232685,37.39717399
이매2동 행정복지센터 주차장,성남시 분당구,경기 성남시 분당구 이매동 138,실외,건물주변,127.1216901,37.39956694
갈보리교회 주차장2,성남시 분당구,경기 성남시 분당구 이매로 132,실외,야외시설,127.1337171,37.39073835
스타벅스 분당이매 주차장,성남시 분당구,경기 성남시 분당구 이매로 15,골목길,상가,127.1224102,37.39509623
이매고등학교 주차장,성남시 분당구,경기 성남시 분당구 탄천로 1,실외,건물주변,127.1216018,37.39313013
주차장,성남시 분당구,경기 성남시 분당구 이매동 360-4,실외,노외,127.1335687,37.39113497
아름마을 태영아파트 302동앞 지하1층 주차장 민방위대피소,성남시 분당구,경기 성남시 분당구 판교로 430,실내,지하,127.1215835,37.40485874
분당청소년경찰학교 주차장,성남시 분당구,경기 성남시 분당구 이매동 139,실외,건물주변,127.1217813,37.39940105
노상주차장,성남시 분당구,경기 성남시 분당구 이매동 152-3,실외,노상,127.1225357,37.40490551
제일프라자상가 주차장,성남시 분당구,경기 성남시 분당구 판교로 432,골목길,상가,127.1218017,37.40499637
우일프라자 주차장,성남시 분당구,경기 성남시 분당구 이매동 131-6,골목길,상가,127.1229199,37.40500422
한풍상가 전용주차장,성남시 분당구,경기 성남시 분당구 이매동 137-2,골목길,상가,127.1223464,37.39963474
NH농협은행 이매동지점,성남시 분당구,경기 성남시 분당구 성남대로779번길 19,실외,건물주변,127.1261907,37.39891078
이매포스파크103동 지하1층 주차장 민방위대피소,성남시 분당구,경기 성남시 분당구 이매로123번길 12,실내,지하,127.1352945,37.39193312
이매포스파크(경로당 앞 지상주차장) 전기차충전소,성남시 분당구,경기 성남시 분당구 이매로123번길 12,실내,지상,127.1352975,37.39169344
이매촌 삼성아파트 1009동 지하1층 주차장 민방위대피소,성남시 분당구,경기 성남시 분당구 양현로 220,실내,지하,127.1271973,37.40242188
이매촌 성지아파트 703동 지하1층 주차장 민방위대피소,성남시 분당구,경기 성남시 분당구 이매로 54,실내,지하,127.1273306,37.39445311
아름마을 삼호아파트 409동앞 지하1층 주차장 민방위대피소,성남시 분당구,경기 성남시 분당구 탄천로 95,실내,지하,127.1234443,37.40111938
이매촌 동신아파트 906동 지하1층 주차장 민방위대피소,성남시 분당구,경기 성남시 분당구 양현로166번길 20,실내,지하,127.1270754,37.39847194
이매촌 한신아파트 208동 지하1층 주차장 민방위대피소,성남시 분당구,경기 성남시 분당구 서현로 181,실내,지하,127.1271256,37.38802814
KT분당지사 지하1층 주차장 민방위대피소,성남시 분당구,경기 성남시 분당구 성남대로779번길 6,실내,지하,127.1280254,37.39987741
이매촌 동부아파트 501동 지하1층 주차장 민방위대피소,성남시 분당구,경기 성남시 분당구 양현로 88,실내,지하,127.1243277,37.39166133
이매촌 청구아파트 603동 지하1층 주차장 민방위대피소,성남시 분당구,경기 성남시 분당구 양현로94번길 29,실내,지하,127.1267218,37.39234177
아름마을 효성아파트 706동앞 지하1층 주차장 민방위대피소,성남시 분당구,경기 성남시 분당구 이매로 16,실내,지하,127.1224387,37.39459162
아름마을 선경아파트 603동 앞 지하1층 주차장 민방위대피소,성남시 분당구,경기 성남시 분당구 이매로 11,실내,지하,127.1220276,37.39529124
성남종합버스터미널 주차장,성남시 분당구,경기 성남시 분당구 성남대로925번길 16,실내,지상,127.1263916,37.41294755
맛고을공영주차장,성남시 분당구,경기 성남시 분당구 야탑동 385,실내,지하,127.1318435,37.41193696
야탑제1환승 공영주차장,성남시 분당구,경기 성남시 분당구 성남대로 920,실내,지하,127.1293928,37.41153061
야탑제2환승 공영주차장,성남시 분당구,경기 성남시 분당구 성남대로 919,실내,지하,127.1278894,37.41155477
바른세상병원 본관 주차장,성남시 분당구,경기 성남시 분당구 야탑로75번길 5,실내,지상,127.1268548,37.41027374
분당차병원 난임센터 주차장,성남시 분당구,경기 성남시 분당구 야탑동 502,실외,건물주변,127.1252955,37.40931401
탄천종합운동장 주차장1,성남시 분당구,경기 성남시 분당구 탄천로 215,실외,건물주변,127.1191202,37.40921407
탄천종합운동장 주차장2,성남시 분당구,경기 성남시 분당구 탄천로 215,실외,야외시설,127.1193394,37.4106663
성남시공용주차장,성남시 분당구,경기 성남시 분당구 탄천로 215,실내,지상,127.120575,37.41130927
분당척병원 주차장,성남시 분당구,경기 성남시 분당구 성남대로 932,실내,지하,127.1292562,37.41290121
성남아트센터 오페라하우스 주차장,성남시 분당구,경기 성남시 분당구 성남대로 808,실내,지하,127.1305425,37.40295975
성남아트센터 오페라하우스 주차장,성남시 분당구,경기 성남시 분당구 성남대로 808,실내,지상,127.1305425,37.40295975
성남아트센터 주차장,성남시 분당구,경기 성남시 분당구 성남대로 808,실외,야외시설,127.1290145,37.40105126
성남시 차량등록사업소 주차장,성남시 분당구,경기 성남시 분당구 야탑로 327,실외,건물주변,127.1538189,37.40679173
야탑1동 행정복지센터 주차장,성남시 분당구,경기 성남시 분당구 장미로86번길 18,골목길,상가,127.1302352,37.41204957
분당차병원 주차장1,성남시 분당구,경기 성남시 분당구 야탑로65번길 11,실외,야외시설,127.124995,37.40993964
분당차병원 주차장2,성남시 분당구,경기 성남시 분당구 야탑로65번길 11,실외,건물주변,127.1255841,37.41100582
코리아디자인센터 주차장,성남시 분당구,경기 성남시 분당구 야탑동 344-1,실외,야외시설,127.1236568,37.41354512
야탑2동 행정복지센터 노상주차장,성남시 분당구,경기 성남시 분당구 야탑동 508,실외,건물주변,127.1272227,37.40941197
갯마을해물요리 분당점 주차장,성남시 분당구,경기 성남시 분당구 성남대로858번길 4,실외,건물주변,127.1291766,37.40604994
세신빌딩 유료주차장,성남시 분당구,경기 성남시 분당구 야탑로 95,미분류,미분류,127.1293102,37.41018458
아미고타워 지하주차장,성남시 분당구,경기 성남시 분당구 야탑로81번길 10,실내,지하,127.12819,37.4103651
아미고개발,성남시 분당구,경기 성남시 분당구 야탑로81번길 10,미분류,미분류,127.1282097,37.41059844
우송프라자 주차장,성남시 분당구,경기 성남시 분당구 성남대로926번길 20,미분류,미분류,127.1299795,37.41311936
감미옥 본점 주차장,성남시 분당구,경기 성남시 분당구 야탑동 537-7,실외,건물주변,127.1229747,37.4088335
에이스코아빌딩 주차장,성남시 분당구,경기 성남시 분당구 야탑로 64,실외,노외,127.1259917,37.4095151
분당구보건소 주차장,성남시 분당구,경기 성남시 분당구 양현로 306,실외,건물주변,127.1244679,37.41089167
BYC빌딩 주차장,성남시 분당구,경기 성남시 분당구 성남대로 912,실내,지상,127.1292076,37.41090731
청담추어정 주차장,성남시 분당구,경기 성남시 분당구 야탑동 599-4,실외,건물주변,127.1346455,37.40727374
야탑시장 주차장,성남시 분당구,경기 성남시 분당구 야탑로 72,실내,지상,127.1268512,37.40948355
야탑리더스 주차장,성남시 분당구,경기 성남시 분당구 장미로 42,실내,지상,127.1251409,37.41345706
분당차병원 본관 주차장,성남시 분당구,"경기 성남시 분당구 야탑로 59 지하4층,1-4층",실내,지하,127.1249984,37.40995135
관보골든쇼핑스포츠빌딩 주차장,성남시 분당구,경기 성남시 분당구 성남대로916번길 5,실내,지하,127.1297619,37.41140947
나이스파크 국민은행 야탑역지점,성남시 분당구,경기 성남시 분당구 야탑동 367-3,실외,건물주변,127.1294068,37.41052686
NC백화점 야탑점 주차장,성남시 분당구,경기 성남시 분당구 야탑로81번길 11,실내,지하,127.127476,37.41092811
노상공영주차장,성남시 분당구,경기 성남시 분당구 야탑동 198-1,실외,노상,127.1529668,37.40486195
앤즈빌오피스텔 주차장,성남시 분당구,경기 성남시 분당구 장미로48번길 14,실내,지하,127.1251894,37.4127398
야탑유스센터 주차장,성남시 분당구,경기 성남시 분당구 야탑동 262,실내,지하,127.1416367,37.4100344
상희공원 주차장,성남시 분당구,경기 성남시 분당구 야탑동 324-1,미분류,미분류,127.1408253,37.41164819
노블리치오피스텔B동 주차장,성남시 분당구,경기 성남시 분당구 야탑로 103,실내,지하,127.1301325,37.41014763
세계로마트 야탑점 주차장,성남시 분당구,경기 성남시 분당구 벌말로 32,실내,지상,127.1386553,37.41096238
대우빌딩 주차장,성남시 분당구,경기 성남시 분당구 야탑로65번길 6,실내,지상,127.1261985,37.4102438
보배반점 야탑직영점 주차장,성남시 분당구,경기 성남시 분당구 장미로92번길 14,골목길,상가,127.13069,37.41248787
에스디파킹,성남시 분당구,경기 성남시 분당구 양현로 322,실외,건물주변,127.1232868,37.41319681
서일빌딩 주차장,성남시 분당구,경기 성남시 분당구 성남대로916번길 7,실내,지하,127.1296856,37.41104914
금탑프라자 주차장,성남시 분당구,경기 성남시 분당구 성남대로926번길 12,실외,건물주변,127.1298751,37.41283205
글라스타워 주차장,성남시 분당구,경기 성남시 분당구 성남대로916번길 11,실내,지상,127.1298106,37.41083907
현대ANC프라자 주차장,성남시 분당구,경기 성남시 분당구 성남대로925번길 11,실내,지하,127.1268749,37.41216675
한국전자기술연구원 주차장2,성남시 분당구,경기 성남시 분당구 새나리로 25,실외,야외시설,127.1592294,37.40369947
분당차병원 주차장,성남시 분당구,경기 성남시 분당구 야탑로65번길 16,실내,지하,127.1263613,37.41101941
노상 공영주차장,성남시 분당구,경기 성남시 분당구 야탑동 553-2,실외,노상,127.1221986,37.40599609
노블리치오피스텔A동 주차장,성남시 분당구,경기 성남시 분당구 성남대로916번길 20,실내,지하,127.129771,37.41015434
성남시평생학습원 주차장,성남시 분당구,경기 성남시 분당구 판교로 546,실외,야외시설,127.1348313,37.40566701
도서관사업소 주차관제실,성남시 분당구,경기 성남시 분당구 판교로 546,미분류,미분류,127.1340934,37.4067761
평생학습원내 여성문화복지회관 지하1층 주차장 민방위대피소,성남시 분당구,경기 성남시 분당구 판교로 546,실내,지하,127.1344113,37.40516652
대덕프라자 주차장,성남시 분당구,경기 성남시 분당구 야탑동 361-5,실내,지하,127.1296596,37.41232141
금호프라자 주차장,성남시 분당구,경기 성남시 분당구 야탑로75번길 9,실내,지하,127.1269113,37.41096926
다원기술비스퀘어 주차장,성남시 분당구,경기 성남시 분당구 야탑로105번길 18,실내,지하,127.1306995,37.41145439
주차박사,성남시 분당구,경기 성남시 분당구 성남대로925번길 37,실내,지상,127.1245613,37.41200343
대경오피스텔 주차장,성남시 분당구,경기 성남시 분당구 벌말로 43,실외,건물주변,127.1380921,37.41182081
뉴시티빌딩 주차장,성남시 분당구,경기 성남시 분당구 양현로310번길 25,미분류,미분류,127.127039,37.411653
성남시평생학습원 주차장1,성남시 분당구,경기 성남시 분당구 판교로562번길 17,실외,야외시설,127.1348731,37.40571201
목련마을대원아파트 지하주차장,성남시 분당구,경기 성남시 분당구 야탑로245번길 11,실내,지하,127.1450882,37.40807861
성남시평생학습원 주차장3,성남시 분당구,경기 성남시 분당구 판교로 548,실외,야외시설,127.1341608,37.40656699
대진아파트 지하주차장,성남시 분당구,경기 성남시 분당구 판교로 654,실내,지하,127.1449333,37.40510543
야탑제2환승 공영주차장 야탑2호관리사무실,성남시 분당구,경기 성남시 분당구 야탑로69번길 24-8,골목길,상가,127.1276455,37.41162351
쏘카존 맛고을공영주차장,성남시 분당구,경기 성남시 분당구 야탑로111번길 12-14 지하 3층,실내,지하,127.1317809,37.41165592
쏘카존 새벽회어시장 주차장,성남시 분당구,경기 성남시 분당구 야탑로105번길 18 지하 1층,실내,지하,127.1306961,37.41145169
쏘카존 [부름호출존]성남아트센터 부설주차장,성남시 분당구,경기 성남시 분당구 성남대로 808 지상 1층,실외,건물주변,127.131538,37.40262256
맛고을 공영주차장 전기차충전소,성남시 분당구,경기 성남시 분당구 야탑로111번길 12-14 지하 주차장,실내,지하,127.1318604,37.41191172
경기성남 야탑 제1 환승주차장 전기차충전소,성남시 분당구,경기 성남시 분당구 성남대로 920 지하3층 지하주차장 1대,실내,지하,127.1291723,37.41206966
탄천종합운동장(보조경기장 지하주차장) 전기차충전소,성남시 분당구,경기 성남시 분당구 탄천로 215 주차요금 징수소 우측,실내,지하,127.1200562,37.41251356
경기성남 맛고을 공영주차장 전기차충전소,성남시 분당구,경기 성남시 분당구 야탑로111번길 12-14 지상1층 지하주차장 3대,실내,지하,127.1317843,37.41165862
투아이센터 지하1층 주차장 민방위대피소,성남시 분당구,경기 성남시 분당구 벌말로50번길 41,실내,지하,127.1432781,37.41190294
야탑제2환승공영주차장 전기차충전소,성남시 분당구,경기 성남시 분당구 성남대로 919 B2 E기둥(B2 주차장 안쪽),실내,지하,127.1281653,37.4117581
성남아트센터 옥외주차장 전기차충전소,성남시 분당구,경기 성남시 분당구 성남대로 808 지상야외주차장,실외,야외시설,127.1290085,37.39955557
야탑역 제1환승공영주차장 전기차충전소,성남시 분당구,경기 성남시 분당구 성남대로 920 B3 진입 후 우측 위치,실내,지하,127.1290588,37.41175443
경기성남 야탑 제2 환승주차장 전기차충전소,성남시 분당구,경기 성남시 분당구 성남대로 919 지하3층 지하주차장 2대,실내,지하,127.1281653,37.4117581
탑마을 벽산아파트 모든 동의 지하1층 주차장 민방위대피소,성남시 분당구,경기 성남시 분당구 야탑로 124,실내,지하,127.1315693,37.40889723
목련마을 한신아파트 모든 동의 지하1층 주차장 민방위대피소,성남시 분당구,경기 성남시 분당구 판교로 627,실내,지하,127.142775,37.40689748
매화마을 2단지 모든 동의 지하1층 주차장 민방위대피소,성남시 분당구,경기 성남시 분당구 장미로 139,실내,지하,127.136744,37.4146723
성남아트센터 지하주차장 03기둥 전기차충전소,성남시 분당구,경기 성남시 분당구 성남대로 808 지하주차장 03번기둥 우측,실내,지하,127.1310545,37.40316912
탑마을 대우아파트 모든 동의 지하1층 주차장 민방위대피소,성남시 분당구,경기 성남시 분당구 판교로 421,실내,지하,127.1225025,37.40670038
탑마을 타워빌아파트 모든 동의 지하1층 주차장 민방위대피소,성남시 분당구,경기 성남시 분당구 양현로 272,실내,지하,127.1262832,37.40894174
분당차병원 지하1층~지하4층 주차장 민방위대피소,성남시 분당구,경기 성남시 분당구 야탑로 59,실내,지하,127.1255141,37.41034184
목련마을 한일아파트 모든 동의 지하1층 주차장 민방위대피소,성남시 분당구,경기 성남시 분당구 판교로 645,실내,지하,127.1442224,37.40659479
탑마을 선경아파트 모든 동의 지하1층~지하2층 주차장 민방위대피소,성남시 분당구,경기 성남시 분당구 야탑로 20,실내,지하,127.1231412,37.40775571
탑마을 경남아파트 모든 동의 지하1층 주차장 민방위대피소,성남시 분당구,경기 성남시 분당구 판교로 519,실내,지하,127.1313448,37.40709995
목련마을 영남아파트 모든 동의 지하1층 주차장 민방위대피소,성남시 분당구,경기 성남시 분당구 판교로 669,실내,지하,127.1465526,37.40605581
금곡동공영주차장,성남시 분당구,경기 성남시 분당구 금곡동 169,실외,노외,127.1067978,37.35079624
미금파크 유료주차장,성남시 분당구,경기 성남시 분당구 성남대로172번길 24,실내,지하,127.1114108,37.35097579
미금파크 상가동주차장,성남시 분당구,경기 성남시 분당구 성남대로172번길 24,실내,지상,127.1114952,37.35074145
유치회관 분당직영점 주차장,성남시 분당구,경기 성남시 분당구 대왕판교로 140,실외,야외시설,127.1022001,37.35612357
코오롱트리폴리스 A동 주차장,성남시 분당구,경기 성남시 분당구 정자일로 1,실내,지상,127.1050253,37.3504248
코오롱트리폴리스 지하1층 주차장 민방위대피소,성남시 분당구,경기 성남시 분당구 정자일로 1,실내,지하,127.1053835,37.35074705
도넛드로잉 주차장,성남시 분당구,경기 성남시 분당구 대왕판교로 103,실외,야외시설,127.1007416,37.35263604
보바스기념병원 주차장,성남시 분당구,경기 성남시 분당구 대왕판교로 155-7,실외,건물주변,127.0981656,37.35581794
금산젬월드 주차장,성남시 분당구,경기 성남시 분당구 돌마로 67,실내,지상,127.1095084,37.35049642
한국프라자 주차장,성남시 분당구,경기 성남시 분당구 성남대로 170,실내,지상,127.1097542,37.35113682
K헤밍웨이카페 주차장,성남시 분당구,경기 성남시 분당구 대왕판교로34번길 21,실외,건물주변,127.102482,37.34845378
천사의도시 1차 주차장,성남시 분당구,경기 성남시 분당구 성남대로 165,실내,지하,127.108292,37.35075523
이코노샤르망오피스텔 주차장,성남시 분당구,경기 성남시 분당구 돌마로 47,실내,지하,127.1074281,37.35041003
우방코아 주차장,성남시 분당구,경기 성남시 분당구 돌마로 73,실내,지상,127.1100115,37.3503617
현대아리온오피스텔 주차장,성남시 분당구,경기 성남시 분당구 성남대로172번길 12,실내,지하,127.1104368,37.35098752
구좌리 얼크니손칼국수 금곡점 주차장,성남시 분당구,경기 성남시 분당구 금곡동 56-3,실외,야외시설,127.0985956,37.36269062
골든벨리오피스텔 주차장,성남시 분당구,경기 성남시 분당구 성남대로171번길 9,실내,지하,127.1078321,37.3511485
천사의도시3 주차장,성남시 분당구,경기 성남시 분당구 정자일로6번길 13,실내,지상,127.1075809,37.35070633
미금프라자 주차장,성남시 분당구,경기 성남시 분당구 돌마로 75,실내,지하,127.110374,37.35045237
나이스파크 성남 대덕프라자2 주차장,성남시 분당구,경기 성남시 분당구 정자일로 25,실내,지하,127.1056804,37.35241008
나이스파크 미금동양프라자 주차장,성남시 분당구,경기 성남시 분당구 돌마로 85,실내,지하,127.1113413,37.3504839
미도프라자 주차장,성남시 분당구,경기 성남시 분당구 성남대로 168,실내,지하,127.1094965,37.35088838
메디파크빌딩 주차장,성남시 분당구,경기 성남시 분당구 돌마로 43,실외,건물주변,127.1066528,37.35040712
쏘카존 [부름호출존]금곡동공영주차장,성남시 분당구,경기 성남시 분당구 정자일로6번길 13 지상 1 층,실내,지상,127.1075393,37.35081719
쏘카존 미금파크주차빌딩,성남시 분당구,경기 성남시 분당구 성남대로172번길 24 지상 4층,실내,지상,127.1113974,37.35101725
금곡동공영주차장 (급) 전기차충전소,성남시 분당구,경기 성남시 분당구 성남대로171번길 17,실외,노외,127.1067369,37.35082062
금곡동 씨티밸리오피스텔 지하1층 주차장 민방위대피소,성남시 분당구,경기 성남시 분당구 성남대로171번길 17,실내,지하,127.1068141,37.35115033
YMCA 분당종합사회복지관 지하3층 주차장 민방위대피소,성남시 분당구,경기 성남시 분당구 정자일로 33,실내,지하,127.1055718,37.35300306
청솔마을 7단지 성원아파트 모든 동 지하1층 주차장 민방위대피소,성남시 분당구,경기 성남시 분당구 미금로 251,실내,지하,127.1094748,37.35223093
청솔마을 영남아파트 101~106동 지하1층 주차장 민방위대피소,성남시 분당구,경기 성남시 분당구 성남대로171번길 8,실내,지하,127.1081801,37.35215013
청솔마을 8단지 대원아파트 모든 동 지하1층 주차장 민방위대피소,성남시 분당구,경기 성남시 분당구 미금로 215,실내,지하,127.1125726,37.35046111
청솔마을 한라아파트 모든 동 지하1층 주차장 민방위대피소,성남시 분당구,경기 성남시 분당구 정자일로 72,실내,지하,127.1076033,37.35528353
청솔마을 화인아파트 모든 동 지하1층 주차장 민방위대피소,성남시 분당구,경기 성남시 분당구 정자일로 46,실내,지하,127.1070608,37.35401628
장수천한방민물장어 분당본점 주차장,성남시 분당구,경기 성남시 분당구 궁내동 210-6,실외,건물주변,127.1019396,37.36884359
스타벅스 분당궁내DT점 주차장,성남시 분당구,경기 성남시 분당구 궁내동 255-15,실외,건물주변,127.1020829,37.37042657
여기풍천민물장어 주차장,성남시 분당구,경기 성남시 분당구 궁내동 203-8,실외,건물주변,127.1019173,37.36738846
여수바다장어구이 주차장,성남시 분당구,경기 성남시 분당구 궁내동 239-3,실외,야외시설,127.100513,37.36826816
한독모터스비피에스전시장 주차장,성남시 분당구,경기 성남시 분당구 대왕판교로 321,실외,건물주변,127.1013259,37.37247976
BMW차징스테이션 한독모터스 분당전시장 주차장,성남시 분당구,경기 성남시 분당구 대왕판교로 331,실외,건물주변,127.1013868,37.37328883
중앙하이츠빌라 지하주차장,성남시 분당구,경기 성남시 분당구 궁내로40번길 11,실내,지하,127.09788,37.37055447
캠핑생활 성남198 프라이빗 파크 성남2주차장,성남시 분당구,경기 성남시 분당구 궁내동 198-31,실외,야외시설,127.1009053,37.36363925
나이스파크 분당예스빌딩 주차장,성남시 분당구,경기 성남시 분당구 대왕판교로 288,실외,건물주변,127.1022531,37.36938214
궁내동 210-1 주차장,성남시 분당구,경기 성남시 분당구 궁내동 210-1,실외,건물주변,127.1021322,37.36932367
리젠트카운티 주차장,성남시 분당구,경기 성남시 분당구 궁내로22번길 21,실외,건물주변,127.1003409,37.37126241
나이스파크 궁내빌딩2주차장,성남시 분당구,경기 성남시 분당구 대왕판교로 291,실외,건물주변,127.1013876,37.36970815
투루카 폭스바겐 판교서비스센터 지상2주차장,성남시 분당구,경기 성남시 분당구 대왕판교로 283,미분류,미분류,127.1012704,37.36902437
구미동주차장,성남시 분당구,경기 성남시 분당구 미금일로74번길 15,실내,지상,127.1114515,37.34717341
구미동주차장,성남시 분당구,경기 성남시 분당구 미금일로74번길 15,실내,지상,127.1114515,37.34717341
구미동주차장,성남시 분당구,경기 성남시 분당구 미금일로74번길 15,실내,지하,127.1114515,37.34717341
구미동주차장,성남시 분당구,경기 성남시 분당구 미금일로74번길 15,실내,지하,127.1114515,37.34717341
구미동행정복지센터 주차장,성남시 분당구,경기 성남시 분당구 구미로 130,실내,지하,127.1226133,37.34022805
구미동 229 주차장,성남시 분당구,경기 성남시 분당구 구미동 229,실외,노외,127.1230825,37.34004465
오리역환승공영주차장,성남시 분당구,경기 성남시 분당구 구미동 196,실내,지하,127.1096047,37.33990113
분당서울대학교병원 주차장,성남시 분당구,경기 성남시 분당구 구미로173번길 82,실내,지상,127.1248019,37.34798543
분당서울대학교병원 주차장,성남시 분당구,경기 성남시 분당구 구미로173번길 82,실내,지상,127.1248019,37.34798543
분당서울대학교병원 지하주차장,성남시 분당구,경기 성남시 분당구 구미로173번길 82,실내,지하,127.1225721,37.35094313
분당서울대학교병원 주차장1,성남시 분당구,경기 성남시 분당구 구미로173번길 82,미분류,미분류,127.1249579,37.34678689
분당서울대학교병원 주차장,성남시 분당구,경기 성남시 분당구 구미로173번길 82,실외,야외시설,127.1248019,37.34798543
분당서울대학교병원 주차장,성남시 분당구,경기 성남시 분당구 구미로173번길 82,실외,야외시설,127.1248019,37.34798543
미금 더 프라자 주차장,성남시 분당구,경기 성남시 분당구 미금일로90번길 36-5,실내,지하,127.1104885,37.34931156
하나로마트 성남점 주차장,성남시 분당구,경기 성남시 분당구 구미동 174,실외,야외시설,127.1079323,37.3375762
구미동차고지,성남시 분당구,경기 성남시 분당구 탄천상로163번길 10,실외,노외,127.1054846,37.34153484
분당프라자 주차장,성남시 분당구,경기 성남시 분당구 돌마로 68,실내,지하,127.1098094,37.34951402
분당엠타워 주차장,성남시 분당구,경기 성남시 분당구 구미로 8,실내,지상,127.1101114,37.33760483
시그마2오피스텔 지하주차장,성남시 분당구,경기 성남시 분당구 탄천상로 164,실내,지하,127.1048346,37.34483318
분당포스빌오피스텔 주차장,성남시 분당구,경기 성남시 분당구 성남대로 51,실내,지상,127.10809,37.34047197
탑월드 유료주차장,성남시 분당구,경기 성남시 분당구 구미로9번길 25,실내,지하,127.1099293,37.34038468
분당대맥주차빌딩,성남시 분당구,경기 성남시 분당구 구미로9번길 25,실내,지상,127.1099293,37.34038468
구미공원 주차장,성남시 분당구,경기 성남시 분당구 구미동 303-6,실외,야외시설,127.1181902,37.34057855
2001아울렛 분당점 주차장,성남시 분당구,경기 성남시 분당구 미금일로154번길 20,실내,지하,127.1071647,37.34927047
로드랜드EZ타워 주차장,성남시 분당구,경기 성남시 분당구 성남대로 69,실내,지상,127.108187,37.34201805
구미도서관 주차장,성남시 분당구,경기 성남시 분당구 미금일로 105,실외,건물주변,127.1076887,37.34552982
미금웰파크 주차장,성남시 분당구,경기 성남시 분당구 미금일로90번길 32,실내,지하,127.1104654,37.34894036
성우스타우스오피스텔 주차장,성남시 분당구,경기 성남시 분당구 구미로 16,실내,지상,127.111408,37.33756668
하나로클럽 성남점 주차장1,성남시 분당구,경기 성남시 분당구 성남대로43번길 11,실외,야외시설,127.1087191,37.33693305
글로리타워 주차장,성남시 분당구,경기 성남시 분당구 구미로9번길 3-10,실내,지하,127.1097308,37.33889816
계산빌딩 주차장,성남시 분당구,경기 성남시 분당구 성남대로 36,실내,지상,127.1095212,37.33912902
분당엠코헤리츠 주차장,성남시 분당구,경기 성남시 분당구 성남대로 151,실내,지하,127.1082164,37.34918932
MD프라자 주차장,성남시 분당구,경기 성남시 분당구 돌마로 52,실내,지하,127.1077443,37.34968892
홈플러스오리점 주차장,성남시 분당구,경기 성남시 분당구 탄천상로151번길 20,실내,지하,127.1067339,37.34077955
포인트타운 주차장,성남시 분당구,경기 성남시 분당구 구미로 11,실내,지하,127.1104818,37.33851813
현대벤처빌오피스텔 주차장,성남시 분당구,경기 성남시 분당구 돌마로 80,실내,지하,127.1106628,37.34960333
한샘바흐하우스 주차장,성남시 분당구,경기 성남시 분당구 구미로159번길 6,실내,지하,127.1247604,37.3433722
그랜드프라자 주차장,성남시 분당구,경기 성남시 분당구 성남대로 52,실내,지상,127.1094012,37.34045365
FANTOM 민영주차장,성남시 분당구,경기 성남시 분당구 구미로9번길 7,실내,지상,127.1100976,37.33895819
그랜드빌 지하주차장,성남시 분당구,경기 성남시 분당구 미금로 114,실내,지하,127.1173921,37.34329595
캠핑생활 성남818 프라이빗 파크 성남1주차장,성남시 분당구,경기 성남시 분당구 구미동 818-1,실외,야외시설,127.1029672,37.34256423
광천프라자 주차장,성남시 분당구,경기 성남시 분당구 돌마로 46,실내,지하,127.1068932,37.34962482
카카오 T 광천프라자 주차장,성남시 분당구,경기 성남시 분당구 돌마로 46,실내,지상,127.1069892,37.3496878
SM빌딩 주차장,성남시 분당구,경기 성남시 분당구 성남대로 45,실내,지하,127.1082121,37.3398952
드Y 지하주차장,성남시 분당구,경기 성남시 분당구 구미로174번길 6,실내,지하,127.1252895,37.34253729
무지개마을9단지 동아아파트 지하주차장,성남시 분당구,경기 성남시 분당구 구미로144번길 8,실외,건물주변,127.1239007,37.34075291
무지개마을12단지주공아파트 지하주차장,성남시 분당구,경기 성남시 분당구 미금로22번길 10,실내,지하,127.1187726,37.33489066
쏘카존 분당앤스퀘어 주차장,성남시 분당구,경기 성남시 분당구 탄천상로151번길 20 지하 4층 15구역,실내,지하,127.1069721,37.340045
쏘카존 탑월드주차빌딩,성남시 분당구,경기 성남시 분당구 구미로9번길 25 지상 6층,실내,지상,127.1097554,37.34035511
쏘카존 탑월드주차빌딩,성남시 분당구,경기 성남시 분당구 구미로9번길 25 지상 6층,실내,지상,127.1097554,37.34035511
쏘카존 탑월드주차빌딩,성남시 분당구,경기 성남시 분당구 구미로9번길 25 지상 6층,실내,지하,127.1097554,37.34035511
쏘카존 탑월드주차빌딩,성남시 분당구,경기 성남시 분당구 구미로9번길 25 지상 6층,실내,지하,127.1097554,37.34035511
하나이지타워 관리단,성남시 분당구,경기 성남시 분당구 성남대로43번길 10,실내,지상,127.1078151,37.34002802
비티컴퍼스,성남시 분당구,경기 성남시 분당구 구미로 60,실외,건물주변,127.1156728,37.33780676
오리역환승주차장 전기차충전소,성남시 분당구,경기 성남시 분당구 성남대로 40-1 지하3층 전기실 앞 벽면 (2기),실내,지하,127.1091672,37.33938074
"까치마을 4단지 401,405,409동 지하1층 주차장 민방위대피소",성남시 분당구,경기 성남시 분당구 미금일로 58,실내,지하,127.1128384,37.34706127
까치마을 1단지 114동~116동 지하1층 주차장 민방위대피소,성남시 분당구,경기 성남시 분당구 미금로 184,실내,지하,127.1169587,37.35055867
현대노블리스 107동 108동 지하주차장 전기차충전소,성남시 분당구,"경기 성남시 분당구 금곡로 171 (구미동, 현대노블리스)",실내,지하,127.1191891,37.34926437
오리역 환승공영주차장 지하2층~지하3층 민방위대피소,성남시 분당구,경기 성남시 분당구 구미동 197-1,실내,지하,127.1090584,37.34059452
무지개마을 청구아파트 506동 지하1층 주차장 민방위대피소,성남시 분당구,경기 성남시 분당구 무지개로 144,실내,지하,127.1184639,37.33953037
경기성남 하얀마을5단지 1주차장 전기차충전소,성남시 분당구,경기 성남시 분당구 미금일로 21 1주차장 지하1층 A24 기둥우측,실내,지하,127.1178172,37.34599411
"무지개마을 대림아파트 101동,105동 지하1층 주차장 민방위대피소",성남시 분당구,경기 성남시 분당구 미금로 23,실내,지하,127.1177194,37.33466105
까치마을 2단지 202동~205동 지하1층 주차장 민방위대피소,성남시 분당구,경기 성남시 분당구 미금일로 22,실내,지하,127.1177391,37.34803051
"무지개마을 건영아파트 601동,603동 지하1층 주차장 민방위대피소",성남시 분당구,경기 성남시 분당구 구미로 115,실외,건물주변,127.1217529,37.34059746
"무지개마을 엘지아파트 207동,210동 지하1층 주차장 민방위대피소",성남시 분당구,경기 성남시 분당구 구미로 50,실내,지하,127.1140366,37.33640545
까치마을 3단지 308동~309동 지하1층 주차장 민방위대피소,성남시 분당구,경기 성남시 분당구 미금로 177,실내,지하,127.1139919,37.3493668
까치마을 3단지 308동~309동 지하1층 주차장 민방위대피소,성남시 분당구,경기 성남시 분당구 미금로 177,실내,지하,127.1139919,37.3493668
까치마을 3단지 308동~309동 지하1층 주차장 민방위대피소,성남시 분당구,경기 성남시 분당구 미금로 177,실외,건물주변,127.1139919,37.3493668
까치마을 3단지 308동~309동 지하1층 주차장 민방위대피소,성남시 분당구,경기 성남시 분당구 미금로 177,실외,건물주변,127.1139919,37.3493668
경기성남 하얀마을5단지 2주차장 전기차충전소,성남시 분당구,경기 성남시 분당구 미금일로 21 2주차장 지하1층 B07 기둥좌측,실내,지하,127.1178172,37.34599411
경기성남 하얀마을5단지 3주차장 전기차충전소,성남시 분당구,경기 성남시 분당구 미금일로 21 3주차장 지하1층 C07 기둥좌측,실내,지하,127.1178172,37.34599411
성남 무지개마을5단지청구아파트 지상주차장 전기차충전소,성남시 분당구,"경기 성남시 분당구 무지개로 144 502동 앞 3기, 504동 앞 3기, 505동 앞 3기, 506동 앞 3기, 509동 앞 3기, 512동 앞 3기",미분류,미분류,127.1184377,37.33939795
솔밭 주차장,성남시 분당구,경기 성남시 분당구 동원동 62-4,실외,건물주변,127.1008007,37.34451232
캠핑생활 성남3723 프라이빗 파크 성남3주차장,성남시 분당구,경기 성남시 분당구 동원동 37-23,실외,노외,127.102097,37.34582491
캠핑생활 성남3722 프라이빗 파크 성남4주차장,성남시 분당구,경기 성남시 분당구 동원동 37-22,실외,노외,127.1021058,37.3465259
판교 제2공영주차장,성남시 분당구,경기 성남시 분당구 판교동 574,실외,노외,127.0985155,37.39038548
판교동임시 공영주차장,성남시 분당구,경기 성남시 분당구 판교동 578,실외,노외,127.0981133,37.38934063
신화푸드빌리지 판교점 주차장,성남시 분당구,경기 성남시 분당구 판교로 185,실내,지상,127.095073,37.40064012
판교도서관 주차장,성남시 분당구,경기 성남시 분당구 판교동 553,실외,건물주변,127.090485,37.39190111
판교유스센터 주차장,성남시 분당구,경기 성남시 분당구 판교동 553,실외,야외시설,127.0916826,37.3913857
낙생농협하나로마트 주차장,성남시 분당구,경기 성남시 분당구 서판교로32번길 7,실내,지하,127.098306,37.38991712
하이파킹 서판교점,성남시 분당구,경기 성남시 분당구 판교동 620,실내,지상,127.0902087,37.39026777
하이파킹 서판교2점 주차장,성남시 분당구,경기 성남시 분당구 판교공원로2길 2 AJ주차타워,실내,지상,127.0906151,37.39018096
하이파킹 석란빌딩 주차장,성남시 분당구,경기 성남시 분당구 판교로 182-7,실내,지상,127.0958974,37.39973663
하이파킹 석란빌딩 주차장,성남시 분당구,경기 성남시 분당구 판교로 182-7,실내,지상,127.0958974,37.39973663
하이파킹 석란빌딩 주차장,성남시 분당구,경기 성남시 분당구 판교로 182-7,실외,건물주변,127.0958974,37.39973663
하이파킹 석란빌딩 주차장,성남시 분당구,경기 성남시 분당구 판교로 182-7,실외,건물주변,127.0958974,37.39973663
판교박물관 주차장,성남시 분당구,경기 성남시 분당구 판교동 499,실외,야외시설,127.0953669,37.40082189
뚜에이오 주차장,성남시 분당구,경기 성남시 분당구 판교동 614,골목길,상가,127.0888142,37.39138879
판교원마을11단지현대힐스테이트아파트 지하주차장,성남시 분당구,경기 성남시 분당구 서판교로 147,실내,지하,127.0948546,37.39757863
리버스토리 민영주차장,성남시 분당구,경기 성남시 분당구 운중로 242,실내,지하,127.0897229,37.38916979
판교동행정복지센터 지하주차장,성남시 분당구,경기 성남시 분당구 서판교로32번길 9,실내,지하,127.098673,37.38992222
하이파킹 서판교2점,성남시 분당구,경기 성남시 분당구 판교공원로3길 10,실내,지상,127.0906524,37.39021066
KM파크 서판교 주차장,성남시 분당구,경기 성남시 분당구 판교동 571-11,미분류,미분류,127.0998958,37.38973198
투루 서판교점 민영 주차장,성남시 분당구,경기 성남시 분당구 판교공원로5길 20,실내,지상,127.0901965,37.39045969
쏘카존 판교동임시공영주차장,성남시 분당구,경기 성남시 분당구 서판교로32번길 20 지상 1층,실외,노외,127.0980035,37.38914339
판교도서관 주차장 전기차충전소,성남시 분당구,"경기 성남시 분당구 판교공원로4길 27 판교도서관,실외, 실내",실내,지상,127.0897548,37.39221342
판교도서관 주차장 전기차충전소,성남시 분당구,"경기 성남시 분당구 판교공원로4길 27 판교도서관,실외, 실내",실내,지상,127.0897548,37.39221342
판교도서관 주차장 전기차충전소,성남시 분당구,"경기 성남시 분당구 판교공원로4길 27 판교도서관,실외, 실내",실외,건물주변,127.0897548,37.39221342
판교도서관 주차장 전기차충전소,성남시 분당구,"경기 성남시 분당구 판교공원로4길 27 판교도서관,실외, 실내",실외,건물주변,127.0897548,37.39221342
판교제2공영주차장 전기차충전소,성남시 분당구,경기 성남시 분당구 서판교로32번길 3-12 입구 기준 우측 코너 보도블럭 상부 전면설치,실외,노외,127.0982206,37.39019921
판교원마을13단지 2주차장 1305동 B2 27기둥 전기차충전소,성남시 분당구,경기 성남시 분당구 서판교로 193,실내,지하,127.0913096,37.40324163
판교원마을 13단지 전체 동의 지하1~2층 주차장 민방위대피소,성남시 분당구,경기 성남시 분당구 서판교로 193,실내,지하,127.091758,37.40322777
판교원마을 8단지 전체 동의 지하1층 주차장 민방위대피소,성남시 분당구,경기 성남시 분당구 판교원로 255,실내,지하,127.0947809,37.38749445
분당 서판교2호점 주차장 지상 4층 전기차충전소,성남시 분당구,경기 성남시 분당구 판교공원로2길 2 서판교2호점 주차장 지상 4층,실내,지상,127.0907077,37.39022864
판교원마을 3단지 전체 동의 지하1~2층 주차장 민방위대피소,성남시 분당구,경기 성남시 분당구 판교로 20,실내,지하,127.0850781,37.38794423
판교원마을 5단지 전체 동의 지하1~2층 주차장 민방위대피소,성남시 분당구,경기 성남시 분당구 판교원로 207,실내,지하,127.088925,37.38767199
판교원마을 12단지 전체 동의 지하1~2층 주차장 민방위대피소,성남시 분당구,경기 성남시 분당구 서판교로 165,실내,지하,127.0939892,37.40005803
판교원마을 10단지 전체 동의 지하1층 주차장 민방위대피소,성남시 분당구,경기 성남시 분당구 서판교로 73,실내,지하,127.0969915,37.39333578
판교원마을 9단지 전체 동의 지하1~2층 주차장 민방위대피소,성남시 분당구,경기 성남시 분당구 서판교로 29,실내,지하,127.0965666,37.38956986
판교원마을 7단지 전체 동의 지하1~2층 주차장 민방위대피소,성남시 분당구,경기 성남시 분당구 판교원로 237,실내,지하,127.0927636,37.38703292
판교원마을 1단지 전체 동의 지하1~2층 주차장 민방위대피소,성남시 분당구,경기 성남시 분당구 판교로 50,실내,지하,127.0871504,37.39196398
판교역 환승 공영주차장,성남시 분당구,경기 성남시 분당구 분당내곡로 121,실내,지상,127.1112972,37.39473779
판교역 환승 공영주차장,성남시 분당구,경기 성남시 분당구 분당내곡로 121,실내,지상,127.1112972,37.39473779
판교역 환승 공영주차장,성남시 분당구,경기 성남시 분당구 분당내곡로 121,실내,지하,127.1112972,37.39473779
판교역 환승 공영주차장,성남시 분당구,경기 성남시 분당구 분당내곡로 121,실내,지하,127.1112972,37.39473779
판교공영주차장,성남시 분당구,경기 성남시 분당구 백현동 539,실내,지상,127.1107361,37.39335345
백현동카페거리 공영주차장,성남시 분당구,경기 성남시 분당구 판교역로2번길 23,실내,지상,127.1119824,37.3854485
현대백화점 판교점 주차장,성남시 분당구,경기 성남시 분당구 판교역로146번길 20,실내,지하,127.1120542,37.39276023
힐스테이트판교역오피스텔 주차장,성남시 분당구,경기 성남시 분당구 판교역로 138,실내,지상,127.1104048,37.39306453
임시주차장,성남시 분당구,경기 성남시 분당구 백현동 567,실외,노외,127.1090877,37.38583504
카카오 T 판교테크원 주차장,성남시 분당구,경기 성남시 분당구 분당내곡로 131,실내,지하,127.1121306,37.39547494
판교어린이도서관 주차장,성남시 분당구,경기 성남시 분당구 백현동 523,실외,야외시설,127.1080278,37.38685597
그레이츠 판교 주차장,성남시 분당구,경기 성남시 분당구 분당내곡로 117,실내,지하,127.1125231,37.39442758
하나님의교회 주차장,성남시 분당구,경기 성남시 분당구 판교역로 35,실내,지하,127.1084569,37.38374705
라스트리트 주차장,성남시 분당구,경기 성남시 분당구 판교역로 145,실내,지하,127.1092082,37.39417299
알파리움1단지아파트 전용주차장,성남시 분당구,경기 성남시 분당구 대왕판교로606번길 10,실내,지하,127.1085863,37.39595669
남서울CC 주차장,성남시 분당구,경기 성남시 분당구 판교백현로 161,실외,노외,127.0834763,37.38229685
백마강참숯민물장어 판교점 주차장,성남시 분당구,경기 성남시 분당구 백현동 475-5,실외,야외시설,127.0982666,37.38136644
백현동행정복지센터 주차장,성남시 분당구,경기 성남시 분당구 동판교로 21,실내,지하,127.1108397,37.38853828
백현마을2단지휴먼시아아파트 지하주차장,성남시 분당구,경기 성남시 분당구 동판교로 122,실내,지하,127.1188483,37.39296444
카카오 판교 아지트 주차장,성남시 분당구,경기 성남시 분당구 판교역로 166,실내,지하,127.1104873,37.39542963
사계절한정식 주차장,성남시 분당구,경기 성남시 분당구 백현동 491,실외,야외시설,127.0939378,37.38243587
긴자 백현점 주차장,성남시 분당구,경기 성남시 분당구 백현동 489-4,실외,야외시설,127.0950179,37.38200792
카카오T 판교알파돔타워 주차장,성남시 분당구,경기 성남시 분당구 판교역로 152,실내,지하,127.1099529,37.39447054
더샵공영주차장,성남시 분당구,경기 성남시 분당구 백현동 516-20,실외,노외,127.0925537,37.38350828
너와집백합샤브샤브 백현점 주차장,성남시 분당구,경기 성남시 분당구 백현동 490-9,실외,야외시설,127.0942819,37.38218782
루프 주차장,성남시 분당구,경기 성남시 분당구 백현동 585-3,골목길,상가,127.1140154,37.38503569
"투루파킹 힐스테이트 판교역 101동,102동 주차장",성남시 분당구,경기 성남시 분당구 판교역로 136,미분류,미분류,127.110037,37.39253957
카페두레브 주차장,성남시 분당구,경기 성남시 분당구 판교백현로 57,골목길,상가,127.0929679,37.38244475
보평고등학교 주차장,성남시 분당구,경기 성남시 분당구 백현동 544,실외,건물주변,127.1181594,37.39439505
큰집쭈꾸미 본점 주차장,성남시 분당구,경기 성남시 분당구 백현동 472-74,실외,건물주변,127.1022679,37.37778148
휴먼시아지하주차장,성남시 분당구,경기 성남시 분당구 판교역로 102,실내,지하,127.1117734,37.39071788
이마트24 판교남서울점 노상 민영 주차장,성남시 분당구,경기 성남시 분당구 백현동 485-5,실외,노상,127.0967351,37.38192274
알파돔타워지하주차장 입출구,성남시 분당구,경기 성남시 분당구 백현동 531-1,실내,지하,127.1097914,37.39444817
환승주차장삼거리,성남시 분당구,경기 성남시 분당구 백현동,미분류,미분류,127.1096684,37.39374729
쏘카존 판교역환승공영주차장,성남시 분당구,경기 성남시 분당구 분당내곡로 131 지하 1층,실내,지하,127.1121305,37.39545962
쏘카존 백현동카페거리 공영주차장,성남시 분당구,경기 성남시 분당구 판교역로2번길 23 지상 4층,실내,지상,127.1119812,37.3854467
쏘카존 그레이츠판교 주차장,성남시 분당구,경기 성남시 분당구 분당내곡로 117 지하 6층 전기차 충전구역,실내,지하,127.1124785,37.39403568
카카오판교아지트 주차장입구,성남시 분당구,경기 성남시 분당구 판교역로 166 1층,실내,지하,127.1100226,37.39503181
쏘카존 현대백화점 판교점 주차장,성남시 분당구,경기 성남시 분당구 판교역로146번길 20 지하 6층 k3-4,실내,지하,127.1117414,37.39199556
쏘카존 그레이츠 판교(GREITS PANGYO) 주차장,성남시 분당구,경기 성남시 분당구 분당내곡로 117 지하 5층 02-05번 인근 구역,실내,지하,127.1124846,37.39434742
투루카 백현마을 4단지 412동 지하주차장(지하 2층),성남시 분당구,경기 성남시 분당구 동판교로 91 지하2층,실내,지하,127.1135457,37.39029091
투루카 백현마을 2단지 203동 지하주차장(지하 2층),성남시 분당구,경기 성남시 분당구 동판교로 122 지하2층,실내,지하,127.1186059,37.39319895
판교역 환승주차장 전기차충전소,성남시 분당구,경기 성남시 분당구 분당내곡로 121 지하1층 주차장 진입 후 정면 벽쪽,실내,지하,127.1124807,37.39474388
판교공영주차장 전기차충전소,성남시 분당구,"경기 성남시 분당구 판교역로146번길 8 지상3층 EPS실 옆 벽면, 지상4층 EPS실 옆 벽면, 지상5층 EPS실 옆 벽면, 지상6층 EPS실 옆 벽면",실내,지상,127.1107455,37.39362284
판교역 환승주차장 전기차충전소,성남시 분당구,경기 성남시 분당구 분당내곡로 131 지하 1층 주차장 B09,실내,지하,127.1125138,37.39497
유스페이스2 주차장,성남시 분당구,경기 성남시 분당구 대왕판교로 670,실내,지하,127.1071257,37.4020237
판교7벤처밸리1단지 주차장,성남시 분당구,경기 성남시 분당구 판교로228번길 15,실내,지하,127.1017857,37.40198066
하이파킹 판교메트로큐브점,성남시 분당구,경기 성남시 분당구 대왕판교로606번길 31,실내,지하,127.1106992,37.39666203
아브뉴프랑 판교점 주차장,성남시 분당구,경기 성남시 분당구 동판교로177번길 25,실내,지하,127.1134038,37.39727397
SG타워 주차장,성남시 분당구,경기 성남시 분당구 대왕판교로606번길 47,실내,지하,127.1125173,37.39694875
삼평동행정복지센터 주차장,성남시 분당구,경기 성남시 분당구 동판교로266번길 7,실내,지하,127.1163097,37.40612818
판교이노밸리 주차장,성남시 분당구,경기 성남시 분당구 판교로 253,실내,지하,127.0999101,37.40308421
삼환하이펙스A동 주차장,성남시 분당구,경기 성남시 분당구 판교역로 240,실내,지하,127.1108497,37.40225182
판교엠타워주차장,성남시 분당구,경기 성남시 분당구 판교역로241번길 22,실내,지상,127.1068218,37.40277452
판교실리콘파크 주차장,성남시 분당구,경기 성남시 분당구 판교로255번길 35,실내,지하,127.0994701,37.4051362
판교유스페이스 주차장,성남시 분당구,경기 성남시 분당구 대왕판교로 660,실내,지하,127.106814,37.40046431
코트야드메리어트호텔 주차장,성남시 분당구,경기 성남시 분당구 판교역로192번길 12,실내,지하,127.1104891,37.39739206
야외1층유료주차장,성남시 분당구,경기 성남시 분당구 삼평동 650,실외,노외,127.1113759,37.39682718
W스퀘어 주차장,성남시 분당구,경기 성남시 분당구 판교역로226번길 16,실내,지상,127.1114582,37.4005285
예미지빌딩 주차장,성남시 분당구,경기 성남시 분당구 판교역로192번길 14-1,실내,지하,127.1118038,37.39751246
판교에듀파크W-CITY 주차장,성남시 분당구,경기 성남시 분당구 판교로255번길 9-22,실내,지하,127.0999953,37.40350581
서건타워 주차장,성남시 분당구,경기 성남시 분당구 판교역로 178,실내,지하,127.1101897,37.39654808
판교디지털센터관리단 주차장,성남시 분당구,경기 성남시 분당구 판교로 242,실내,지하,127.1007957,37.4023266
플레이허브 주차장,성남시 분당구,경기 성남시 분당구 대왕판교로712번길 11,실내,지상,127.1031925,37.40572678
판교환경생태학습원 주차장,성남시 분당구,경기 성남시 분당구 대왕판교로645번길 21,미분류,미분류,127.103873,37.39958303
삼환하이펙스 B동 주차장,성남시 분당구,경기 성남시 분당구 판교역로 230,실내,지하,127.1104496,37.40125026
브릿지타워 주차장,성남시 분당구,경기 성남시 분당구 판교로227번길 6,실내,지상,127.0992052,37.40296857
한국반도체산업협회 주차장,성남시 분당구,경기 성남시 분당구 판교역로 182,실내,지하,127.110179,37.39698869
H스퀘어 S동 주차장,성남시 분당구,경기 성남시 분당구 판교역로 231,실내,지하,127.1086538,37.40126995
디테라스 주차장,성남시 분당구,경기 성남시 분당구 판교로319번길 13,실내,지상,127.1091058,37.40377347
판교이노밸리5블럭 관리단,성남시 분당구,경기 성남시 분당구 판교로 255,실내,지하,127.1030486,37.40374286
브이포럼&ABN빌딩 주차장,성남시 분당구,경기 성남시 분당구 삼평동 690,실내,지하,127.1102554,37.40365437
하이파킹 판교천석미래로점,성남시 분당구,경기 성남시 분당구 동판교로266번길 14,실내,지상,127.1169062,37.4062285
럭스타워 주차장,성남시 분당구,경기 성남시 분당구 대왕판교로606번길 39,실내,지하,127.1115538,37.39648102
판교역푸르지오시티오피스텔 주차장,성남시 분당구,경기 성남시 분당구 삼평동 653,실내,지하,127.1121151,37.39677973
FN플레이스 판교 주차장,성남시 분당구,경기 성남시 분당구 판교역로 188,실내,지하,127.1100544,37.39744832
월드스퀘어 주차장,성남시 분당구,경기 성남시 분당구 대왕판교로606번길 58,미분류,미분류,127.1135557,37.39541952
매디포스트 빌딩 민영 주차장,성남시 분당구,경기 성남시 분당구 대왕판교로644번길 21,실내,지하,127.1092021,37.40006568
성남삼평동우체국 주차장,성남시 분당구,경기 성남시 분당구 삼평동 715,실외,야외시설,127.1161681,37.40660586
아마노 판교kcc웰츠타워 주차장,성남시 분당구,경기 성남시 분당구 분당내곡로 155,실내,지하,127.1125211,37.39763522
NS홈쇼핑 별관 주차장,성남시 분당구,경기 성남시 분당구 대왕판교로645번길 36,실내,지상,127.102084,37.40037839
나이스파크 판교 미래에셋벤처타워 주차장,성남시 분당구,경기 성남시 분당구 판교역로241번길 20,실내,지하,127.1073581,37.40267582
JS타워 주차장,성남시 분당구,경기 성남시 분당구 판교역로 184,실내,지하,127.1100438,37.39714919
아이코닉스 주차장,성남시 분당구,경기 성남시 분당구 판교로255번길 64,실내,지하,127.097715,37.40433846
프라임스퀘어 주차장,성남시 분당구,경기 성남시 분당구 대왕판교로606번길 41,실내,지하,127.1118339,37.39645193
골드타워 주차장,성남시 분당구,경기 성남시 분당구 판교역로192번길 14-2,실내,지하,127.1120468,37.39759963
GB1빌딩 주차장,성남시 분당구,경기 성남시 분당구 판교로256번길 19,실내,지상,127.1035159,37.40110607
삼도타워 주차장,성남시 분당구,경기 성남시 분당구 분당내곡로 151,실내,지하,127.1125174,37.39737843
해링턴타워 주차장,성남시 분당구,경기 성남시 분당구 판교역로192번길 22,실내,지하,127.1121952,37.39795719
판교타워 주차장,성남시 분당구,경기 성남시 분당구 판교역로192번길 16,실내,지하,127.111427,37.3977642
스타식스코아1차 주차장,성남시 분당구,경기 성남시 분당구 판교로 372,실내,지하,127.1157006,37.40369602
삼평중학교 주차장,성남시 분당구,경기 성남시 분당구 삼평동 727,실외,건물주변,127.1161255,37.40091145
리치투게더센터 주차장,성남시 분당구,경기 성남시 분당구 판교역로192번길 14,실내,지하,127.1114027,37.39737498
성남송현초등학교 주차장,성남시 분당구,경기 성남시 분당구 삼평동 710,실외,건물주변,127.1158391,37.40566912
KM파크 이룸빌딩 주차장,성남시 분당구,경기 성남시 분당구 판교역로 225-18,실내,지하,127.1080731,37.40036405
쏘카존 판교SK플래닛 주차장,성남시 분당구,경기 성남시 분당구 판교로 264 지하 1층 쏘카 주차구역,실내,지하,127.1035688,37.4025882
스마일게이트캠퍼스 지하주차장 입구,성남시 분당구,경기 성남시 분당구 판교로 344,실내,지하,127.1118022,37.40251763
투루카 봇들마을3단지 302동 지하1층 주차장,성남시 분당구,경기 성남시 분당구 동판교로 225 지하1층,실내,지하,127.1157467,37.40210117
한화에어로스페이스 지하1층 주차장 민방위대피소,성남시 분당구,경기 성남시 분당구 삼평동 701,실내,지하,127.1103669,37.40420839
봇들마을 8단지 모든 동의 지하1층 주차장 민방위대피소,성남시 분당구,경기 성남시 분당구 동판교로 153,실내,지하,127.1153001,37.39517816
봇들마을 5단지 모든 동의 지하1층 주차장 민방위대피소,성남시 분당구,경기 성남시 분당구 대왕판교로644번길 65,실내,지하,127.1145892,37.40072463
봇들마을 9단지 모든동의 지하1층 주차장 민방위대피소,성남시 분당구,경기 성남시 분당구 동판교로 156,실내,지하,127.1186746,37.39664979
봇들마을 3단지 모든 동의 지하1층 주차장 민방위대피소,성남시 분당구,경기 성남시 분당구 동판교로 225,실내,지하,127.1139973,37.40291108
봇들마을 7단지 모든 동의 지하1층 주차장 민방위대피소,성남시 분당구,경기 성남시 분당구 동판교로 155,실내,지하,127.1145082,37.39725038
봇들마을 1단지 모든 동 지하1층 주차장 민방위대피소,성남시 분당구,경기 성남시 분당구 동판교로 275,실내,지하,127.1139026,37.40376985
봇들마을 2단지 모든 동의 지하1층 주차장 민방위대피소,성남시 분당구,경기 성남시 분당구 판교로 393,실내,지하,127.1182531,37.4058163
운중동공영주차장,성남시 분당구,경기 성남시 분당구 운중로138번길 6,실내,지상,127.0779389,37.39088738
운중동공영주차장 지하주차장 전기차충전소,성남시 분당구,경기 성남시 분당구 운중로138번길 6,실내,지하,127.077879,37.39083967
장모밥상 주차장,성남시 분당구,경기 성남시 분당구 운중동 41-2,실외,노외,127.0576879,37.39076384
운중동 제2 공영주차장,성남시 분당구,경기 성남시 분당구 운중로125번길 4-6,실외,노외,127.0780217,37.39232896
카페랄로판교점 주차장,성남시 분당구,경기 성남시 분당구 하오개로 246,실외,야외시설,127.0475615,37.39373902
맥도날드 서판교DT점 주차장,성남시 분당구,경기 성남시 분당구 운중동 1031,실외,건물주변,127.0838636,37.39037425
노외공영주차장,성남시 분당구,경기 성남시 분당구 운중동 1041,실외,노외,127.0813622,37.3892353
운중동버스차고지,성남시 분당구,경기 성남시 분당구 운중동 902,실외,노외,127.0630854,37.39175581
노상공영주차장,성남시 분당구,경기 성남시 분당구 운중동 966,실외,노외,127.0786063,37.39191771
양과창양평해장국 본점 주차장,성남시 분당구,경기 성남시 분당구 운중동 324-3,실외,건물주변,127.0603686,37.39198159
운중농원갈비 주차장,성남시 분당구,경기 성남시 분당구 운중동 559-7,실외,노외,127.0451699,37.39417785
산운마을7단지 휴먼시아아파트 지하주차장,성남시 분당구,경기 성남시 분당구 산운로 135,실내,지하,127.0788045,37.39570728
안안 주차장,성남시 분당구,경기 성남시 분당구 운중로138번길 28-4,골목길,상가,127.0765463,37.39067205
이레빌딩 주차장,성남시 분당구,경기 성남시 분당구 운중로 194,실내,지하,127.0846168,37.39039984
정선한우 주차장,성남시 분당구,경기 성남시 분당구 하오개로 357,실외,건물주변,127.0588156,37.39161565
성남운중동우체국 전용주차장,성남시 분당구,경기 성남시 분당구 운중동 937,실외,건물주변,127.0787315,37.39069764
큐브타워오피스텔 주차장,성남시 분당구,경기 성남시 분당구 운중로 132,실내,지하,127.0777045,37.3912957
산운마을1단지 주차장,성남시 분당구,경기 성남시 분당구 산운로 7,실내,지하,127.0616595,37.39353699
채운 주차장,성남시 분당구,경기 성남시 분당구 운중동 41,실외,노외,127.0574939,37.39109731
나이스파크 분당마크시티그린주차장,성남시 분당구,경기 성남시 분당구 운중로 128,실내,지하,127.0774334,37.39125713
마크시티오렌지 주차장,성남시 분당구,경기 성남시 분당구 운중로 123,실내,지하,127.0769621,37.39198547
나이스파크 분당 트윈프라자1주차장,성남시 분당구,경기 성남시 분당구 운중로 172,실내,지하,127.0823082,37.39101687
나이스파크 분당 트윈프라자2주차장,성남시 분당구,경기 성남시 분당구 운중로 176,실내,지하,127.0826096,37.39094999
창호델피노 민영 주차장,성남시 분당구,경기 성남시 분당구 운중로 122,실내,지하,127.0766666,37.3912306
나이스파크 판교 스타식스메트로주차장,성남시 분당구,경기 성남시 분당구 운중로 131,실내,지하,127.0777819,37.39194168
나눔주차장,성남시 분당구,경기 성남시 분당구 운중동 968,실외,노외,127.0793086,37.39182353
계약자전용 민영주차장,성남시 분당구,경기 성남시 분당구 운중동 884,실외,노외,127.06486,37.39227384
산운마을13단지태영데시앙아파트 주차장 입구,성남시 분당구,경기 성남시 분당구 판교원로82번길 30,미분류,미분류,127.0739849,37.3869074
능이향기,성남시 분당구,경기 성남시 분당구 하오개로 353,실외,야외시설,127.0583741,37.39171859
운중동974공영주차장 전기차충전소,성남시 분당구,경기 성남시 분당구 운중로125번길 4-6 주차장 진입 좌측 끝 모서리,실외,노외,127.0778816,37.39219841
산운마을 4단지 모든 동 지하1층 주차장 민방위대피소,성남시 분당구,경기 성남시 분당구 판교원로 7,실내,지하,127.0680691,37.39069165
산운마을 8단지 모든 동 지하1층 주차장 민방위대피소,성남시 분당구,경기 성남시 분당구 산운로 98,실내,지하,127.072581,37.39245857
산운마을 5단지 모든 동 지하1층 주차장 민방위대피소,성남시 분당구,경기 성남시 분당구 산운로 97,실내,지하,127.0718587,37.39415293
판교 산운마을 11단지(1106동 앞 지상주차장) 전기차충전소,성남시 분당구,경기 성남시 분당구 판교원로 68 판교산운마을11단지,실내,지상,127.0751197,37.38916285
P판교대장타워,성남시 분당구,경기 성남시 분당구 판교대장로6길 20,실내,지상,127.0682342,37.36606295
원에스멀티케어,성남시 분당구,경기 성남시 분당구 판교대장로8길 10,실내,지하,127.0710388,37.3713386
이강개발 팰리시티1,성남시 분당구,경기 성남시 분당구 판교대장로8길 8,실내,지하,127.0706164,37.37116045
나이스파크 판교클라우드베이 4동 주차장,성남시 분당구,경기 성남시 분당구 판교대장로8길 9,실내,지하,127.0705061,37.37152994
나이스파크 판교클라우드베이 2동 주차장,성남시 분당구,경기 성남시 분당구 판교대장로8길 22,실내,지하,127.0721527,37.37207046
나이스파크 판교클라우드베이 3동 주차장,성남시 분당구,경기 성남시 분당구 판교대장로8길 15,실내,지하,127.0712391,37.37180251
헬로오드리 주차장,성남시 분당구,경기 성남시 분당구 석운동 6-2,미분류,미분류,127.0469395,37.37965717
캐니빌리지 주차장,성남시 분당구,경기 성남시 분당구 석운동 6-3,실외,노외,127.0471503,37.37916333
남서울CC 제2연습장 주차장,성남시 분당구,경기 성남시 분당구 판교원로82번길 51,실내,지상,127.0757605,37.38297962
동서울대학교 주차장2,성남시 수정구,경기 성남시 수정구 복정로 76,실외,건물주변,127.1308617,37.46051629
수진 제3공영주차장,성남시 수정구,경기 성남시 수정구 제일로 128,실내,지상,127.1334324,37.4378241
번성공영주차장,성남시 수정구,경기 성남시 수정구 수정남로 14,실내,지상,127.12969,37.43915276
수진제2공영주차장,성남시 수정구,경기 성남시 수정구 제일로 99,실내,지상,127.1340856,37.43534918
수정커뮤니티센터 공영주차장,성남시 수정구,경기 성남시 수정구 탄리로 59,실내,지상,127.1361094,37.44102596
성남도시개발공사 사송공영차고지,성남시 수정구,경기 성남시 수정구 사송로 41,실내,지상,127.1162583,37.41381933
성남중앙공설시장 주차장,성남시 수정구,경기 성남시 수정구 수정로 109,실내,지상,127.1318252,37.44142546
판교아이스퀘어C2 주차장,성남시 수정구,경기 성남시 수정구 창업로 17,실내,지하,127.0985216,37.41226676
신흥제9공영주차장,성남시 수정구,경기 성남시 수정구 시민로 173,실내,지하,127.1425135,37.44356378
위례중앙타워 주차장,성남시 수정구,경기 성남시 수정구 위례광장로 300,실내,지하,127.1427003,37.47347173
복정제1 공영주차장,성남시 수정구,경기 성남시 수정구 성남대로 1544,실외,노외,127.1271319,37.46793118
태평 제1공영주차장,성남시 수정구,경기 성남시 수정구 제일로 236,실내,지상,127.129236,37.44716237
신흥제7공영주차장,성남시 수정구,경기 성남시 수정구 수정남로 85,실내,지상,127.1369764,37.44180073
성남시의료원 주차장,성남시 수정구,경기 성남시 수정구 수정로171번길 10,실내,지하,127.1384721,37.44458042
새찬,성남시 수정구,경기 성남시 수정구 고등로5길 10,실내,지상,127.1018402,37.43056092
나인트리 바이 파르나스 서울 판교 주차장,성남시 수정구,경기 성남시 수정구 시흥동 산 53-1,실내,지하,127.0976923,37.41295223
복정제4 공영주차장,성남시 수정구,경기 성남시 수정구 복정로20번길 16,실내,지상,127.1290477,37.45463648
태평공원 공영주차장,성남시 수정구,경기 성남시 수정구 태평동 7285,실내,지하,127.1217885,37.44011804
인터파크트리플 주차장,성남시 수정구,경기 성남시 수정구 금토로 70,실내,지하,127.087585,37.40544564
위례성희프라자 주차장,성남시 수정구,경기 성남시 수정구 위례서일로 34,실내,지하,127.1394909,37.46439519
을지대학교성남캠퍼스 지하주차장,성남시 수정구,경기 성남시 수정구 산성대로 553,실내,지하,127.165468,37.46095224
을지대학교성남캠퍼스 주차장,성남시 수정구,경기 성남시 수정구 산성대로 553,실내,지상,127.1652714,37.46102099
태평4동 제3공영주차장,성남시 수정구,경기 성남시 수정구 남문로 112,실내,지하,127.1393684,37.44714275
선한목자교회 외부주차장,성남시 수정구,경기 성남시 수정구 복정동 641-9,실외,야외시설,127.1272935,37.466584
복정 제5주차장,성남시 수정구,경기 성남시 수정구 복정로 55,실내,지하,127.1265984,37.45792602
복정 제3공영주차장,성남시 수정구,경기 성남시 수정구 복정로 98,실내,지상,127.1272242,37.46173933
신흥제10 공영(기계식)주차장,성남시 수정구,경기 성남시 수정구 산성대로283번길 7,실내,지상,127.1479108,37.44197496
배뫼산축구장 주차장,성남시 수정구,경기 성남시 수정구 둔전동 223-2,실외,야외시설,127.1161793,37.42843752
청담추어정 주차장,성남시 수정구,경기 성남시 수정구 시흥동 38-2,실외,건물주변,127.108281,37.42161981
태평1동5118 주차장,성남시 수정구,경기 성남시 수정구 성남대로 1314,미분류,미분류,127.1271454,37.4472178
신흥1동 무료주차장,성남시 수정구,경기 성남시 수정구 신흥동 6946,실외,노외,127.1410085,37.43828564
"태평2동3409,15 주차장",성남시 수정구,경기 성남시 수정구 태평동 3409-2,실외,노외,127.1383801,37.44315062
수정구보건소 주차장,성남시 수정구,경기 성남시 수정구 수정로 218,실내,지하,127.1440597,37.44432957
위례한화오벨리스크 주차장,성남시 수정구,경기 성남시 수정구 위례광장로 104,실내,지하,127.1412615,37.47304999
위례에이플타워 주차장,성남시 수정구,경기 성남시 수정구 위례동로 153,실내,지하,127.1498733,37.47348448
나눔노외공영주차장,성남시 수정구,경기 성남시 수정구 복정동 700-3,골목길,주택가,127.1314261,37.45487984
상적동공영주차장,성남시 수정구,경기 성남시 수정구 상적동 294-4,실외,노외,127.0704503,37.42770595
가천대학교 글로벌캠퍼스 주차장,성남시 수정구,경기 성남시 수정구 성남대로 1342,실외,건물주변,127.1298579,37.4519704
가천대학교 주차장2,성남시 수정구,경기 성남시 수정구 성남대로 1342,실외,노외,127.1322173,37.45235161
단대공원공영주차장,성남시 수정구,경기 성남시 수정구 수정로456번길 61,실내,지상,127.1554566,37.4570158
단대동 제1공영주차장,성남시 수정구,경기 성남시 수정구 논골로 54,실내,지상,127.1586092,37.45877489
단대오거리역 공원 성남근린공원 주차장,성남시 수정구,경기 성남시 수정구 산성대로 지하 365,실외,노외,127.1566876,37.44514333
파네트리제과명장김영모 주차장,성남시 수정구,경기 성남시 수정구 시흥동 80-6,실외,야외시설,127.1037492,37.42042642
태평동탄천변 공영주차장,성남시 수정구,경기 성남시 수정구 태평동 7003-21,실외,야외시설,127.1193192,37.44205324
나이스파크 위례센트럴메디타운 주차장,성남시 수정구,경기 성남시 수정구 헌릉로 999,실내,지하,127.1433685,37.46227317
맥도날드 성남신흥DT점 주차장,성남시 수정구,경기 성남시 수정구 수정로 306,실외,건물주변,127.1485179,37.45124473
수진 제1공영주차장,성남시 수정구,경기 성남시 수정구 제일로 114,실내,지상,127.1339188,37.43683424
건우공영주차장,성남시 수정구,경기 성남시 수정구 태평동 224-6,실외,노외,127.1327203,37.45046613
종합시장 주차장,성남시 수정구,경기 성남시 수정구 신흥동 4124,실내,지하,127.146445,37.44130644
롯데시네마 성남중앙 주차장,성남시 수정구,경기 성남시 수정구 산성대로 267,실내,지하,127.1464451,37.44132446
복정제6공영주차장,성남시 수정구,경기 성남시 수정구 복정로118번길 7,실내,지하,127.1277215,37.46368949
신구대학교식물원 주차장,성남시 수정구,경기 성남시 수정구 상적동 109-1,실외,야외시설,127.0819538,37.43372813
인피니티타워 주차장,성남시 수정구,경기 성남시 수정구 금토동 324-1,실내,지하,127.0890325,37.40690421
금광청소년문화의집 주차장,성남시 수정구,경기 성남시 수정구 산성대로 613,실외,건물주변,127.169793,37.46416452
제1공단 근린공원 주차장,성남시 수정구,경기 성남시 수정구 희망로 475,실외,야외시설,127.153786,37.4459103
산성동 제1공영주차장,성남시 수정구,경기 성남시 수정구 희망로534번길 14,실내,지상,127.1523239,37.45163183
신흥3동공영주차장,성남시 수정구,경기 성남시 수정구 공원로333번길 3,실내,지상,127.1509951,37.44275675
현충탑 주차장,성남시 수정구,경기 성남시 수정구 태평동 1-1,실외,야외시설,127.1399555,37.45166514
이마트성남점 주차장,성남시 수정구,경기 성남시 수정구 수정로 201,실내,지상,127.1416613,37.44410541
아이파킹 이마트 성남점 주차장,성남시 수정구,경기 성남시 수정구 수정로 201,실내,지하,127.1418185,37.44413856
태평2동 제1공영주차장,성남시 수정구,경기 성남시 수정구 태평동 3307-59,실내,지상,127.1390998,37.44609429
힘찬프라자 민영 주차장,성남시 수정구,경기 성남시 수정구 위례광장로 21-13,실내,지하,127.1397082,37.46517701
봉국사 주차장,성남시 수정구,경기 성남시 수정구 태평로 79,실외,야외시설,127.1353329,37.45032261
태평3동공영주차장,성남시 수정구,경기 성남시 수정구 태평동 3591,실외,노외,127.1345466,37.44287753
수진2동행정복지센터 주차장,성남시 수정구,경기 성남시 수정구 성남대로 1204,실내,지상,127.1286812,37.43728786
워니스파크 주차장,성남시 수정구,경기 성남시 수정구 위례순환로 180,미분류,미분류,127.1482965,37.46959591
소망장례식장 주차장,성남시 수정구,경기 성남시 수정구 성남대로 1219,실외,건물주변,127.1273862,37.43861466
청계산장 주차장,성남시 수정구,경기 성남시 수정구 상적동 214-3,실외,노외,127.0713384,37.43021024
신흥2동공영주차장,성남시 수정구,경기 성남시 수정구 희망로533번길 35,실내,지상,127.1489722,37.44837443
한소반쭈구미 청계산점 주차장,성남시 수정구,경기 성남시 수정구 상적동 25-18,실외,건물주변,127.0866946,37.4334977
수진 제4공영주차장,성남시 수정구,경기 성남시 수정구 수진동 4671-2,실외,노외,127.1262381,37.43721391
시흥동행정복지센터 부설주차장,성남시 수정구,경기 성남시 수정구 여수대로56번길 6,실외,건물주변,127.1079335,37.42191026
지지 케이지점,성남시 수정구,경기 성남시 수정구 대왕판교로 939,실내,지상,127.1017525,37.42419351
케이엠파크 아이에스센트럴타워주차장,성남시 수정구,경기 성남시 수정구 위례광장로 320,실내,지하,127.1430462,37.4722928
벤처빌딩 부설주차장,성남시 수정구,경기 성남시 수정구 수진동 591-1,실내,지상,127.1361163,37.44109533
성남정병원 주차장,성남시 수정구,경기 성남시 수정구 수정로74번길 2,미분류,미분류,127.1286492,37.43972334
한국폴리텍대학 성남캠퍼스 주차장,성남시 수정구,경기 성남시 수정구 수정로 398,실외,건물주변,127.1532236,37.45828013
이면도로노상주차장,성남시 수정구,경기 성남시 수정구 수정로 398,실외,노상,127.1550294,37.45920762
희망대제2공영주차장,성남시 수정구,경기 성남시 수정구 수정로296번길 6,실내,지상,127.1480362,37.45053444
중앙9 노상공영주차장,성남시 수정구,경기 성남시 수정구 산성대로 273,실외,노상,127.1472902,37.44128016
복정동행정복지센터 부설주차장,성남시 수정구,경기 성남시 수정구 복정동 641-13,실외,건물주변,127.1271087,37.46556966
이타워프라자 주차장,성남시 수정구,경기 성남시 수정구 위례서일로 12,미분류,미분류,127.1373855,37.46530227
돈까스클럽 성남시청점 주차장,성남시 수정구,경기 성남시 수정구 탄천로307번길 14,실외,건물주변,127.1167875,37.41993582
논골공영주차장,성남시 수정구,경기 성남시 수정구 단대동 산 164-20,실내,지상,127.1562061,37.46142707
어울더울 청계점 주차장,성남시 수정구,경기 성남시 수정구 청계산로 462,실외,야외시설,127.0736843,37.43054398
더조은병원 주차장,성남시 수정구,경기 성남시 수정구 위례서일로 18,미분류,미분류,127.1378283,37.46510353
태평2동공영주차장,성남시 수정구,경기 성남시 수정구 태평동 3483,실외,노외,127.1362689,37.44297287
위례우성타워 주차장,성남시 수정구,경기 성남시 수정구 위례광장로 328,실내,지하,127.1429051,37.47120815
복정동노외공영주차장,성남시 수정구,경기 성남시 수정구 복정동 457,실외,노외,127.12454,37.45985998
나눔공영주차장,성남시 수정구,경기 성남시 수정구 복정동 639-2,실외,노외,127.1275865,37.4674036
신흥 제2주차장,성남시 수정구,경기 성남시 수정구 신흥동 2460-1,실외,노외,127.154457,37.44470207
대원프라자 유료주차장,성남시 수정구,경기 성남시 수정구 위례서일로3길 4 대원프라자건물내 지하 1~3층,실내,지하,127.1390726,37.4655706
성남모란삼성프라자 주차장,성남시 수정구,경기 성남시 수정구 산성대로 81,실외,건물주변,127.1279304,37.43370804
위례우남역 퍼스트푸르지오시티 주차장,성남시 수정구,경기 성남시 수정구 위례광장로 9-9,실내,지하,127.1412484,37.46489046
신흥1동 행정복지센터 부설주차장,성남시 수정구,경기 성남시 수정구 신흥동 5481,골목길,상가,127.1412195,37.4429193
아래숯골 공영주차장,성남시 수정구,경기 성남시 수정구 태평동 6812,실외,건물주변,127.1267387,37.44195271
곽여성병원 3주차장,성남시 수정구,경기 성남시 수정구 태평동 6478-2,실외,건물주변,127.1295482,37.44077114
상적동주차장,성남시 수정구,경기 성남시 수정구 상적동 337-11,실외,노외,127.0683832,37.42567086
위례주제공원 주차장,성남시 수정구,경기 성남시 수정구 위례순환로4길 2-1,실외,건물주변,127.1478042,37.46934424
산성동행정복지센터 부설주차장,성남시 수정구,경기 성남시 수정구 산성동 2117,실외,건물주변,127.1503412,37.45254619
태평공영주차장,성남시 수정구,경기 성남시 수정구 태평동 3273-1,실외,노외,127.1369476,37.44580487
수상16노상공영주차장,성남시 수정구,경기 성남시 수정구 태평동 1,미분류,미분류,127.1309699,37.44283019
태평4동 현충탑 거주자전용주차장,성남시 수정구,경기 성남시 수정구 태평동 1,실외,야외시설,127.1399913,37.45147318
중앙10 노상공영주차장,성남시 수정구,경기 성남시 수정구 산성대로 237,실외,노상,127.1435918,37.43954935
이너매스우남 민영주차장,성남시 수정구,경기 성남시 수정구 위례서일로 22,실내,지하,127.1382284,37.46509045
양지민영주차장,성남시 수정구,경기 성남시 수정구 산성대로 517,실내,지상,127.1630143,37.45740927
수상20노상공영주차장,성남시 수정구,경기 성남시 수정구 양지동 877,실외,노상,127.1626402,37.4563529
태평2동 노상공영주차장,성남시 수정구,경기 성남시 수정구 태평동 3441-1,실외,노상,127.1370737,37.44925921
수상11 노상공영주차장,성남시 수정구,경기 성남시 수정구 산성대로 189,실외,노상,127.1393448,37.43683698
곽여성병원전용주차타워,성남시 수정구,경기 성남시 수정구 수정로97번길 5,실내,지상,127.1307784,37.4412311
공영주차장,성남시 수정구,경기 성남시 수정구 수정로 39,실외,노상,127.1249088,37.43966248
하이파킹 판교소프트웨어드림센터 주차장,성남시 수정구,경기 성남시 수정구 창업로40번길 20,실내,지하,127.0943894,37.41298104
구좌리 얼크니손칼국수 성남사송점 주차장,성남시 수정구,경기 성남시 수정구 사송동 597-3,실외,건물주변,127.1170546,37.41885884
우리생협 위례본점 주차장,성남시 수정구,경기 성남시 수정구 창곡동 557-8,실외,노외,127.1367992,37.46608863
정보보호클러스터 주차장,성남시 수정구,경기 성남시 수정구 대왕판교로 815 판교창조경제벨리 지하1층,실내,지하,127.0993461,37.41386719
부흥유료주차장,성남시 수정구,경기 성남시 수정구 수정로119번길 4-1,실외,건물주변,127.1337323,37.44189815
신흥1동 4232 거주자우선주차장,성남시 수정구,경기 성남시 수정구 신흥동 4232,실외,건물주변,127.1434674,37.43951527
태평4동 공영주차장,성남시 수정구,경기 성남시 수정구 태평로 109,실내,지상,127.1385804,37.45123428
정프라자 주차장,성남시 수정구,경기 성남시 수정구 위례광장로 21-6,실내,지하,127.1397503,37.46593651
수원지방법원성남지원 주차장1,성남시 수정구,경기 성남시 수정구 산성대로 451,실외,건물주변,127.1587693,37.45323796
나이스파크 으뜸프라자 주차장,성남시 수정구,경기 성남시 수정구 위례광장로 27,실내,지하,127.140097,37.46694613
나이스파크 위례 지앤지프라자 주차장,성남시 수정구,경기 성남시 수정구 위례광장로 45,실내,지하,127.1401799,37.46836963
성남수정도서관 공영주차장,성남시 수정구,경기 성남시 수정구 산성동 1915,실외,건물주변,127.1532614,37.45247757
수정공영주차장,성남시 수정구,경기 성남시 수정구 수정로279번길 3,실내,지상,127.1456114,37.44962923
수진주차장,성남시 수정구,경기 성남시 수정구 수정로 112 1층,실외,건물주변,127.1328841,37.44083591
태평3동행정복지센터 주차장,성남시 수정구,경기 성남시 수정구 남문로 54,실내,지하,127.1329079,37.44539321
옛골산장 주차장,성남시 수정구,경기 성남시 수정구 상적동 216-15,실외,노외,127.0711572,37.42971659
태평2동공영주차장,성남시 수정구,경기 성남시 수정구 태평동 3304,골목길,주택가,127.137453,37.44534297
수상7노상공영주차장,성남시 수정구,경기 성남시 수정구 신흥동 2467,실외,노상,127.1485518,37.44150563
아롬타워 주차장,성남시 수정구,경기 성남시 수정구 위례광장로 9-10,실내,지하,127.1406538,37.46489837
남위례역아이파크오피스텔 주차장,성남시 수정구,경기 성남시 수정구 창곡동 560,실내,지하,127.1413415,37.46513542
주차장,성남시 수정구,경기 성남시 수정구 태평동 6453,미분류,미분류,127.1302693,37.4421543
창곡동 537-3 주차장,성남시 수정구,경기 성남시 수정구 위례서일로1길 19,골목길,주택가,127.1377208,37.46752557
위례라크리움 주차장,성남시 수정구,경기 성남시 수정구 위례서일로 26,실내,지하,127.1387285,37.46475288
배뫼산주차장,성남시 수정구,경기 성남시 수정구 시흥동,실외,노외,127.1139773,37.42623758
양지동공영주차장,성남시 수정구,경기 성남시 수정구 양지동 744,실외,노외,127.1604211,37.45618024
양지동공영주차장,성남시 수정구,경기 성남시 수정구 양지동 63,실외,노외,127.1680583,37.46284431
여성복지회관 주차장,성남시 수정구,경기 성남시 수정구 산성대로475번길 4,실외,건물주변,127.1600637,37.45392459
양지공원 주차장,성남시 수정구,경기 성남시 수정구 양지동 971,실외,야외시설,127.163276,37.46340244
일문빌딩주차장,성남시 수정구,경기 성남시 수정구 신흥동 6940,실외,건물주변,127.1422735,37.43918153
"수상9,10 노상공영주차장",성남시 수정구,경기 성남시 수정구 수진동 2210-1,실외,노상,127.1398447,37.43710128
판교시스템 주차장,성남시 수정구,경기 성남시 수정구 시흥동 280-5,실외,건물주변,127.1004791,37.41308054
카카오T 모다아울렛빌딩 주차장,성남시 수정구,경기 성남시 수정구 창업로57번길 7,미분류,미분류,127.0957017,37.41098513
산성동 제2공영주차장,성남시 수정구,경기 성남시 수정구 산성동 1810,실외,노외,127.1545899,37.45437878
중상14 노상공영주차장,성남시 수정구,경기 성남시 수정구 신흥동 6949,실외,노외,127.1506577,37.44186878
KM파크 판교아이스퀘어C1 주차장,성남시 수정구,경기 성남시 수정구 창업로 18,실내,지하,127.0978798,37.41300433
효성공영주차장,성남시 수정구,경기 성남시 수정구 신흥동 42,실외,노외,127.1448027,37.44987169
태평4동 제1공영주차장,성남시 수정구,경기 성남시 수정구 공원로 411,실내,지상,127.1439927,37.44710477
태평4동 행정복지센터 부설주차장,성남시 수정구,경기 성남시 수정구 남문로 134,실내,지하,127.1413951,37.44794765
중앙11 노상공영주차장,성남시 수정구,경기 성남시 수정구 산성대로 229,실외,노상,127.143168,37.43893177
소망장례식장 주차타워,성남시 수정구,경기 성남시 수정구 수진동 4565,실외,건물주변,127.1271612,37.43855183
수상5노상공영주차장,성남시 수정구,경기 성남시 수정구 단대동 96,실외,노상,127.1577996,37.4473205
통보공영주차장,성남시 수정구,경기 성남시 수정구 태평동 2940,실외,노외,127.1364435,37.44701281
올스타마트 위례점 주차장,성남시 수정구,경기 성남시 수정구 창곡동 559,미분류,미분류,127.1361972,37.46576316
성원주차장,성남시 수정구,경기 성남시 수정구 모란로 123,골목길,주택가,127.1255618,37.44431913
수상제2주차장,성남시 수정구,경기 성남시 수정구 산성대로 475,실외,노외,127.1602089,37.45419109
태평1동 행정복지센터 주차장,성남시 수정구,경기 성남시 수정구 태평동 6932,실외,건물주변,127.1262075,37.44055761
양지제1공영주차장,성남시 수정구,경기 성남시 수정구 논골로 40,실내,지상,127.1590542,37.45755883
위례어울림종합사회복지관 주차장,성남시 수정구,경기 성남시 수정구 위례동로 126,실내,지하,127.1506469,37.47142108
수진역 주차장,성남시 수정구,경기 성남시 수정구 신흥동 6942,실외,노외,127.1405655,37.43824562
주차장,성남시 수정구,경기 성남시 수정구 신촌동 206-5,실외,노외,127.1058619,37.45900961
수상1노상공영주차장,성남시 수정구,경기 성남시 수정구 산성대로 465,실외,노상,127.1602298,37.45338736
신흥3동행정복지센터 주차장,성남시 수정구,경기 성남시 수정구 공원로349번길 4,실내,지하,127.1493696,37.44360577
수진1동공영주차장,성남시 수정구,경기 성남시 수정구 수진동 2305,실외,노외,127.1378447,37.43710363
거주자전용 소규모주차장,성남시 수정구,경기 성남시 수정구 태평동 1357,골목길,주택가,127.138022,37.4487139
양지동 제3공영주차장,성남시 수정구,경기 성남시 수정구 양지동 724,실외,노외,127.1597278,37.45752549
까치골주차장,성남시 수정구,경기 성남시 수정구 탄천로 812-1,실외,건물주변,127.1245146,37.4588707
나이스파크 산성포레스티아 서문상가 주차장,성남시 수정구,경기 성남시 수정구 수정로 291,실내,지하,127.1472372,37.45113551
수진1동2674 주차장,성남시 수정구,경기 성남시 수정구 수진동 2674,실외,노외,127.1363643,37.43574302
티와뜰주차장,성남시 수정구,경기 성남시 수정구 신흥동 2458,실외,노외,127.1558098,37.44530578
능안유료주차장,성남시 수정구,경기 성남시 수정구 태평동 6500-1,실외,건물주변,127.1286306,37.44077574
가드니아 청계산점 전용주차장,성남시 수정구,경기 성남시 수정구 상적동 291-3,실외,노외,127.0694477,37.42603245
수원지방법원 성남지원 주차장2,성남시 수정구,경기 성남시 수정구 단대로10번길 1-1,실외,건물주변,127.1591615,37.45270403
위례건아타워 주차장,성남시 수정구,경기 성남시 수정구 위례동로 147,실내,지하,127.1502366,37.47313623
산성대로589 노상공영주차장,성남시 수정구,경기 성남시 수정구 산성대로 587,실외,노상,127.1682019,37.46235396
한신프라자오피스텔 주차장,성남시 수정구,경기 성남시 수정구 신흥동 2463-4,실내,지상,127.152557,37.44394138
한신프라자오피스텔 주차장,성남시 수정구,경기 성남시 수정구 신흥동 2463-4,실내,지하,127.152557,37.44394138
나이스파크 위례드림시티 주차장,성남시 수정구,경기 성남시 수정구 위례광장로 21-12,실내,지하,127.1392076,37.4652677
노상공영주차장,성남시 수정구,경기 성남시 수정구 단대동 41,실외,노상,127.15521,37.45802075
단대동41 거주자전용주차장,성남시 수정구,경기 성남시 수정구 단대동 41,실외,노외,127.1552634,37.45759451
성남시립테니스장 주차장2,성남시 수정구,경기 성남시 수정구 양지동 1000,실외,야외시설,127.1608321,37.46228854
서일로마을 공영주차장,성남시 수정구,경기 성남시 수정구 위례서일로1길 22-5,미분류,미분류,127.1385736,37.46778407
수정구 태평4동7328 주차장,성남시 수정구,경기 성남시 수정구 수정로217번길 18,미분류,미분류,127.1427972,37.44596374
둔전교회옆 주차장,성남시 수정구,경기 성남시 수정구 수진동 4762-56,실외,야외시설,127.125842,37.43347241
우대빌딩 민영주차장,성남시 수정구,경기 성남시 수정구 수정남로 121,실내,지하,127.1408702,37.44286656
아리스타오피스텔 주차장,성남시 수정구,경기 성남시 수정구 수정로73번길 7,실외,건물주변,127.1283048,37.44056706
성남 세이브존 주차장,성남시 수정구,경기 성남시 수정구 산성대로 337,실내,지상,127.1534687,37.443851
성남시립테니스장 주차장1,성남시 수정구,경기 성남시 수정구 양지동 987-1,실외,야외시설,127.1616028,37.46224424
주차장,성남시 수정구,경기 성남시 수정구 시흥동 285-6,실내,지하,127.0990325,37.41253394
수진1동2294 주차장,성남시 수정구,경기 성남시 수정구 수진동 2294,실외,노외,127.1385049,37.43727946
주차장,성남시 수정구,경기 성남시 수정구 대왕판교로 825,실외,노외,127.0988415,37.41504614
신흥2동공영주차장,성남시 수정구,경기 성남시 수정구 신흥동 116,실외,노외,127.1447976,37.44722993
호텔더일마 주차장,성남시 수정구,경기 성남시 수정구 사송로77번길 35,실외,건물주변,127.1130305,37.41193212
서부주차장,성남시 수정구,경기 성남시 수정구 수진동 2672,실외,노외,127.1364096,37.43581504
수진1동 행정복지센터 부설주차장,성남시 수정구,경기 성남시 수정구 수진동 1967,실내,지하,127.1391718,37.43862209
세이브존 성남점 지상주차장,성남시 수정구,경기 성남시 수정구 신흥동 2463-5,실내,지상,127.1532413,37.44426486
교보생명빌딩 주차장,성남시 수정구,경기 성남시 수정구 수정로 150 지하2-3층,실내,지하,127.136717,37.44206503
수진1동2325 주차장,성남시 수정구,경기 성남시 수정구 수진동 2325,실외,노외,127.1378222,37.43712889
국제민영주차장,성남시 수정구,경기 성남시 수정구 수정로 336,실외,노외,127.1499488,37.45356033
인피니티타워 관리단,성남시 수정구,경기 성남시 수정구 금토로80번길 37,실내,지하,127.0887118,37.40698915
판교it센터 노상 민영 주차장,성남시 수정구,경기 성남시 수정구 시흥동 330,실내,지하,127.0925914,37.41229498
료주차장,성남시 수정구,경기 성남시 수정구 태평동 7108-11,실외,노외,127.1254314,37.44403004
신흥2동공영주차장,성남시 수정구,경기 성남시 수정구 신흥동 58,실외,노외,127.1444255,37.44882698
노외주차장,성남시 수정구,경기 성남시 수정구 신흥동 122-3,실외,건물주변,127.1448383,37.44726232
나이스파크 산성포레스티아 동문상가 주차장,성남시 수정구,경기 성남시 수정구 수정로 341,실내,지하,127.1494182,37.45442327
대동빌딩 주차장,성남시 수정구,경기 성남시 수정구 수정로 185,실내,지상,127.1405626,37.44391481
슈퍼스타타워 주차장,성남시 수정구,경기 성남시 수정구 위례서일로 10,실내,지하,127.1370377,37.46545044
우성트램타워 주차장,성남시 수정구,경기 성남시 수정구 위례광장로 310,실내,지하,127.1426061,37.47268617
세움,성남시 수정구,경기 성남시 수정구 위례동로 135-6,실내,지하,127.1497572,37.47311972
우대빌딩 주차장,성남시 수정구,경기 성남시 수정구 위례서일로 6,미분류,미분류,127.1367,37.46563193
나이스파크 성남 웅진베어스 빌 주차장,성남시 수정구,경기 성남시 수정구 탄리로 73,실내,지하,127.1356171,37.44245103
거주자전용주차장,성남시 수정구,경기 성남시 수정구 수진동 4758-6,실외,노외,127.1247038,37.43327269
양지동공영주차장,성남시 수정구,경기 성남시 수정구 양지동 342,실외,노외,127.1623096,37.45978891
대진유료주차장,성남시 수정구,경기 성남시 수정구 태평동 6438,실외,노외,127.1305794,37.44115203
장군유료주차장,성남시 수정구,경기 성남시 수정구 수진동 42,실외,건물주변,127.1343668,37.44092884
단대동행정복지센터 부설주차장,성원유성남시 수정구,경기 성남시 수정구 희망로506번길 21,실외,건물주변,127.1553663,37.44939696
태평주차장,성남시 수정구,경기 성남시 수정구 태평동 3561,실외,노외,127.1345436,37.44374611
동아주차장,성남시 수정구,경기 성남시 수정구 태평동 7124-3,실외,노외,127.1258468,37.44646594
영진주차장,성남시 수정구,경기 성남시 수정구 수정로 112,실외,건물주변,127.1330694,37.4408285
노외주차장,성남시 수정구,경기 성남시 수정구 태평동 7110,실외,노외,127.1255388,37.44341814
태평2동공영주차장,성남시 수정구,경기 성남시 수정구 태평동 2703,실외,노외,127.1384785,37.44747537
단대동공영주차장,성남시 수정구,경기 성남시 수정구 논골로53번길 12-7,골목길,주택가,127.1571536,37.45884802
대성주차장,성남시 수정구,경기 성남시 수정구 태평동 7108,실외,노외,127.1251017,37.44420699
리더심파킹,성남시 수정구,경기 성남시 수정구 사송동 483,실외,노외,127.1130693,37.41292591
비엠종합개발골드프라자,성남시 수정구,경기 성남시 수정구 남문로 135-1,미분류,미분류,127.141614,37.44837357
노외주차장,성남시 수정구,경기 성남시 수정구 신흥동 44,실외,노외,127.1448836,37.44962291
개인주차장,성남시 수정구,경기 성남시 수정구 신흥동 123-7,실외,노외,127.1451318,37.44705292
리더심파킹,성남시 수정구,경기 성남시 수정구 사송로77번길 31,실외,노외,127.1130796,37.41227716
성남시상단주차장,성남시 수정구,경기 성남시 수정구 논골로36번길 8,미분류,미분류,127.1600573,37.45730159
모란다목적공영주차장,성남시 중원구,경기 성남시 중원구 둔촌대로 68,실외,노외,127.12764769794929,37.42890322745813
성남동 대형공영주차장,성남시 중원구,경기 성남시 중원구 둔촌대로 10,실외,야외시설,127.1197514,37.42824654
모란 민속 공영주차장,성남시 중원구,경기 성남시 중원구 성남동 4944,실내,지하,127.1284535,37.42971507
모란1노상공영주차장,성남시 중원구,경기 성남시 중원구 성남동 4870,실외,노상,127.1268235,37.42993758
금광2동 제2공영주차장,성남시 중원구,경기 성남시 중원구 산성대로 434,실내,지상,127.1599433,37.45048649
중상1 노상공영주차장,성남시 중원구,경기 성남시 중원구 광명로 19,실외,노상,127.1311178,37.43367662
모란민속5일장 고객주차장,성남시 중원구,경기 성남시 중원구 성남동 4946,실외,노외,127.1270921,37.42770998
은행동 제10공영주차장,성남시 중원구,경기 성남시 중원구 은이로 11,실내,지하,127.1657407,37.45749198
해오름공영주차장,성남시 중원구,경기 성남시 중원구 광명로264번길 39,실내,지상,127.15918151304446,37.44083045167167
중상3 노상공영주차장,성남시 중원구,경기 성남시 중원구 산성대로 132,실외,노상,127.13376254974897,37.43411695269545
성남시청 주차장1,성남시 중원구,경기 성남시 중원구 성남대로 997,실외,건물주변,127.1249093,37.41958963548845
수진역환승주차장,성남시 중원구,경기 성남시 중원구 산성대로 208,실내,지상,127.141732,37.43723959
중앙동제1공영주차장,성남시 중원구,경기 성남시 중원구 희망로 443,실내,지상,127.1571594,37.44437414
카카오T 모란역 주차장,성남시 중원구,경기 성남시 중원구 성남동 4165,실외,건물주변,127.12841841690498,37.43165319512309
중상12노상공영주차장,성남시 중원구,경기 성남시 중원구 성남동 1315,실외,노상,127.14028744607424,37.43698542965819
모란 니즈몰 주차장,성남시 중원구,경기 성남시 중원구 성남대로 1136,실내,지하,127.1298937,37.43145967
상대원제1공영주차장,성남시 중원구,경기 성남시 중원구 사기막골로45번길 42,실내,지하,127.16837151395237,37.43866969971238
중원노인종합복지관 주차장,성남시 중원구,경기 성남시 중원구 제일로35번길 51,실내,지하,127.13155812118306,37.43218764900891
노벨과개미 주차장,성남시 중원구,경기 성남시 중원구 둔촌대로457번길 26,실외,건물주변,127.1701904,37.4320158
금광2동 제1공영주차장,성남시 중원구,경기 성남시 중원구 금빛로69번길 18,실내,지하,127.164404,37.44788905
여수동제1공영주차장,성남시 중원구,경기 성남시 중원구 여수동 374 1층,실외,노외,127.1242056,37.41755408
투루파킹 성남모란점,성남시 중원구,경기 성남시 중원구 성남동 4118,실외,노외,127.1304073,37.43053105
성남동 제1공영주차장,성남시 중원구,경기 성남시 중원구 성남동 2810,실외,노외,127.1459383050622,37.43640193824983
성남동 제2공영주차장,성남시 중원구,경기 성남시 중원구 성남동 2874-2,실외,노외,127.1429025,37.43243397
은행1동 제2공영주차장,성남시 중원구,경기 성남시 중원구 은행동 199-1,실내,지하,127.1689756359231,37.45305802113383
공용주차장,성남시 중원구,경기 성남시 중원구 제일로 60,실외,야외시설,127.1360613,37.43315925
성남도시개발공사 노상주차처,성남시 중원구,경기 성남시 중원구 제일로 60,실외,노상,127.1380517,37.43168649
성남종합운동장 지하주차장,성남시 중원구,경기 성남시 중원구 제일로 60,실내,지하,127.1393623,37.43164891
상대원 제4공영주차장,성남시 중원구,경기 성남시 중원구 박석로 42,실내,지상,127.1661033322434,37.43596445867373
성남실내체육관 주차장,성남시 중원구,경기 성남시 중원구 둔촌대로183번길 20,실내,지상,127.1394688,37.43057477
중앙동 제6공영주차장,성남시 중원구,경기 성남시 중원구 광명로 192,실내,지하,127.14886765179544,37.43953111372201
하대원동 임시공영주차장,성남시 중원구,경기 성남시 중원구 하대원동 18,실외,노외,127.1319428,37.42798218
선텍시티1 주차장,성남시 중원구,경기 성남시 중원구 상대원동 513-15,실외,건물주변,127.1687103540498,37.43155480200395
중앙동 제2공영주차장,성남시 중원구,경기 성남시 중원구 광명로256번길 36,,지상,127.15680254356197,37.440139850554445
중상31 노상공영주차장,성남시 중원구,경기 성남시 중원구 금광동 4790,실외,노상,127.1608371,37.45302883
중상2 노상공영주차장,성남시 중원구,경기 성남시 중원구 성남동 1402,실외,노상,127.13203471716022,37.43399725820829
상대원3동 공영주차장,성남시 중원구,경기 성남시 중원구 박석로 94,실내,지상,127.1647955,37.44087502
KM파크 다이소 모란점 AJ파크 주차장,성남시 중원구,경기 성남시 중원구 성남대로 1128,실외,건물주변,127.1298695,37.43053525
금광1동 제1공영주차장,성남시 중원구,경기 성남시 중원구 금빛로 10,실내,지상,127.1695102,37.44303799
대원공원 주차장3,성남시 중원구,경기 성남시 중원구 하대원동 178-15,실외,야외시설,127.150638,37.43373264
바른마디병원 주차장,성남시 중원구,경기 성남시 중원구 금광동 1349,실내,지하,127.1626338,37.44506502
성남우림라이온스밸리1차 주차장,성남시 중원구,경기 성남시 중원구 둔촌대로457번길 27,실내,지상,127.17059715864048,37.43401366795423
은행동 제8공영주차장,성남시 중원구,경기 성남시 중원구 은이로16번길 10,실내,지하,127.1652322,37.45655383
은행2동 제3공영주차장,성남시 중원구,경기 성남시 중원구 은행로 9,실내,지상,127.16316712374632,37.454919565316345
중상24 노상공영주차장,성남시 중원구,경기 성남시 중원구 금광동 4850,실외,노상,127.1576414555126,37.445743942452665
중상66 노상공영주차장,성남시 중원구,경기 성남시 중원구 성남동 1558,실외,노상,127.13230736353118,37.42905488081347
중앙동 제4공영주차장,성남시 중원구,경기 성남시 중원구 광명로242번길 20,실내,지하,127.1548735,37.44062534
금광드림팰리스 주차장,성남시 중원구,경기 성남시 중원구 산성대로426번길 2,실내,지하,127.1594443,37.44966544
상대원1동공영주차장,성남시 중원구,경기 성남시 중원구 상대원동 1584,실외,노외,127.1629429,37.43490926
중상65 노상 공영 주차장,성남시 중원구,경기 성남시 중원구 둔촌대로 135,실외,노상,127.1338396,37.42914326
자혜공영주차장,성남시 중원구,경기 성남시 중원구 자혜로72번길 9,실내,지하,127.167737,37.45055137
은행2동공영주차장,성남시 중원구,경기 성남시 중원구 순환로457번길 15,실내,지상,127.1703072,37.46161932
은행동 제7공영주차장,성남시 중원구,경기 성남시 중원구 은행로32번길 5,실내,지상,127.16498822856283,37.45455392911782
중원도서관 주차장,성남시 중원구,경기 성남시 중원구 원터로17번길 46,실내,지하,127.139948,37.43006513
모란센트럴스퀘어 주차장,성남시 중원구,경기 성남시 중원구 성남대로 1132,실내,지하,127.1298115,37.43094618
여수동 제2공영 주차장,성남시 중원구,경기 성남시 중원구 여수동 539,실외,노외,127.1321373,37.4196944
모란아트팰리스 주차장,성남시 중원구,경기 성남시 중원구 광명로 4,실내,지하,127.12978529974974,37.432814012744046
M타워 유료주차장,성남시 중원구,경기 성남시 중원구 둔촌대로101번길 27,골목길,상가,127.1298619,37.43202554
중상11노상공영주차장,성남시 중원구,경기 성남시 중원구 산성대로 190-2,실외,노외,127.1398051,37.43643818
성남종합운동장 주차장2,성남시 중원구,경기 성남시 중원구 제일로74번길 7,실외,야외시설,127.1360704,37.43317366
주차장,성남시 중원구,경기 성남시 중원구 성남동 1504,미분류,미분류,127.1301278,37.43352634
성남동국민주택길이면도로주차장,성남시 중원구,경기 성남시 중원구 성남동 1357,골목길,주택가,127.1362995,37.43369598
은행2동 제4공영주차장,성남시 중원구,경기 성남시 중원구 순환로379번길 19,실외,노외,127.1722084,37.45667542
중상70 노상공영주차장,성남시 중원구,경기 성남시 중원구 산성대로 586,실외,노상,127.16851704826442,37.46174082382897
영상주차장,성남시 중원구,경기 성남시 중원구 금상로18번길 3,실외,노외,127.15995651959966,37.43756232683619
상대원3동2327공영주차장,성남시 중원구,경기 성남시 중원구 박석로97번길 16,실내,지하,127.1629454,37.44025768
엘림비엠에스,성남시 중원구,경기 성남시 중원구 성남대로 1126,실내,지하,127.1298657,37.43027756
은행동 제6공영주차장,성남시 중원구,경기 성남시 중원구 자혜로17번길 44-7,실내,지상,127.16381801068746,37.453829341212646
"중상68,69 노상공영주차장",성남시 중원구,경기 성남시 중원구 둔촌대로 140,실외,노상,127.13460830897554,37.428768462934336
노상공영주차장,성남시 중원구,경기 성남시 중원구 은행동 721,실외,노상,127.16596709434292,37.459715355483006
상대원1동 행정복지센터 부설주차장,성남시 중원구,경기 성남시 중원구 둔촌대로 425,실외,건물주변,127.16432340733242,37.43325039
단대오거리노상공영주차장,성남시 중원구,경기 성남시 중원구 광명로 341,실외,노상,127.1635815,37.44592598
황송공원 주차장2,성남시 중원구,경기 성남시 중원구 황송로 22,실외,야외시설,127.171259,37.44478704
중원구보건소 공영주차장,성남시 중원구,경기 성남시 중원구 금상로 137,미분류,미분류,127.17072365168386,37.441947819472745
은행동 제5공영주차장,성남시 중원구,경기 성남시 중원구 은행동 1944,실외,노외,127.1719065,37.45319435
나이스파크 성남래일스타 주차장,성남시 중원구,경기 성남시 중원구 도촌로8번길 5,실내,지상,127.1510638,37.41508916
은행1동공영주차장,성남시 중원구,경기 성남시 중원구 은행동 2025,실외,노외,127.1687084,37.45231597
중원어린이도서관 부설주차장,성남시 중원구,경기 성남시 중원구 산성대로408번길 42,실내,지하,127.162949075378,37.44766401158865
중상67 노상공영주차장,성남시 중원구,경기 성남시 중원구 둔촌대로 118,실외,노상,127.13210339179358,37.42871182169854
은행2동제1공영주차장,성남시 중원구,경기 성남시 중원구 은행동 1025-1,실내,지하,127.1657814,37.45750994
KM파크 성남아이파크 디 어반지식산업센터 주차장,성남시 중원구,경기 성남시 중원구 갈마치로 245,실내,지하,127.1731652,37.43587594
공영주차장,성남시 중원구,경기 성남시 중원구 금광동 1018,실외,노외,127.1675899,37.44538697
라온힐요양병원 주차장,성남시 중원구,경기 성남시 중원구 양현로405번길 13,실내,지하,127.1269383,37.41829902
아이리스 유료 주차장,성남시 중원구,경기 성남시 중원구 둔촌대로 100,실외,건물주변,127.1299115,37.42933595
중원유스센터 주차장,성남시 중원구,경기 성남시 중원구 둔촌대로 332,실내,지하,127.15543363679224,37.43061702768582
중상60-63 노상공영주차장,성남시 중원구,경기 성남시 중원구 둔촌대로 352,실외,노상,127.1571481,37.43137792
단대전통시장 주차장,성남시 중원구,경기 성남시 중원구 산성대로372번길 10,실외,건물주변,127.1581427,37.44442779
오라타워주차장,성남시 중원구,경기 성남시 중원구 성남대로1147번길 3,실외,건물주변,127.12854891369544,37.43198192410362
은행1공영주차장,성남시 중원구,경기 성남시 중원구 자혜로 45,실내,지상,127.16468833212792,37.45076739236723
상대원2동공영주차장,성남시 중원구,경기 성남시 중원구 상대원동 2994-9,골목길,주택가,127.1600964,37.43958401
중상 70-1 노상공영주차장,성남시 중원구,경기 성남시 중원구 은행동 1637,실외,노상,127.1622139,37.45525335
KM파크 센트로힐주차타워,성남시 중원구,경기 성남시 중원구 양현로405번길 4-3,실내,지상,127.1273933,37.41745157
성남중앙병원 주차장1,성남시 중원구,경기 성남시 중원구 산성대로476번길 12,실외,건물주변,127.16222618427742,37.45307198362128
중원구청 주차장,성남시 중원구,경기 성남시 중원구 제일로 36,실외,건물주변,127.13731327718062,37.43009975683557
나이스파크 모란프라임타워 주차장,성남시 중원구,경기 성남시 중원구 둔촌대로 84,실내,지하,127.1284761,37.42972496
중상15 노상주차장,성남시 중원구,경기 성남시 중원구 중앙동 701,실외,노상,127.1492748,37.44142904
자생메디바이오센터 주차장,성남시 중원구,경기 성남시 중원구 사기막골로 18,실외,건물주변,127.1679626,37.4326506
"중상19,20 노상공영주차장",성남시 중원구,경기 성남시 중원구 산성대로 334-2,실외,노상,127.153365,37.44287804
중상21노상공영주차장,성남시 중원구,경기 성남시 중원구 중앙동 2,실외,노상,127.15465353637396,37.44355121843978
단대쇼핑 주차장,성남시 중원구,경기 성남시 중원구 광명로 287,실내,지하,127.1580858,37.44423956
중상33 노상 공영 주차장,성남시 중원구,경기 성남시 중원구 상대원동 149-1,실외,노외,127.169518,37.43494957
하대원동행정복지센터 부설주차장,성남시 중원구,경기 성남시 중원구 둔촌대로 252,실외,건물주변,127.1463609,37.42828507
노상공영주차장,성남시 중원구,경기 성남시 중원구 금광동 2407,실외,노상,127.1681003,37.44674677
중상70-8 노상공영주차장,성남시 중원구,경기 성남시 중원구 은행동 531,실외,노상,127.1675936,37.46124748
프레젠티아 주차장,성남시 중원구,경기 성남시 중원구 산성대로80번길 8,실외,건물주변,127.12787921982438,37.43283411048373
성남메트로칸 주차장,성남시 중원구,경기 성남시 중원구 성남동 4169,실내,지하,127.1283047,37.43123164
황송공원 주차장1,성남시 중원구,경기 성남시 중원구 금빛로2번길 35,실외,야외시설,127.1728997,37.4447378
도촌동행정복지센터 부설주차장,성남시 중원구,경기 성남시 중원구 도촌북로 28,실내,지하,127.1529154,37.41628243
중앙4 노상공영주차장,성남시 중원구,경기 성남시 중원구 성남동 2013,실외,노상,127.1439594,37.43917408
중상48-49 노상공영주차장,성남시 중원구,경기 성남시 중원구 둔촌대로263번길 2,실외,노상,127.1474754,37.42910451
중상87 노상공영주차장,성남시 중원구,경기 성남시 중원구 금광동 2446,실외,노상,127.1655666277141,37.44622776
중상22 노상공영주차장,성남시 중원구,경기 성남시 중원구 산성대로 354-1,실외,노상,127.15583421389104,37.44399026343403
대원공원 주차장2,성남시 중원구,경기 성남시 중원구 상대원동 5004-1,실외,노외,127.1544831,37.43539275
나이스파크 대덕프라자1 주차장,성남시 중원구,경기 성남시 중원구 도촌로 12,실내,지하,127.15075,37.41520399
배수지 공영주차장,성남시 중원구,경기 성남시 중원구 광명로 192 194번길 28,실외,노외,127.1504335,37.43769016
상대원주차장,성남시 중원구,경기 성남시 중원구 상대원동 5430-2,실외,노외,127.1589319,37.43395604
중상71 노상공영주차장,성남시 중원구,경기 성남시 중원구 은행동 591,실외,노상,127.17015674749652,37.46306386116702
상대원1동공영주차장,성남시 중원구,경기 성남시 중원구 상대원동 1659,실외,노외,127.1623171,37.4360418
은행 제9주차장,성남시 중원구,경기 성남시 중원구 은이로63번길 8,실내,지상,127.1698619,37.45662836
모란지웰에스테이트 민영 주차장,성남시 중원구,경기 성남시 중원구 광명로 67,실내,지하,127.136542,37.43468412
스타타워 주차장,성남시 중원구,경기 성남시 중원구 사기막골로62번길 37,실외,건물주변,127.17580540774712,37.43472504649643
중상90-91노상공영주차장,성남시 중원구,경기 성남시 중원구 금광동 4848,실외,노상,127.1621169,37.45165394
쌍용IT트윈타워 주차장,성남시 중원구,경기 성남시 중원구 둔촌대로 537,실내,지하,127.17642973159056,37.43209765704388
오라 유료 주차장,성남시 중원구,경기 성남시 중원구 성남동 4251,실외,노외,127.1270595,37.4311564
중상57-58노상공영주차장,성남시 중원구,경기 성남시 중원구 하대원동 289,실외,노상,127.14626176585372,37.42842574762373
대원지하 공영주차장,성남시 중원구,경기 성남시 중원구 희망로343번길 24,실내,지하,127.1562979795075,37.43714104115976
중상86 노상공영주차장,성남시 중원구,경기 성남시 중원구 금광동 1370,실외,노상,127.1637958,37.44573467
중상89노상 공영주차장,성남시 중원구,경기 성남시 중원구 광명로 331,실외,노상,127.16263738064843,37.44567500349662
나이스파크 성남 금빛 그랑메종상가 주차장,성남시 중원구,경기 성남시 중원구 금빛로 43,실내,지하,127.1673274,37.44574775
금광1동 1378 공영주차장,성남시 중원구,경기 성남시 중원구 금광동 1378,실외,노외,127.1650055,37.44596725
중앙이노테크 주차장입출구,성남시 중원구,경기 성남시 중원구 사기막골로 148,실내,지하,127.1774004,37.44125322
상대원3동814 주차장,성남시 중원구,경기 성남시 중원구 상대원동 814,골목길,주택가,127.1660025,37.44094541
나이스파크 모란역 휴먼팰리스 주차장,성남시 중원구,경기 성남시 중원구 광명로 31,실내,지하,127.1326272,37.43356501
상대,성남시 중원구,경기 성남시 중원구 둔촌대로 400,실내,지하,127.1613318,37.43287968
상대원2동 행정복지센터 부설주차장,성남시 중원구,경기 성남시 중원구 상대원동 3159,미분류,미분류,127.15846241127792,37.43902398304182
검단주차장,성남시 중원구,경기 성남시 중원구 둔촌대로 243,실외,노외,127.1453586,37.42876204
학년쇼핑 주차장,성남시 중원구,경기 성남시 중원구 상대원동 2339-1,실외,건물주변,127.1625515,37.43991584
중상47-1 노상 공영 주차장,성남시 중원구,경기 성남시 중원구 하대원동 282,실외,노상,127.1487133,37.42946967
공영주차장,성남시 중원구,경기 성남시 중원구 갈현동 207-20,실외,노외,127.1752857,37.42312073
나이스파크 성남 스카이프라자 주차장,성남시 중원구,경기 성남시 중원구 성남대로 985,실내,지하,127.1282002,37.41765974
금광2동 행정복지센터 부설주차장,성남시 중원구,경기 성남시 중원구 광명로 345,실내,지상,127.16414395136302,37.44627389673291
중앙5 노상공영주차장,성남시 중원구,경기 성남시 중원구 중앙동 1168,실외,노상,127.1452491,37.43995639
대촌빌딩 주차장,성남시 중원구,경기 성남시 중원구 산성대로372번길 14,실외,건물주변,127.1585837,37.44456776
중앙동행정복지센터 부설주차장,성남시 중원구,경기 성남시 중원구 광명로264번길 1,실외,건물주변,127.1562974,37.44285798
상대원2동공영주차장,성남시 중원구,경기 성남시 중원구 상대원동 2995-8,실외,노외,127.1596442,37.43949452
상대원2동공영주차장,성남시 중원구,경기 성남시 중원구 상대원동 2990-10,실외,노외,127.160537,37.44058174
은행1동 행정복지센터 부설주차장,성남시 중원구,경기 성남시 중원구 은행로 85,실외,건물주변,127.16893930878848,37.451981363304746
상대1동공영주차장,성남시 중원구,경기 성남시 중원구 상대원동 913,실외,노외,127.1666988,37.43902347
중상79하 노상 공영 주차장,성남시 중원구,경기 성남시 중원구 상대원동 132,실외,노상,127.171052,37.44323309
공영주차장,성남시 중원구,경기 성남시 중원구 사기막골로 47,실외,노외,127.17152305756188,37.43572245454292
노상공영주차장,성남시 중원구,경기 성남시 중원구 금광동 4849,실외,노상,127.1610125,37.44943986
중상41-1노상공영주차장,성남시 중원구,경기 성남시 중원구 둔촌대로 484,실내,지하,127.1706316,37.43127633
금광1동 행정복지센터 부설주차장,성남시 중원구,경기 성남시 중원구 금광동 1348,실외,건물주변,127.16236963574868,37.44519063
상대원3동공영주차장,성남시 중원구,경기 성남시 중원구 상대원동 809,실외,노외,127.1655917,37.44117664
중상79 상중노상공영주차장,성남시 중원구,경기 성남시 중원구 사기막골로 177,실외,노상,127.1779283,37.44465735
노상공영주차장,성남시 중원구,경기 성남시 중원구 상대원동 134,실외,노외,127.1727091,37.43656047
공영주차장,성남시 중원구,경기 성남시 중원구 갈현동 203-3,실외,노외,127.1751562,37.42376245
상대원3동공영주차장,성남시 중원구,경기 성남시 중원구 상대원동 2307,골목길,주택가,127.1639413,37.44093387
그린주차장,성남시 중원구,경기 성남시 중원구 마지로163번길 23-14,골목길,주택가,127.1495768,37.42736561
상대원1동공영주차장,성남시 중원구,경기 성남시 중원구 상대원동 1488,실외,노외,127.1632182,37.43682985
금광동 1590 주차장,성남시 중원구,경기 성남시 중원구 금광동 1590,실외,노외,127.1657997,37.44428395
중상36노상공영주차장,성남시 중원구,경기 성남시 중원구 상대원동 3000,실외,노상,127.16307358075105,37.433172827327546
중상41 노상공영주차장,성남시 중원구,경기 성남시 중원구 상대원동 536-5,실외,노상,127.1696484,37.43165888
은행동제1중부초교 공영주차장,성남시 중원구,경기 성남시 중원구 자혜로 55,실내,지하,127.16497483165712,37.45154186363839
상대원2동공영주차장,성남시 중원구,경기 성남시 중원구 상대원동 2992-5,실외,노외,127.1620413,37.44021207
도촌동 604 주차타워빌딩,성남시 중원구,경기 성남시 중원구 도촌로26번길 3,실내,지상,127.1511908,37.41646845
상대원3동 행정복지센터 부설주차장,성남시 중원구,경기 성남시 중원구 박석로 78,실외,건물주변,127.1654437,37.43967396
은행1동공영주차장,성남시 중원구,경기 성남시 중원구 자혜로17번길 16,실외,노외,127.1628735,37.45293684
중상10노상공영주차장,성남시 중원구,경기 성남시 중원구 성남동 1404,실외,노상,127.13837543699049,37.43568211248435
중상38-39노상공영주차장,성남시 중원구,경기 성남시 중원구 상대원동 1627,실외,노상,127.163091,37.43288178
투루파킹 분당시티파크 주차장,성남시 중원구,경기 성남시 중원구 양현로405번길 17,실내,지하,127.1269984,37.41841158
모란역 아리스타 오피스텔 주차장,성남시 중원구,경기 성남시 중원구 둔촌대로80번길 3-10,실내,지하,127.1285521,37.42924013
은행2동행정복지센터 주차장,성남시 중원구,경기 성남시 중원구 은행동 2476,실내,지하,127.16670014029124,37.45693920831816
금광2동 3417 주차장,성남시 중원구,경기 성남시 중원구 금광동 3417,골목길,주택가,127.1624064,37.44809724
한화시그마밸리 주차장,성남시 중원구,경기 성남시 중원구 둔촌대로 545,실내,지하,127.1774451,37.43192224
"중상52,53 노상공영주차장",성남시 중원구,경기 성남시 중원구 둔촌대로 190,실외,노상,127.13959700040168,37.42905010116856
성남시식물원 주차장,성남시 중원구,경기 성남시 중원구 은행동 1932,실외,건물주변,127.1676777,37.45285624
노상공영주차장,성남시 중원구,경기 성남시 중원구 상대원동 137-1,실외,노상,127.1745642,37.43837329
브라보퍼블릭스크린골프 성남금광점 주차장,성남시 중원구,경기 성남시 중원구 희망로 404,실내,지하,127.1601481,37.44154095
중상83 노상공영주차장,성남시 중원구,경기 성남시 중원구 순환로 233,실외,노상,127.1788652016741,37.44421714594662
센트럴타운아파트 주차장,성남시 중원구,경기 성남시 중원구 성남대로 1000,실외,건물주변,127.1298213,37.41834905
중상70-6 노상공영주차장,성남시 중원구,경기 성남시 중원구 산성대로 546-1,실외,노상,127.16572189905996,37.45923816357566
"중상 70-4,5 노상공영주차장",성남시 중원구,경기 성남시 중원구 은행동 977,실외,노상,127.1651354,37.45876055
상대원3동 808 주차장,성남시 중원구,경기 성남시 중원구 상대원동 808,실외,노외,127.1656683,37.44107202
금광2동공영주차장,성남시 중원구,경기 성남시 중원구 금광동 3897,실외,노외,127.1604477,37.44745479
공영주차장,성남시 중원구,경기 성남시 중원구 갈현동 238-9,실외,건물주변,127.1740997,37.42225751
상대원1동공영주차장,성남시 중원구,경기 성남시 중원구 상대원동 359-3,실외,노외,127.1791992,37.43452533
신구대학교 주차장2,성남시 중원구,경기 성남시 중원구 광명로 377,실내,지하,127.1670693,37.4491143
신구대학교 주차장1,성남시 중원구,경기 성남시 중원구 광명로 377,실외,건물주변,127.1681423,37.4498444
금광2동3808 거주자우선주차장,성남시 중원구,경기 성남시 중원구 금광동 3808,실외,노외,127.1603003,37.44614672
금광1동주차장,성남시 중원구,경기 성남시 중원구 금광동 170,골목길,주택가,127.1622927,37.44150559
중앙3 중앙주차장,성남시 중원구,경기 성남시 중원구 성남동 1335,실외,노외,127.1434646,37.43861245
상대원3동865 주차장,성남시 중원구,경기 성남시 중원구 상대원동 865-10,실외,노외,127.1658684,37.43958326
은행유스센터 주차장,성남시 중원구,경기 성남시 중원구 산성대로516번길 24,실외,건물주변,127.16563401059592,37.45577479807621
신영주차장,성남시 중원구,경기 성남시 중원구 성남동 2106,실외,건물주변,127.1426825,37.43793043
노상공영주차장,성남시 중원구,경기 성남시 중원구 광명로 358-1,실외,노상,127.1656342,37.44611054
성남동시범이면도로주차장,성남시 중원구,경기 성남시 중원구 성남동 1472,골목길,주택가,127.1403652,37.43265506
중상16 노상공영주차장,성남시 중원구,경기 성남시 중원구 중앙동 512,실외,노상,127.1504396,37.44185104
주차타워,성남시 중원구,경기 성남시 중원구 광명로 133,미분류,미분류,127.1428857,37.43727695
상원주차장,성남시 중원구,경기 성남시 중원구 상대원동 2978-2,실외,노외,127.1606721,37.43825334
중삼88 노상공영주차장,성남시 중원구,경기 성남시 중원구 광명로 353,실외,노상,127.1649473,37.44622683
중상 70-2 노상공영주차장,성남시 중원구,경기 성남시 중원구 산성대로504번길 1,실외,노상,127.1629661,37.4560434
대원공원 주차장1,성남시 중원구,경기 성남시 중원구 하대원동 537-8,실외,야외시설,127.1542673,37.43594446
파킹플랫폼,성남시 중원구,경기 성남시 중원구 광명로 132,실내,지하,127.1429224,37.43695524
상대원2동공영주차장,성남시 중원구,경기 성남시 중원구 상대원동 2991-7,실외,노외,127.161061,37.44043326
금광2동주차장,성남시 중원구,경기 성남시 중원구 금광동 3169,실외,노외,127.1646552,37.44699129
은행근린공원 주차장,성남시 중원구,경기 성남시 중원구 순환로 357,실외,야외시설,127.1702314,37.45409779
삼원주차장,성남시 중원구,경기 성남시 중원구 박석로15번길 19,실외,건물주변,127.1639398,37.43402489
주차장,성남시 중원구,경기 성남시 중원구 금광동 4852,실외,노상,127.16260105255417,37.44559846733421
한주칼국수 주차장,성남시 중원구,경기 성남시 중원구 하대원동 127-3,실외,노외,127.1453856,37.42870254
상대원1동공영주차장,성남시 중원구,경기 성남시 중원구 상대원동 125-1,실외,노외,127.1796409,37.44535845
금광2동3426 주차장,성남시 중원구,경기 성남시 중원구 금광동 3426,실외,노외,127.1616794,37.44843702
은행 공영주차장,성남시 중원구,경기 성남시 중원구 은행동 1400,실외,노외,127.1660628,37.4559526
선텍시티2 주차장,성남시 중원구,경기 성남시 중원구 사기막골로 52,실내,지상,127.1707793,37.43462339
행복주차장,성남시 중원구,경기 성남시 중원구 중앙동 7-1,실외,노외,127.1574286,37.44393679
LS빌딩 주차장,성남시 중원구,경기 성남시 중원구 연꽃로20번길 18-2,실외,건물주변,127.1365426,37.41634032
현대아파트 지하주차장,성남시 중원구,경기 성남시 중원구 둔촌대로 193,실내,지하,127.139634,37.42948975
디메드 옥외주차장,성남시 중원구,경기 성남시 중원구 상대원동 138-7,실외,건물주변,127.1748425,37.43947482
중상44-46 노상공영주차장,성남시 중원구,경기 성남시 중원구 하대원동 210-1,실외,노상,127.154752,37.43100356
섬마을휴먼시아 아파트 지하주차장,성남시 중원구,경기 성남시 중원구 도촌남로 22,실내,지하,127.1477795,37.41424545
소규모노외주차장,성남시 중원구,경기 성남시 중원구 산성대로420번길 36,실외,노외,127.1629454,37.44859747
나이스파크 성남 어반스퀘어 주차장,성남시 중원구,경기 성남시 중원구 양현로 409,실내,지하,127.1274029,37.41711999
노상공영주차장,성남시 중원구,경기 성남시 중원구 상대원동 297-2,실외,노상,127.17033575936634,37.43184620204632
금광2동공영주차장,성남시 중원구,경기 성남시 중원구 금광동 4224,실외,노외,127.1600558,37.44811847
금광2동주차장,성남시 중원구,경기 성남시 중원구 금광동 3257,실외,노외,127.1638776,37.44904308
금광2동주차장,성남시 중원구,경기 성남시 중원구 금광동 3253,실외,노외,127.1635122,37.44936435
노상공영주차장,성남시 중원구,경기 성남시 중원구 하대원동 223,실외,노상,127.1570024,37.43194035
상대원3동공영주차장,성남시 중원구,경기 성남시 중원구 상대원동 844,실외,노외,127.1656388,37.44002328
노상공영주차장,성남시 중원구,경기 성남시 중원구 은행동 1932-12,실외,노상,127.16750089119132,37.45261862443869
거북주차빌딩,성남시 중원구,경기 성남시 중원구 양현로405번길 14,실내,지상,127.1274036,37.41822554
소규모노외주차장,성남시 중원구,경기 성남시 중원구 금상로 134,실외,노상,127.1681601,37.44163794
상대원3동공영주차장,성남시 중원구,경기 성남시 중원구 상대원동 855,실외,노외,127.1653452,37.44010658
산성교회 주차장,성남시 중원구,경기 성남시 중원구 둔촌대로413번길 39,골목길,주택가,127.1627546,37.43667731
은행2동제3동 공영주차장,성남시 중원구,경기 성남시 중원구 은행동 1723,실외,노외,127.1634983,37.45546963
노상공영주차장,성남시 중원구,경기 성남시 중원구 은행동 196-1,실외,노외,127.1685179813532,37.45510487311361
노외주차장,성남시 중원구,경기 성남시 중원구 은행동 1932-13,실외,노상,127.1664978,37.45233712
공단주차장,성남시 중원구,경기 성남시 중원구 박석로15번길 24,실외,노외,127.1634751,37.43440756
금광2동공영주차장,성남시 중원구,경기 성남시 중원구 금광동 3439,실외,노외,127.1620312,37.44806172
상대원3동공영주차장,성남시 중원구,경기 성남시 중원구 상대원동 815,실외,노외,127.1660884,37.44098493
금광2동공영주차장,성남시 중원구,경기 성남시 중원구 금광동 3921,실외,노외,127.1609101,37.44807406
상대원3동공영주차장,성남시 중원구,경기 성남시 중원구 상대원동 883,실외,노외,127.1670038,37.43999253
공영주차장,성남시 중원구,경기 성남시 중원구 갈현동 247-1,실외,노외,127.1736458,37.42331777
금광2동3949 주차장,성남시 중원구,경기 성남시 중원구 금광동 3949,실외,노외,127.161422,37.44855631
금광2동주차장,성남시 중원구,경기 성남시 중원구 금광동 3385,실외,노외,127.1629726,37.44861545
상대원3동공영주차장,성남시 중원구,경기 성남시 중원구 상대원동 826,실외,노외,127.1669147,37.44058372
금광2동공영주차장,성남시 중원구,경기 성남시 중원구 금광동 3935,실외,노외,127.1612227,37.44839079
상대원제4주차장,성남시 중원구,경기 성남시 중원구 박석로52번길 4-8,미분류,미분류,127.1663063,37.43730849
상대원3동823 주차장,성남시 중원구,경기 성남시 중원구 상대원동 823,실외,노외,127.1668696,37.44063063
상대원3동공영주차장,성남시 중원구,경기 성남시 중원구 상대원동 824,실외,노외,127.1666796,37.44056603
금광2동주차장,성남시 중원구,경기 성남시 중원구 금광동 3410,실외,노외,127.1625964,37.44816546
금광2동공영주차장,성남시 중원구,경기 성남시 중원구 금광동 3418,실외,노외,127.1623793,37.44810809
