name,region,address,type1,type2,lon,lat
박두진문학길 주차장,안성시,경기 안성시 금광면 오흥리 824-3,실외,야외시설,127.335971476029,36.9942811871927
금광호수 수석정 공영주차장,안성시,경기 안성시 금광면 현곡리 683-7,미분류,미분류,127.345596154917,36.9833741020883
농협안성팜랜드 제1주차장,안성시,경기 안성시 공도읍 대신두길 28,실외,야외시설,127.193186409584,36.9940240070375
안일옥 본점 전용주차장,안성시,경기 안성시 중앙로411번길 20,실외,건물주변,127.27297717915,37.007480844098
스타필드 안성 본관 지상주차장,안성시,경기 안성시 공도읍 서동대로 3930-39,실내,지상,127.147168765436,36.9955803684505
홈플러스물류서비스센터 주차장,안성시,경기 안성시 원곡면 원곡물류단지로 140,실외,건물주변,127.162668260857,37.0431136543035
칠장사 주차장,안성시,경기 안성시 죽산면 칠장리 790,실외,야외시설,127.396785280551,37.026324663529
안성맞춤랜드 주차장1,안성시,경기 안성시 보개면 남사당로 198,실외,야외시설,127.307381057138,37.0338631257042
공도저류지 공영주차장,안성시,경기 안성시 공도읍 만정리 819,실내,지상,127.168714279146,36.9993698545903
석남사 주차장,안성시,경기 안성시 금광면 상촌새말길 3-120,실외,야외시설,127.307122090583,36.9393079783744
서인동공영주차장,안성시,경기 안성시 장기로69번길 31,실내,지상,127.27022628425372,37.005771485412566
청룡사 주차장,안성시,경기 안성시 서운면 청룡길 140,실외,야외시설,127.288702309673,36.9140551687637
박두진문학길수석정 주차장,안성시,경기 안성시 금광면 현곡리 40,실외,야외시설,127.3429194476,36.9860987109971
유토피아추모관 주차장,안성시,경기 안성시 일죽면 화곡길 130,실외,야외시설,127.461177705521,37.1179964732199
동본동공영주차장,안성시,경기 안성시 중앙2길 42,실내,지상,127.2719562036544,37.00789047531283
스타필드 안성 주차장,안성시,경기 안성시 공도읍 서동대로 3930-39,실외,건물주변,127.14602765486994,36.99512132465714
석정동공영주차장,안성시,경기 안성시 중앙로367번길 7,실내,지상,127.26759966427753,37.00839056429901
안성성모병원 주차장,안성시,경기 안성시 시장길 58,실내,지상,127.27069042283662,37.00580556986674
에덴블루CC 주차장,안성시,경기 안성시 죽산면 녹배길 175,실외,야외시설,127.383830588944,37.0568952699272
공도공영주차장,안성시,경기 안성시 공도읍 승두리 65-15,실외,노상,127.168624284908,36.9976369323453
서운산자연휴양림 주차장,안성시,경기 안성시 금광면 상중리 25-5,실외,야외시설,127.31399184,36.94252672
서안성골프클럽 주차장,안성시,경기 안성시 원곡면 지문리 769 1층,실외,야외시설,127.141722426249,37.0619620583918
청룡호수 공영주차장,안성시,경기 안성시 서운면 청룡길 116,실외,야외시설,127.288000032884,36.9105290960506
스타필드 안성 본관지하주차장,안성시,경기 안성시 공도읍 서동대로 3930-39,실내,지하,127.147251281582,36.9946791838084
신안CC 주차장,안성시,경기 안성시 고삼면 개울말길 149,실외,야외시설,127.25077376152252,37.0984479926887
롯데마트 안성점 주차장,안성시,경기 안성시 공도읍 서동대로 4478,실외,건물주변,127.199509339455,37.0077813413077
죽산순교성지주차장,안성시,경기 안성시 일죽면 죽림리 549-2,실외,야외시설,127.447686489979,37.075710164437
안성베네스트GC 주차장,안성시,경기 안성시 금광면 삼흥로 660,실외,야외시설,127.385464048092,37.0197388197401
아양지구 제4공영주차장,안성시,경기 안성시 옥산동 587,실외,노외,127.25357707779,37.0029773924197
스타필드 안성 별관주차장,안성시,경기 안성시 공도읍 진사리 354,실내,지상,127.147249620616,36.9946334108693
나이스파크 안성 기계공구 상가 주차장,안성시,경기 안성시 미양면 신두만곡로 927-14,실외,건물주변,127.255081726456,36.9753136677156
안성천 둔치 공영주차장,안성시,경기 안성시 도기동 544-30,실외,노외,127.26781367939,37.0025544247582
대덕광덕공영주차장,안성시,경기 안성시 대덕면 내리 322-12,실외,노외,127.221437269665,37.0021896423563
안성종합운동장 주차장1,안성시,경기 안성시 보개면 양복리 산 53-2,실외,노외,127.32638015,37.01179012
고삼호수낚시터 주차장,안성시,경기 안성시 고삼면 향림길 50,실외,야외시설,127.285223820875,37.088570151643
로스가든 주차장,안성시,경기 안성시 양성면 미리내성지로 299-8,실외,건물주변,127.258697883521,37.1309611256935
이글몬트CC 주차장,안성시,경기 안성시 보개면 보삼로 106,실외,건물주변,127.330927990891,37.09192592992
서일농원 주차장1,안성시,경기 안성시 일죽면 화봉리 382-5,실외,야외시설,127.475353645704,37.0828756985282
청룡리주차장,안성시,경기 안성시 서운면 청용리 69-5,실외,야외시설,127.288204443228,36.9131427600807
마에스트로CC 주차장,안성시,경기 안성시 양성면 안성맞춤대로 2134-36,실외,야외시설,127.25955813259893,37.10472753074844
소나무향기 안성점 주차장,안성시,경기 안성시 양성면 안성맞춤대로 2184-5,실외,건물주변,127.255134954068,37.1041406259856
스타벅스 안성계동DT점 주차장,안성시,경기 안성시 안성맞춤대로 803,실외,건물주변,127.267286964884,36.9859514909959
골프클럽Q 주차장,안성시,경기 안성시 죽산면 장계리 711-2,실외,야외시설,127.389582749216,37.0468242865336
CGV 안성 전용주차장,안성시,경기 안성시 석정동 149-2,실외,노외,127.255544926124,37.0118555560907
윈체스트GC 주차장,안성시,경기 안성시 서운면 오촌길 97-31,,,127.286687763971,36.9598443705496
홈플러스 안성신선물류서비스센터 주차장,안성시,경기 안성시 원곡면 원곡물류단지1로 103,실외,건물주변,127.166496622738,37.0471118177121
풍사니랑 주차장,안성시,경기 안성시 삼죽면 덕산리 산 11,실외,야외시설,127.378903454464,37.0883617334473
알미산공원 주차장,안성시,경기 안성시 옥산동 362,실외,야외시설,127.249744418165,37.003976705975
우성공원묘원 주차장,안성시,경기 안성시 일죽면 화곡길 158,실외,건물주변,127.459130882021,37.1211436973779
두산테스나 서안성사업장 주차장,안성시,경기 안성시 원곡면 지문로 97-12,실외,건물주변,127.133753479066,37.0501511232466
수원지방법원안성등기소 주차장,안성시,경기 안성시 안성맞춤대로 1188,실외,건물주변,127.268074698975,37.0185608563378
중앙로382번길 노상 공영 주차장,안성시,경기 안성시 중앙로382번길 9,실외,노상,127.268977463974,37.0072016306227
시장길주차장,안성시,경기 안성시 서인동 13-20,골목길,상가,127.270813746311,37.0067761106621
한림안성CC 주차장,안성시,경기 안성시 양성면 양성로 349-61,실외,야외시설,127.201401133031,37.085368527134186
안성맞춤대로2구간 노상주차장,안성시,경기 안성시 서인동 121,실외,노상,127.26924998977,37.0066465790438
대덕내리공영주차장,안성시,경기 안성시 대덕면 내리 681-12,실외,노외,127.224401082953,37.0029808111269
공영주차장,안성시,경기 안성시 옥산동 596,실외,노외,127.257648244549,37.007898698795
안성시립진사도서관 주차장,안성시,경기 안성시 공도읍 진사2길 70,실외,건물주변,127.14478718358,36.9937964508067
국사암주차장,안성시,경기 안성시 삼죽면 텃골길 80-100,실외,야외시설,127.343294640738,37.0701138222802
인지동주차장,안성시,경기 안성시 안성맞춤대로 1036,실외,노상,127.269220682449,37.005759353355
육미제당 공도용이점 제2주차장,안성시,경기 안성시 공도읍 진사리 22-85,실외,건물주변,127.140370376778,36.9943488030696
나이스파크 안성 해천프라자 주차장,안성시,경기 안성시 아양1로 77-10,실내,지하,127.258369933068,37.0078397312775
LS미래원 주차장1,안성시,경기 안성시 서운면 바우덕이로 248,실외,건물주변,127.276861663787,36.9551910512647
터미널노외주차장,안성시,경기 안성시 가사동 181-5,실외,노외,127.291233442873,37.0125956709248
스타벅스 안성공도DT점 주차장,안성시,경기 안성시 공도읍 마정리 147-8,실외,건물주변,127.200767608107,37.0094447750124
당왕동2임시주차장,안성시,경기 안성시 당왕동 553-12,실외,노외,127.262811204119,37.0139601947055
이마트 안성점 주차장,안성시,경기 안성시 중앙로 246,실내,지상,127.255923462253,37.0127234697872
트럭헬퍼 대형화물차주차장 안성만정리점,안성시,경기 안성시 공도읍 만정리 648-4,실외,노외,127.177655083431,37.0277715292109
디자인시티블루밍아파트 지하주차장,안성시,경기 안성시 공도읍 공도로 142,실내,지하,127.17512704528508,36.99930352812003
스타벅스 안성석정DT점 주차장,안성시,경기 안성시 석정동 254-3,실외,건물주변,127.262158859026,37.0104732945341
이소가든 주차장,안성시,경기 안성시 양성면 석화리 산 7-1,실외,건물주변,127.201122392883,37.0696004716023
궁중해물탕 양성점 주차장,안성시,경기 안성시 양성면 동항리 640-5,실외,건물주변,127.189631599882,37.0604610915008
중앙대 공영주차장,안성시,경기 안성시 대덕면 내리 407,실외,노외,127.225814053204,37.0118925091184
청미공원 무료공영주차장,안성시,경기 안성시 일죽면 송천리 566,실외,야외시설,127.478943972862,37.094667125133
안성마춤가족공원 공영주차장,안성시,경기 안성시 공도읍 마정리 112-52,실외,야외시설,127.202716204238,37.0138305288368
마트킹 안성점 주차장,안성시,경기 안성시 공도읍 진사2길 109,실외,건물주변,127.144971695319,36.996075243131
금산동공영주차장,안성시,경기 안성시 금산동 8,실외,노외,127.269495350957,37.0116055568079
약수터식당 주차장,안성시,경기 안성시 양성면 만세로 667,실외,건물주변,127.190428293118,37.0600963229113
성요셉병원 주차장,안성시,경기 안성시 당왕동 135,실외,건물주변,127.269051890544,37.0165866380189
안성휴게소 부산방향 주차장,안성시,경기 안성시 원곡면 반제리 642-6,실외,야외시설,127.144715602331,37.0135818447457
아양지구 제2공영주차장,안성시,경기 안성시 옥산동 546,실외,노외,127.252275430278,37.0079496175287
미코파워 고객주차장,안성시,경기 안성시 공단2로 23,실외,건물주변,127.251855595959,37.0173943477737
노상공영주차장,안성시,경기 안성시 석정동 264-20,실외,노상,127.263317376092,37.0086091922395
안성CC 주차장,안성시,경기 안성시 죽산면 걸미로 487,실외,야외시설,127.414145868822,37.038728687726
안성농협주차장,안성시,경기 안성시 석정동 286-17,실외,건물주변,127.266519385137,37.0073376518784
대성주차장,안성시,경기 안성시 중앙로411번길 17,실외,노외,127.27260177279592,37.00775653582337
경안빌딩 주차장,안성시,경기 안성시 인지2길 6,실외,건물주변,127.267452828735,37.005283976163
성민주차장,안성시,경기 안성시 중앙1길 54,실외,노외,127.273036664627,37.0071491104053
이비스모텔 주차장,안성시,경기 안성시 중앙로356번길 9-8,실외,건물주변,127.266507801991,37.0074955468657
안성시청 주차장1,안성시,경기 안성시 시청길 25,실외,건물주변,127.28060174084,37.0075135236598
파인크리크CC 주차장,안성시,경기 안성시 양성면 안성맞춤대로 2417-66,실외,야외시설,127.23413734022547,37.09139962964659
나이스파크 안성 폴리프라자 2 주차장,안성시,경기 안성시 아양1로 67,실내,지하,127.258912042893,37.0080029967788
KM파크 GS더프레시 안성점 주차장,안성시,경기 안성시 중앙로 430,실외,건물주변,127.274243622156,37.0060656642751
안성종합운동장 주차장2,안성시,경기 안성시 보개면 양복리 210,실외,노외,127.327580737877,37.011451249697
안성시 리라아동복지관 주차장,안성시,경기 안성시 원곡면 용소길 65,실외,건물주변,127.145739883576,37.0464448527246
노상공영주차장,안성시,경기 안성시 인지동 355-7,실외,노상,127.267886397021,37.005668479905
미코파워 직원주차장,안성시,경기 안성시 공단2로 93,실외,건물주변,127.25110725794,37.018774581698
도기동임시공영주차장,안성시,경기 안성시 도기동 138,실외,노외,127.26592851262,37.0037584502854
한주아파트 지하주차장,안성시,경기 안성시 월덕천길 17,실내,지하,127.278372628575,37.0099841224249
너리굴문화마을 주차장,안성시,경기 안성시 보개면 너리굴길 100,실외,야외시설,127.280762242339,37.0413647550935
동아방송예술대학교 주차장P2,안성시,경기 안성시 삼죽면 동아예대길 47,실외,건물주변,127.358762825843,37.0576765617896
죽산면공영주차장,안성시,경기 안성시 죽산면 죽산리 506-7,실외,노외,127.42357881743,37.0745944363571
나이스파크 공도1번가 주차장,안성시,경기 안성시 공도읍 공도3로 9-9,실내,지상,127.1694759668,37.0002290318657
안성맞춤랜드 주차장3,안성시,경기 안성시 보개면 남사당로 198-4,실외,건물주변,127.31183982819,37.0303120736793
안성3.1운동기념관 주차장,안성시,경기 안성시 원곡면 만세로 868,실외,건물주변,127.174724378185,37.0614063218871
장기로1구간 노상공영주차장,안성시,경기 안성시 인지동 352-2,실외,노상,127.267613792319,37.0058503018032
서안성체육센터 야외주차장,안성시,경기 안성시 공도읍 용두리 83,실외,건물주변,127.167655091425,37.0080117286728
하상주차장,안성시,경기 안성시 강변로 85,실외,노외,127.273031611366,37.001966116438
가야정 주차장,안성시,경기 안성시 양성면 양성로 688-4,실외,상가,127.220296280845,37.1073199516048
퇴미1공원 주차장,안성시,경기 안성시 공도읍 공도로 116-70,실외,야외시설,127.178203395235,36.9989853731766
투루파킹 다이소안성공도점 주차장,안성시,경기 안성시 공도읍 서동대로 3884,실외,건물주변,127.13875694342,36.9938223051875
서안성농협하나로마트 본점 주차장,안성시,경기 안성시 공도읍 만정리 381,실외,건물주변,127.172375807604,37.009928682016
CGV 안성 주차장,안성시,경기 안성시 아양2로 109,실내,지하,127.257255193531,37.0121240770103
안성맞춤랜드 주차장4,안성시,경기 안성시 보개면 남사당로 198-10,실외,건물주변,127.311206258812,37.0347938757039
안성휴게소 서울방향 주차장,안성시,경기 안성시 원곡면 산하리 421-4,실외,야외시설,127.132497850726,37.0767728142858
시그니쳐타워,안성시,경기 안성시 공도읍 공도3로 10-8,실내,지상,127.171520073411,37.0006742935157
연지주차장,안성시,경기 안성시 연지동 135,실외,건물주변,127.27008699,37.01054031
에스에이치빌딩,안성시,경기 안성시 남파로 103,실외,건물주변,127.261936387163,37.0165632689883
카카오T 경안빌딩 주차장,안성시,경기 안성시 인지동 414-1,실외,건물주변,127.267452044799,37.0052846987782
스타벅스 안성서동대로DT점 주차장,안성시,경기 안성시 공도읍 서동대로 4314,실외,건물주변,127.182089742139,37.004804962672
아양복개천 공영주차장,안성시,경기 안성시 아양동 290-2,실외,노상,127.265048054528,37.0052554899718
탑 유료 주차장,안성시,경기 안성시 대천동 133,실외,노외,127.26911890386,37.0079303725904
안성맞춤휴게소 제천방향 주차장,안성시,경기 안성시 서운면 평택제천고속도로 40,실외,야외시설,127.274394326787,36.9684859842986
노상공영주차장,안성시,경기 안성시 창전동 615,실외,노상,127.271127261187,37.0040050282249
하이파킹 다이소안성공도점,안성시,경기 안성시 공도읍 진사리 22-6,실외,건물주변,127.13875694342,36.9938223051875
투루파킹 안성동인병원 주차장,안성시,경기 안성시 인지1길 15,실외,건물주변,127.266578413409,37.0049685832844
나이스파크 폴리프라자1 주차장,안성시,경기 안성시 아양1로 61,실내,지하,127.25935793330548,37.00762402078621
공도 임시공영주차장,안성시,경기 안성시 공도읍 승두리 60-181,실외,노상,127.171001162617,36.9987239308165
제2산업단지 노상공영주차장,안성시,경기 안성시 미양면 계륵리 280,실외,노상,127.254786879007,36.9800184062351
노상공영주차장,안성시,경기 안성시 당왕동 563,실외,노상,127.263844573741,37.0142703055011
칠곡지주차장,안성시,경기 안성시 원곡면 만세로 1138,실외,건물주변,127.154017899079,37.0456229778838
중앙로371번길4 노상 공영 주차장,안성시,경기 안성시 중앙로371번길 17,실외,노상,127.268469742834,37.008514750369
개정 일반산업단지 공영주차장,안성시,경기 안성시 미양면 개정리 766,실외,노외,127.198389934223,36.9582061453252
권홍헤어 주차장,안성시,경기 안성시 대덕면 내리 686-10,골목길,상가,127.225269641755,37.0012253936052
SK브로드밴드인재개발원 주차장,안성시,경기 안성시 원곡면 관산길 144,실외,건물주변,127.149675240901,37.0323574941574
공도도서관 노상공영주차장,안성시,경기 안성시 공도읍 만정리 788-2,실외,노상,127.172698929663,37.0033624009517
안성맞춤휴게소 평택방향 주차장,안성시,경기 안성시 서운면 평택제천고속도로 41,실외,야외시설,127.274676708948,36.9695666324467
안성체육공원 주차장,안성시,경기 안성시 중리동 440,실외,야외시설,127.266971487799,36.9824914149649
한국국토정보공사 안성지사 주차장,안성시,경기 안성시 보개원삼로 47,실외,건물주변,127.283236118557,37.0089309696923
묘향산,안성시,경기 안성시 석정1길 13-8,실외,건물주변,127.261612843555,37.009013671194
트럭헬퍼 대형화물차주차장 안성신두리점,안성시,경기 안성시 공도읍 신두만곡로 201,실외,노외,127.203674140091,36.9932027106412
안성도우 물류센터 주차장,안성시,경기 안성시 서운면 송정리 68-2,실외,건물주변,127.238463143465,36.9325303464742
카카오T 더원빌딩&캐슬타운 주차장,안성시,경기 안성시 대덕면 신령리 500-21,실외,건물주변,127.224861435115,37.012841801917
중앙로주차장,안성시,경기 안성시 중앙로400번길 9-6,실외,노외,127.271457236596,37.0065967677833
나이스파크 경기도의료원 안성병원 주차장,안성시,경기 안성시 남파로 95,실외,건물주변,127.259538626224,37.0171480196657
동아방송예술대학교 주차장P3,안성시,경기 안성시 삼죽면 동아예대길 47,실외,노외,127.359460556926,37.0578186206453
내혜홀광장 주차장,안성시,경기 안성시 내혜홀1길 33,실외,야외시설,127.265120813571,37.0079924441679
신시장로 노상공영주차장,안성시,경기 안성시 서인동 88,실외,노상,127.268354337129,37.0074876918224
대우산업차고지,안성시,경기 안성시 양성면 한내로 227,실외,노외,127.21875144699,37.0542616934955
안성맞춤자전거 주차장,안성시,경기 안성시 공도읍 승두리 598-19,미분류,미분류,127.154296129851,36.9973371684485
하루 평택점 주차장,안성시,경기 안성시 원곡면 외가천리 160-9,실외,건물주변,127.134772856454,37.0407844686029
안성공도쌍용더플래티넘프리미어아파트 단지내상가 주차장,안성시,경기 안성시 공도읍 공도로 42-71,실내,미분류,127.166651398486,36.9944679101577
내혜홀 주차장,안성시,경기 안성시 내혜홀2길 56,실외,야외시설,127.264873423057,37.0069290029096
버거킹 안성공도DT점 주차장,안성시,경기 안성시 공도읍 서동대로 4294,실외,건물주변,127.179889587148,37.0042450521647
안성맞춤대로1구간 노상 공영 주차장,안성시,경기 안성시 대천동 158,실외,노상,127.269842271356,37.0085395712272
안성메디스퀘어 빌딩관리단,안성시,경기 안성시 중앙로 374,실내,지하,127.268354337129,37.0074876918224
파킹네트워크코리아 석정주차장,안성시,경기 안성시 석정동 147-1,골목길,상가,127.256763805421,37.0123496897345
나이스파크 안성 폴리프라자 주차장,안성시,경기 안성시 아양1로 77-25,미분류,미분류,127.258538740096,37.0070577679977
나이스파크 안성 쏘리마트 주차장,안성시,경기 안성시 공도읍 진사길 19,실내,지상,127.138719648177,36.9923998095157
중앙대학교 다빈치캠퍼스 주차장3,안성시,경기 안성시 대덕면 대학1길 23,실외,야외시설,127.224670372095,37.0057258919029
죽산농협 하나로마트 주차장,안성시,경기 안성시 죽산면 장원남산길 11,실외,건물주변,127.426980971608,37.0754521250937
석정동노외공영주차장,안성시,경기 안성시 석정동 332-1,실외,건물주변,127.261841432039,37.0142696958012
파킹네트워크코리아,안성시,경기 안성시 중앙로452번길 7,실외,노상,127.27716437055,37.0058208148092
카카오 T JS3빌딩 주차장,안성시,경기 안성시 양성면 안성맞춤대로 2289-11,실외,건물주변,127.2463086404878,37.10805188480693
중앙로노상공영주차장,안성시,경기 안성시 봉산동 92,실외,노상,127.279553797935,37.0053342153105
두원공과대학교 주차장1,안성시,경기 안성시 죽산면 장원길 97-6,실외,건물주변,127.42142271574,37.0643474552103
안성성경마트 주차장,안성시,경기 안성시 당왕동 164-1,실외,건물주변,127.268239776331,37.0176027286805
고수1로 노상주차장,안성시,경기 안성시 당왕동 555,실외,노상,127.253955028217,37.0148682084892
안성맞춤대로3 노상공영주차장,안성시,경기 안성시 안성맞춤대로 1076,실외,노상,127.270209788648,37.0093641227853
용머리초등학교 주차장,안성시,경기 안성시 공도읍 용두리 522,실외,건물주변,127.1582051785,37.0031037196148
풍산개테마공원 주차장1,안성시,경기 안성시 삼죽면 삼백로 134-67,실외,야외시설,127.379810919157,37.0904170395596
KGC인재개발원 주차장,안성시,경기 안성시 삼죽면 내강리 432,실외,야외시설,127.360700739609,37.0760976014171
소나무카페 제2주차장,안성시,경기 안성시 보개면 남풍리 236-3,실외,건물주변,127.325717028662,37.0677940344562
나이스파크 안성 라파엘빌딩 주차장,안성시,경기 안성시 중앙로 274-36,실외,건물주변,127.259310082236,37.0102406769942
농협정보기술연구원 주차장,안성시,경기 안성시 공도읍 정봉길 192,실외,건물주변,127.189194758739,36.9916119316733
안성하이랜드 일반산업단지 제1주차장,안성시,경기 안성시 원곡면 지문리 801-5,실외,건물주변,127.14087683872,37.0577898382753
남파로 2구간 (구혜산로) 공영 주차장,안성시,경기 안성시 봉산동 415-1,실외,노상,127.277586908773,37.0074834884926
노상공영주차장,안성시,경기 안성시 금산동 175,실외,노상,127.268886058762,37.0095449117882
금산동 노외공영주차장,안성시,경기 안성시 금산동 191-2,실외,노외,127.269712332433,37.0149474310665
안성하이랜드 일반산업단지 제2주차장,안성시,경기 안성시 원곡면 지문리 795-2,실외,노외,127.138819668693,37.0623341194223
남파로1구간 노상공영주차장,안성시,경기 안성시 봉남동 53-2,실외,노상,127.276798566065,37.0101946012321
안성1구간 노상공영주차장,안성시,경기 안성시 연지동 161,실외,노상,127.270434724961,37.0104410295407
815빌딩,안성시,경기 안성시 공도읍 공도3로 9-9,실내,지상,127.169539976175,37.0000649436644
농협안성교육원 주차장,안성시,경기 안성시 공도읍 대신두길 13,실외,건물주변,127.195084739005,36.9948462933653
카카오T GS더프레시 안성점 주차장,안성시,경기 안성시 중앙로 430,실외,건물주변,127.27429902249696,37.00638118409709
동원주차장,안성시,경기 안성시 시장길 73,실외,건물주변,127.271995366861,37.0062684442763
당왕동공영주차장,안성시,경기 안성시 당왕동 553-15,실외,노외,127.263148105991,37.0139367410308
노상공영주차장,안성시,경기 안성시 대천동 159,실외,노상,127.269230787737,37.008624760166
월정산업단지 공영주차장,안성시,경기 안성시 일죽면 월정리 1839,실외,건물주변,127.457959421045,37.0858087048486
케이엠파크더워빌딩캐슬타운 주차장,안성시,경기 안성시 대덕면 서동대로 4717,실외,건물주변,127.224861435115,37.012841801917
시청길 노상 공영 주차장,안성시,경기 안성시 봉산동 19-4,실외,노상,127.279635215104,37.0061212958436
삼원주차장,안성시,경기 안성시 석정동 270-24,실외,건물주변,127.265168484035,37.0075486465914
한경국립대학교 주차장10,안성시,경기 안성시 중앙로 327,실외,건물주변,127.262416090847,37.0134589885201
카카오T 안성주차장,안성시,경기 안성시 중앙로 430,실외,노상,127.273951093656,37.0058575599173
동신아파트지하주차장,안성시,경기 안성시 혜산로 37-24,실내,지하,127.275211404672,37.012009909141
노상공영주차장,안성시,경기 안성시 연지동 164,실외,노상,127.269831562617,37.0102461475575
동아방송예술대학교 임시주차장,안성시,경기 안성시 삼죽면 동아예대길 47,실외,야외시설,127.357156462671,37.0579697508956
동아방송예술대학교 주차장P11,안성시,경기 안성시 삼죽면 내강리 558,실외,건물주변,127.353458656497,37.0608306358791
서일농원 주차장2,안성시,경기 안성시 일죽면 금일로 350-7,실외,야외시설,127.475579964984,37.0834398466959
KGC인재개발원 주차장2,안성시,경기 안성시 삼죽면 보삼로 618-10,실외,건물주변,127.360521936826,37.0739841539825
두원공과대학교 주차장2,안성시,경기 안성시 죽산면 관음당길 51,실외,야외시설,127.419800183812,37.0645442343825
동아방송예술대학교 주차장P13,안성시,경기 안성시 삼죽면 내강리 563-3,실외,건물주변,127.353515995307,37.0620901585076
