name,region,address,type1,type2,lon,lat
이천하이닉스근로자 주차장,이천시,경기 이천시 부발읍 가좌리 78-2,실외,노외,127.474334488292,37.2521097461097
SK하이닉스고담 주차장,이천시,경기 이천시 대산로 281,실외,건물주변,127.47470527212,37.2458664226036
강민주의들밥 본점 주차장,이천시,경기 이천시 마장면 이평리 371-2,실외,건물주변,127.367789788071,37.2214944303085
하이파킹 이천미란다호텔 주차장,이천시,경기 이천시 중리천로115번길 45,실외,건물주변,127.451095788021,37.275444191134
에이치원클럽 주차장,이천시,경기 이천시 호법면 장자터로 115,실내,지하,127.404093326772,37.1876912828194
부발역 임시공영주차장,이천시,경기 이천시 부발읍 아미리 1227,실외,노외,127.491632933712,37.2610073599878
설봉공원 설봉제1주차장,이천시,경기 이천시 관고동 355-9,실외,야외시설,127.428660219475,37.2785926931386
남천상가 공영주차장,이천시,경기 이천시 어재연로10번길 25 지하,실내,지하,127.44416668,37.27804554
민속식당 이천쌀밥집 주차장,이천시,경기 이천시 마장면 덕평로882번길 2-23,실외,건물주변,127.365822079769,37.2361882388127
고담주차장,이천시,경기 이천시 고담동 69-4,실외,노외,127.472425824805,37.2501919533095
터미널공영주차장,이천시,경기 이천시 중리동 439,실외,노상,127.448782703922,37.2772520750261
영원사 주차장,이천시,경기 이천시 백사면 원적로869번길 309-52,실외,야외시설,127.463701060221,37.353251392203
비에이비스타CC 주차장,이천시,경기 이천시 모가면 어농리 392-1,실외,야외시설,127.416422000076,37.1798968771912
오비맥주 화물차 주차장,이천시,경기 이천시 부발읍 중부대로1390번길 56,실외,건물주변,127.470263002189,37.2717222212963
삼원주차장,이천시,경기 이천시 영창로 232,실외,노외,127.448414539645,37.2803848284253
효자원장례식장 민영 주차장,이천시,경기 이천시 백사면 지읍로 169,실외,건물주변,127.477335061127,37.3212951033864
마장휴게소 주차장,이천시,경기 이천시 마장면 중부고속도로 82,실외,야외시설,127.40564338523512,37.26539002635425
시몬스테라스 주차타워,이천시,경기 이천시 모가면 신갈리 842,실내,지상,127.446756532984,37.1973203841175
백사 산수유꽃축제 주차장,이천시,경기 이천시 백사면 원적로775번길 17,실외,건물주변,127.46348573492,37.3409911338092
이천역 주차장,이천시,경기 이천시 이섭대천로 1063,실외,노외,127.443704449565,37.2648002794802
남천공원입구 노상공영주차장,이천시,경기 이천시 중리동 236,실외,노상,127.441215894109,37.2775873215171
국립이천호국원 주차장1,이천시,경기 이천시 설성면 노성로 260,실외,야외시설,127.492755981098,37.1251355384967
덕평자연휴게소 강릉방향 주차장,이천시,경기 이천시 마장면 각평리 산 21-3,실외,야외시설,127.390102390125,37.2426186899303
이천산수유마을 주차장,이천시,경기 이천시 백사면 도립리 1006,실외,야외시설,127.461890486563,37.340603535739
거궁 이천점 주차장,이천시,경기 이천시 신둔면 수남리 1,실외,건물주변,127.405790898785,37.2999903687878
별빛정원 우주테마파크 주차장(덕평휴게소 인천방향),이천시,경기 이천시 마장면 덕이로154번길 287-76,실외,야외시설,127.3909977036723,37.24161495216189
이천실크밸리GC 주차장,이천시,경기 이천시 율면 임오산로 296,실외,야외시설,127.573388279916,37.0799455113609
임금님쌀밥집 주차장,이천시,경기 이천시 신둔면 수광리 314-1,골목길,상가,127.403618978736,37.3064371881261
2-1관고전통시장입구앞 노상공영주차장,이천시,경기 이천시 창전동 178,실외,노상,127.441591213047,37.2805330197131
롯데프리미엄아울렛이천점 주차장,이천시,경기 이천시 호법면 단천리 865,실외,노외,127.400026089807,37.2422268786208
단내성가정성지 주차장,이천시,경기 이천시 호법면 단천리 406,실외,야외시설,127.396420002306,37.2207999893345
이진상회 주차장,이천시,경기 이천시 마장면 장암리 325,실외,건물주변,127.400005934045,37.2790228554903
원이쌀밥 주차장,이천시,경기 이천시 대월면 사동로 76-19,미분류,미분류,127.495453912473,37.2362682813346
중리천로주차장,이천시,경기 이천시 중리천로 38,실내,지상,127.44219406752651,37.2802703708752
장호원버스터미널 주차장,이천시,경기 이천시 장호원읍 샘재로 131,실외,노외,127.627150101041,37.1201847242035
8-3터미널뒤 노상공영주차장,이천시,경기 이천시 중리천로 96-23,실외,노상,127.447586521732,37.2768955600178
아미주차장,이천시,경기 이천시 부발읍 아미리 635-31,실외,건물주변,127.493968123262,37.2540306640578
블랙스톤이천GC 주차장,이천시,경기 이천시 장호원읍 장여로 459-160,실외,야외시설,127.616907325338,37.1613424126075
신둔도예촌역 주차장,이천시,경기 이천시 신둔면 수광리 528-8,실외,노외,127.405242869086,37.3155669010162
북샛말공영주차장,이천시,경기 이천시 이섭대천로 1299,실내,지상,127.448155393971,37.2861235804769
어농성지 주차장,이천시,경기 이천시 모가면 어농로62번길 148,실외,야외시설,127.430826635884,37.1881512325524
마임비전빌리지 주차장,이천시,경기 이천시 부발읍 두무재로 46,실외,야외시설,127.539227616486,37.2925951463516
테르메덴 주차장,이천시,경기 이천시 모가면 신갈리 579,미분류,미분류,127.445616577671,37.1956390925218
예스파크 주차장2,이천시,경기 이천시 신둔면 도자예술로61번길 30,미분류,미분류,127.385763371484,37.2923550519968
청목한식당 주차장,이천시,경기 이천시 사음동 623,실외,건물주변,127.409192135165,37.2994870559411
노성산주차장,이천시,경기 이천시 설성면 진상미로665번길 238-7,실외,야외시설,127.506229364519,37.1294146395872
스타벅스 이천하이닉스점 주차장,이천시,경기 이천시 부발읍 아미리 726-5,골목길,상가,127.48994489114,37.2525105751105
택시쉼터 공영주차장,이천시,경기 이천시 창전동 417,실외,노외,127.440283996243,37.2862825991365
SK하이닉스 사원3주차장,이천시,경기 이천시 부발읍 신하리 569-7,실외,건물주변,127.482544124377,37.2547617485084
성호호수연꽃단지 주차장,이천시,경기 이천시 설성면 장천리 330,실외,야외시설,127.525188082206,37.1394799863696
예스파크 주차장1,이천시,경기 이천시 신둔면 도자예술로5번길 9,실외,노외,127.390580350777,37.2948044781159
마장제1공영주차장,이천시,경기 이천시 마장면 오천리 402-1,실외,노외,127.351447405809,37.254750313737
더크로스비GC 주차장,이천시,경기 이천시 호법면 단천리 888,실외,야외시설,127.413211160643,37.2308705783972
남이천가정식부페 주차장,이천시,경기 이천시 모가면 사실로 730,실외,건물주변,127.439263228303,37.1763600532974
SK하이닉스 사원4주차장,이천시,경기 이천시 부발읍 경충대로 2091-1,실외,노외,127.490785745655,37.2488932204919
롯데마트 이천점 주차장,이천시,경기 이천시 구만리로 191,실내,지상,127.454186723516,37.2747611030207
농협은행 이천시지부 주차장,이천시,경기 이천시 영창로 212,실외,건물주변,127.445931241567,37.2805185518552
향교로노상주차장(향교~일신주유소),이천시,경기 이천시 창전동 479,실외,노상,127.443791199972,37.2846508884289
더반올가닉 주차장,이천시,경기 이천시 부발읍 부발중앙로221번길 89,실외,건물주변,127.509568838299,37.2717613897872
증포주차장,이천시,경기 이천시 갈산로27번길 17-2,실외,노외,127.457525351661,37.2898243985233
이현주차장,이천시,경기 이천시 부발읍 대산로288번길 122,실외,노외,127.473707333423,37.2512279803598
아미권공영주차장 (2026년5월예정),이천시,경기 이천시 부발읍 아미리 682-6,미분류,미분류,127.490934480555,37.250571413102
이천시종합운동장 주차장,이천시,경기 이천시 부발읍 중부대로 1696,실외,건물주변,127.497736805203,37.2847072818968
부영주차장,이천시,경기 이천시 부발읍 경충대로2050번길 15-90,실외,건물주변,127.492227689935,37.2523439666817
양정분산부인과의원 옥외주차장,이천시,경기 이천시 중리동 464-10,실외,건물주변,127.447714134219,37.2764153675523
오천리공영주차장,이천시,경기 이천시 마장면 오천로24번길 11,실외,노외,127.350890280494,37.2539604933678
SK하이닉스 사원5주차장,이천시,경기 이천시 대월면 대흥리 산 21-2,실외,건물주변,127.476909078278,37.2411317189738
설봉공원 주차장2,이천시,경기 이천시 경충대로2697번길 198,실외,야외시설,127.425452302868,37.2755895882254
라온팰리스맞은편 노상공영주차장,이천시,경기 이천시 창전동 176,실외,노상,127.44621997755,37.2792700745312
양정빌딩 주차장,이천시,경기 이천시 영창로 202,실내,지상,127.445225573878,37.2805536452649
아르보르 주차장,이천시,경기 이천시 부악로 30-20,실외,건물주변,127.435140479504,37.274189036727
나랏님이천쌀밥 주차장,이천시,경기 이천시 경충대로 3052,실외,건물주변,127.408186138406,37.2999386123085
응암리막국수 주차장,이천시,경기 이천시 부발읍 경충대로1722번길 11,실외,건물주변,127.522403191472,37.2337259746061
민주화운동기념공원 주차장,이천시,경기 이천시 모가면 공원로 30,실외,야외시설,127.442356650664,37.1761392317946
부발역 주차장,이천시,경기 이천시 부발읍 신아로 87,실외,노외,127.489499976192,37.2595631905904
Tmap주차 이천 페트라 주차장,이천시,경기 이천시 중리천로115번길 45,실내,지상,127.45112076332,37.2752837120901
이천시청 주차장4,이천시,경기 이천시 부악로 40,실외,건물주변,127.434540641436,37.2725399154886
마장농협하나로마트 주차장,이천시,경기 이천시 마장면 오천리 410,실외,건물주변,127.353460381307,37.2535914422396
호텔더클래스 주차장,이천시,경기 이천시 남천로 93,실내,지상,127.447717379108,37.2767157596438
이천도자기축제 1주차장,이천시,경기 이천시 신둔면 고척리 611,실외,야외시설,127.390743637656,37.2945389456776
설악막국수 춘천닭갈비 이천점 주차장,이천시,경기 이천시 모가면 두미리 228,실외,건물주변,127.438160603206,37.1632353960979
세람저축은행앞 노상공영주차장,이천시,경기 이천시 중리동 240,실외,노상,127.44428595043,37.2791919312266
지산포레스트 1주차장,이천시,경기 이천시 마장면 해월리 247-6,실외,야외시설,127.345331695986,37.2176404228977
CGV 이천 맞은편 노상공영주차장,이천시,경기 이천시 창전동 177,실외,노상,127.44370286276,37.2803605048013
더보울 주차장,이천시,경기 이천시 호법면 중부대로 751,실외,노외,127.416558169838,37.2471557752746
호법레포츠공원 주차장,이천시,경기 이천시 호법면 동산로395번길 139-38,실외,야외시설,127.4072742148129,37.21565965598119
덕평자연휴게소 강릉방향 장애인전용주차장,이천시,경기 이천시 마장면 각평리 산 22-2,실외,야외시설,127.389012542275,37.2416961863998
은혜예식장뒤노상공영주차장,이천시,경기 이천시 중리동 252,실외,노상,127.445836464553,37.2789027269594
마장 제2공영주차장,이천시,경기 이천시 마장면 오천리 406-3,실외,노외,127.352999550441,37.2540192788156
수변공원 캠핑장 주차장,이천시,경기 이천시 경충대로 2434,실외,야외시설,127.459434465264,37.2683191890278
관고동공영주차장 (2026년6월예정),이천시,경기 이천시 설봉로19번길 12,실외,노외,127.436461373919,37.2787049281555
이천아트홀 주차장,이천시,경기 이천시 부악로 40,실내,지상,127.433963179375,37.2707381635648
신둔도예촌역 임시공영주차장,이천시,경기 이천시 신둔면 남정리 366-5,실외,노외,127.406060656807,37.3161147159777
4-3 새마을금고앞 노상공영주차장,이천시,경기 이천시 중리천로 67,실외,노상,127.445427834588,37.2794770516601
하이닉스 사원2주차장,이천시,경기 이천시 부발읍 가좌리 1-38,실외,노외,127.480685306373,37.2529797635041
호운 주차장,이천시,경기 이천시 신둔면 황무로 198-1,실외,노외,127.373930778241,37.3052299340585
투루파킹 이천삼원 주차장,이천시,경기 이천시 영창로 232,미분류,미분류,127.448055411178,37.2805006193864
진암공원 주차장,이천시,경기 이천시 장호원읍 진암리 81,실외,야외시설,127.618769456994,37.1108223359322
장원주차장,이천시,경기 이천시 장호원읍 장터로67번길 29,미분류,미분류,127.63213004813,37.1172779817143
5-1 관고2통보호수앞 노상공영주차장,이천시,경기 이천시 관고동 28,실외,노상,127.437843386819,37.282044817916
설봉공원 설봉제2주차장,이천시,경기 이천시 관고동 383,실외,야외시설,127.425769447335,37.2785475320547
더반GC 주차장,이천시,경기 이천시 대월면 대월로 627-141,실외,야외시설,127.492480293896,37.2096369493023
장호원농협하나로마트 주차장,이천시,경기 이천시 장호원읍 장감로 16,실외,건물주변,127.624489904359,37.1150898143682
호원빌딩주차장,이천시,경기 이천시 부발읍 경충대로 2096-16,미분류,미분류,127.490606119779,37.252410525404
이여로제빵소 주차장,이천시,경기 이천시 백사면 도립리 36-1,실외,건물주변,127.475350884368,37.325216692305
하이닉스 사원1주차장,이천시,경기 이천시 대월면 사동리,미분류,미분류,127.494097257968,37.2330139954559
2-2이천성당앞 노상공영주차장,이천시,경기 이천시 중리동 239,실외,노상,127.442227623073,37.2791060213397
스타벅스 이천사음DT점 주차장,이천시,경기 이천시 경충대로 3045,실외,건물주변,127.408125353758,37.2991260923158
청강문화산업대학교 주차장1,이천시,경기 이천시 마장면 해월리 산 67,미분류,미분류,127.356946371309,37.2061439725816
덕평자연휴게소 국도주차장,이천시,경기 이천시 호법면 단천리 산 50-3,실외,야외시설,127.391420633665,37.2428931215958
이천온천공원 주차장3,이천시,경기 이천시 영창로 260,미분류,미분류,127.451519574146,37.2799477382839
이천농협하나로마트 주차장,이천시,경기 이천시 영창로 235,실외,건물주변,127.449181133787,37.2811153621839
8-5기아오토랜드앞 노상공영주차장,이천시,경기 이천시 중리천로 125,실외,노상,127.449304288404,37.2760348735787
스타벅스 이천증포DT 주차장,이천시,경기 이천시 이섭대천로 1443,미분류,미분류,127.45706234697,37.2968406157827
도성주차장,이천시,경기 이천시 부발읍 대산로288번길 96,실외,건물주변,127.474897672616,37.250465531186
뉴스프링빌CC 이천 주차장,이천시,경기 이천시 모가면 두미리 421-94,실외,야외시설,127.420030485615,37.1538383780775
은아주차장,이천시,경기 이천시 창전동 149-15,실내,지상,127.444758067739,37.2816067271548
이천캠핑카카라반 주차장,이천시,경기 이천시 호법면 중부대로798번길 103-43,실외,야외시설,127.413344842019,37.2400829774636
웰링턴컨트리클럽 주차장,이천시,경기 이천시 모가면 사실로725번길 119-73,,,127.419941074626,37.1691169190853
나이스파크 이천 한솔식자재마트 주차장,이천시,경기 이천시 창전동 48-7,실외,건물주변,127.451715634315,37.2836222995145
이천온천공원 1주차장,이천시,경기 이천시 애련정로136번길 84,실외,야외시설,127.453837269681,37.2820977477493
도드람산체육공원 주차장,이천시,경기 이천시 마장면 목리 76,실외,야외시설,127.400208729598,37.2654655578905
SK하이닉스 기숙사 주차장,이천시,경기 이천시 고담동 78-15,실외,건물주변,127.474485342755,37.2477660581747
조은빌딩,이천시,경기 이천시 부발읍 경충대로2050번길 15-46,미분류,미분류,127.493122427051,37.2507163082463
백광의약품,이천시,경기 이천시 이섭대천로 1203,미분류,미분류,127.446499825985,37.277759339183
바른병원2주차장,이천시,경기 이천시 경충대로 2545,실외,건물주변,127.450045723873,37.274060596938
카카오T 창전동주차장,이천시,경기 이천시 영창로 207,미분류,미분류,127.445730690175,37.2811193946852
더크로스비GC 지하주차장,이천시,경기 이천시 호법면 단천리 888,실내,지하,127.413211160643,37.2308705783972
카페진리 주차장,이천시,경기 이천시 진리동 278-1,실외,건물주변,127.454670542242,37.2668309619216
덕평자연휴게소 직원주차장,이천시,경기 이천시 호법면 단천리 1-2,실외,야외시설,127.392166963965,37.2433077435505
창전동148-20 주차장,이천시,경기 이천시 창전동 148-20,실외,노외,127.445731582671,37.2811177694563
한일주차장,이천시,경기 이천시 부발읍 아미리 685-9,미분류,미분류,127.491724396457,37.2495845651798
동원주차장,이천시,경기 이천시 이섭대천로 1197,실외,노외,127.446262116475,37.2771636617635
일송정 주차장,이천시,경기 이천시 모가면 공원로 349,실외,노상,127.47677610071,37.1829086556952
테라스파크관리단,이천시,경기 이천시 부발읍 경충대로2050번길 15-87,미분류,미분류,127.49135152963,37.2518913216183
복하천 제4수변공원 주차장,이천시,경기 이천시 효양로 46,미분류,미분류,127.465861596949,37.2757816560011
10-1 설봉공원입구 노상 공영 주차장,이천시,경기 이천시 관고동 27,실외,노상,127.437507002521,37.2790615714551
대형주차장,이천시,경기 이천시 관고동 487,실외,야외시설,127.427867877488,37.2796682396016
정진 민영 주차장,이천시,경기 이천시 대월면 대흥리 18,실외,노외,127.475817112774,37.2441062901402
지산포레스트 3주차장,이천시,경기 이천시 마장면 해월리 354-3,실외,야외시설,127.344484679695,37.218335973001
청강문화산업대학교 주차장5,이천시,경기 이천시 마장면 해월리 47,실외,노외,127.358786036498,37.2086886454543
나이스파크 이천조원주차장,이천시,경기 이천시 대산로 348,실외,노외,127.47174182669562,37.250509592446
예스파크 주차장4,이천시,경기 이천시 신둔면 도자예술로62번길 130,실외,노외,127.380189660697,37.2909602674673
이천시립박물관 주차장,이천시,경기 이천시 관고동 414,실외,야외시설,127.428152544013,37.2757180714101
예스파크 주차장3,이천시,경기 이천시 신둔면 도자예술로 105,실외,노외,127.384095807538,37.2899961656703
오동추야 주차장,이천시,경기 이천시 증신로 160,실외,건물주변,127.452144783134,37.2902135058937
이천 쌀문화전시관 주차장,이천시,경기 이천시 모가면 공원로 48,실외,야외시설,127.444614577435,37.1771363506619
도담빌딩,이천시,경기 이천시 부발읍 경충대로2050번길 59-69,실외,건물주변,127.492875140608,37.2509081770985
지인 주차장,이천시,경기 이천시 영창로 189,실내,지하,127.443672923673,37.2815032161096
신둔농협하나로마트 본점 주차장,이천시,경기 이천시 신둔면 수광리 258-1,실외,건물주변,127.401146425232,37.3097257028855
KM파크 이천우리마트 주차장,이천시,경기 이천시 이섭대천로 1403,미분류,미분류,127.455114391027,37.2932539144348
이천798 프라이빗파크카라반캠핑카 주차장,이천시,경기 이천시 호법면 중부대로798번길 103-39,실외,야외시설,127.412774427087,37.2400543317788
나이스파크 이천 고담2 주차장,이천시,경기 이천시 고담동 523-1,실내,지상,127.472459405338,37.2496310144853
삼성스토어 장호원점 주차장,이천시,경기 이천시 장호원읍 서동대로8829번길 10-22,실외,건물주변,127.617802685683,37.1157105319382
부림중기주차장,이천시,경기 이천시 마장면 장암리 455,미분류,미분류,127.388378185264,37.281814865739
자수정사우나 주차장,이천시,경기 이천시 관고동 504-4,실외,건물주변,127.436958204884,37.2777338541009
광주요 문화관 주차장,이천시,경기 이천시 신둔면 경충대로 3234,실외,야외시설,127.397804597412,37.3141515753862
다우빌딩 주차장,이천시,경기 이천시 부발읍 경충대로2092번길 76-25,실외,건물주변,127.494782514718,37.2538224585134
이천시립도서관 주차장1,이천시,경기 이천시 창전동 335-2,실외,건물주변,127.436750961089,37.2860467329374
랜드마크ICC야외1주차장,이천시,경기 이천시 어재연로 12,실외,노외,127.443350097762,37.2781981770095
트럭헬퍼 대형화물차주차장 이천수광리점,이천시,경기 이천시 신둔면 경충대로 3201-7,실외,노외,127.400107544122,37.3108821768471
이천시립월전미술관 주차장,이천시,경기 이천시 관고동 381,실외,야외시설,127.425748184372,37.2787962937053
수변공원주차장,이천시,경기 이천시 안흥동 38-2,실외,야외시설,127.465802939244,37.2742585112134
이천농업테마공원 주차장2,이천시,경기 이천시 모가면 공원로 48,실외,야외시설,127.444693293579,37.1790390684092
지산포레스트 7주차장,이천시,경기 이천시 마장면 지산로 267,실외,야외시설,127.3427481152548,37.21877882851538
하이닉스 옥외1주차장,이천시,경기 이천시 고담동 78-14,실외,건물주변,127.474692425227,37.2473401192491
노상공영주차장,이천시,경기 이천시 중리동 435,실외,노상,127.449634648015,37.2748016368637
두산베어스파크 주차장,이천시,경기 이천시 백사면 원적로 668,,,127.457424751653,37.3322747964503
스마트빌딩 주차장,이천시,경기 이천시 안흥로 72,실내,지하,127.455044295739,37.2844427339464
모가생활체육공원 주차장,이천시,경기 이천시 모가면 공원로 161-29,실외,야외시설,127.455390713344,37.1827269707082
나이스파크 이천 코아루휴티스 103동 주차장,이천시,경기 이천시 애련정로 67-23,미분류,미분류,127.452590816363,37.276752190527
한국관광대학교 주차장,이천시,경기 이천시 신둔면 이장로311번길 197-73,실외,건물주변,127.376268363889,37.2825607494419
경기도의료원 이천병원 주차장,이천시,경기 이천시 경충대로 2742,실외,건물주변,127.43272246791268,37.28266337594762
노상공영주차장,이천시,경기 이천시 중리천로 12,실외,노상,127.439256518302,37.2802404910287
사기막골공영노외주차장,이천시,경기 이천시 경충대로2993번길 47,실외,노외,127.412935648082,37.2943645782182
농협하나로마트앞 노상공영주차장,이천시,경기 이천시 창전동 486,실외,노상,127.448765944932,37.2806776837491
경기도의료원 이천병원 지하주차장,이천시,경기 이천시 관고동 515,실내,지하,127.433238256825,37.2828228641935
실천 신학대학원대학교 주차장2,이천시,경기 이천시 신둔면 인후리 11,실외,건물주변,127.381952320045,37.3146641389515
중리동주민센터아래 노상 공영 주차장,이천시,경기 이천시 서희로 42,실외,노상,127.442630401588,37.2793001301464
종합복지타운철골노외주차장,이천시,경기 이천시 남천로 31,실외,건물주변,127.441386375618,37.2778955600588
LP주차장,이천시,경기 이천시 대월면 대산로 269-6,실외,건물주변,127.475759092918,37.2446120048953
이천제일식자재 주차장,이천시,경기 이천시 관고동 107-5,실외,건물주변,127.429174918238,37.2850998880965
KM파크 랜드마크ICC 주차장,이천시,경기 이천시 중리천로 58,실내,지하,127.444158605923,37.2796454482672
복하천제2수변공원 주차장,이천시,경기 이천시 갈산동 50-17,실외,야외시설,127.468442078621,37.2781885814936
지산포레스트 4주차장,이천시,경기 이천시 마장면 해월리 341,실외,야외시설,127.343743179076,37.2195443557229
트럭헬퍼 대형화물차주차장 이천신하리점,이천시,경기 이천시 부발읍 경충대로 2157,실외,노외,127.485565473257,37.2563563920457
이천농업테마공원 주차장3,이천시,경기 이천시 모가면 어농리 산 28-1,실외,야외시설,127.4428067,37.17684758
이천훈련원 주차장2,이천시,경기 이천시 신둔면 도암리 산 2-103,실외,건물주변,127.43362181,37.33011186
장호원교회 주차장,이천시,경기 이천시 장호원읍 장호원리 157-3,실외,건물주변,127.630382157591,37.1202011016884
이천스포츠센터 주차장,이천시,경기 이천시 호법면 중부대로798번길 125,실외,건물주변,127.410979515374,37.2365969775875
LG인화원 주차장1,이천시,경기 이천시 마장면 지산로 167-72,실외,건물주변,127.3551235168304,37.2101175677389
55도 주차장,이천시,경기 이천시 대월면 사동리 33-3,미분류,미분류,127.496964938479,37.2396552552046
수원지방법원 여주지원 이천시법원 주차장,이천시,경기 이천시 구만리로 308,실외,건물주변,127.465420054319,37.2798830887031
나이스파크 농협은행 이천시지부 제2 주차장,이천시,경기 이천시 서희로60번길 47,실외,건물주변,127.445652009716,37.2806457479449
이천훈련원 주차장,이천시,경기 이천시 신둔면 도암리 57-19,실외,노외,127.43381485,37.32757747
향토민속박물관주차장,이천시,경기 이천시 관고동 415-7,실외,야외시설,127.428337941671,37.2749676506093
덕평자연휴게소 대형주차장,이천시,경기 이천시 마장면 각평리,실외,야외시설,127.383219269665,37.2345383771423
테이크그린 주차장,이천시,경기 이천시 부발읍 가산리 491-34,실외,건물주변,127.507324161416,37.2426638582542
설성공영주차장,이천시,경기 이천시 설성면 금당리 78,실외,노외,127.519953260999,37.1322715854233
청강문화산업대학교 주차장3,이천시,경기 이천시 마장면 청강가창로 389-94,실외,노상,127.35416504722,37.2051034126327
차량등록사업소 노외공영주차장,이천시,경기 이천시 부악로 30-45,실외,노외,127.43328557793495,37.27388525405296
양지요양병원 주차장,이천시,경기 이천시 호법면 매곡리 990,실외,건물주변,127.377288840696,37.1878047205953
산타의닭갈비 주차장,이천시,경기 이천시 마장면 덕평로 1062-67,실외,건물주변,127.364714492922,37.2542367852688
송정주차장,이천시,경기 이천시 황무로 792,실외,노외,127.43608022882565,37.30253860547446
대호유료주차장,이천시,경기 이천시 창전동 449-34,실외,노외,127.447939055329,37.2822150030443
아미리 주차장,이천시,경기 이천시 부발읍 아미리 636-1,미분류,미분류,127.495009197374,37.2542537373465
현대주차장,이천시,경기 이천시 부발읍 경충대로 2023,실외,노외,127.492717067772,37.2458464567878
대산주차장,이천시,경기 이천시 대산로 281,실외,노외,127.474094927263,37.2455913485506
Tmap주차 신하 주차장,이천시,경기 이천시 부발읍 대산로 438-33,실외,노외,127.478697174763,37.2566663838438
청강문화산업대학교 주차장4,이천시,경기 이천시 마장면 해월리 33,실외,건물주변,127.355818932872,37.205870112517
이천남초등학교 후문 주차장,이천시,경기 이천시 경충대로2614번길 32,실외,건물주변,127.443116581009,37.2770250055487
마장주차타워,이천시,경기 이천시 마장면 마장로 50,실내,지상,127.357030295228,37.2513633642253
이황리공영주차장,이천시,경기 이천시 장호원읍 이황리 615,실외,노외,127.575608529262,37.1623114061881
10-2 새설봉사거리 노상공영주차장,이천시,경기 이천시 중리동 3-6,실외,노상,127.437768277454,37.2784218633288
건국대학교 주차장6,이천시,경기 이천시 대월면 대평로 60,실외,건물주변,127.485350156761,37.2270023956195
SK 행복주차장,이천시,경기 이천시 고담동 64-16,실외,노외,127.472980578865,37.2510534716822
희원 주차장,이천시,경기 이천시 부발읍 가산리 216-2,실외,건물주변,127.519645062928,37.2414341295481
에프에이유,이천시,경기 이천시 대산로288번길 107,골목길,상가,127.473649457648,37.2503372676112
올바스켓 주차장,이천시,경기 이천시 마장면 오천로 36-8,골목길,상가,127.351794527724,37.2535253114036
신현태,이천시,경기 이천시 경충대로 2566,실외,건물주변,127.447959135541,37.2750053152197
LG인화원 주차장7,이천시,경기 이천시 마장면 지산로 167-72,,,127.352770291316,37.2106309869582
나이스파크 이천 MJ프라자 주차장,이천시,경기 이천시 마장면 오천로 55,미분류,미분류,127.353904845963,37.2523647913823
신둔체육공원 주차장1,이천시,경기 이천시 신둔면 경충대로3234번길 37,살외,야외시설,127.398986609992,37.3147901195057
이천시립도서관 주차장2,이천시,경기 이천시 창전동 335-5,실외,건물주변,127.436929962863,37.2866581431738
현풍곽씨몽래공파 현재공준재공세재공종중,이천시,경기 이천시 이섭대천로 1061-7,실외,건물주변,127.445014348611,37.2648609583558
혜광유료주차장,이천시,경기 이천시 경충대로2586번길 22-9,실외,노외,127.44654484301,37.2761606470387
나이스파크 이천 마장타워 주차장,이천시,경기 이천시 마장면 마장로 16,,야외시설,127.353940313791,37.2531999487469
중앙인터빌 지점,이천시,경기 이천시 호법면 중부대로798번길 103-43,실외,야외시설,127.413345181092,37.2400831564771
한국관광대학교 주차장1,이천시,경기 이천시 신둔면 고척리 363-21,실외,건물주변,127.378924608143,37.2841583692304
진가초등학교 주차장,이천시,경기 이천시 모가면 진가리 155-12,실외,건물주변,127.479716122859,37.1738452346713
동아제약 주차장,이천시,경기 이천시 경충대로2946번길 19,실외,야외시설,127.419540008821,37.2967921563057
장호원레포츠공원 주차장,이천시,경기 이천시 장호원읍 서동대로8829번길 76,실외,야외시설,127.614566151172,37.1174411508961
경기도의료원 이천병원 주차장2,이천시,경기 이천시 관고동 515,실내,지상,127.433238256825,37.2828228641935
이천시청 주차장2,이천시,경기 이천시 부악로 38-52,실외,건물주변,127.432591722592,37.2724281167258
두산베어스파크 주차장2,이천시,경기 이천시 백사면 원적로 668,실외,야외시설,127.455303643917,37.3338075106001
신우카세차장,이천시,경기 이천시 경충대로 2598,미분류,미분류,127.444435563978,37.2755262383134
Tmap주차 창전동466-4 주차장,이천시,경기 이천시 애련정로 103,골목길,주택가,127.450090245373,37.2796446681221
청암관광농원 주차장,이천시,경기 이천시 부발읍 황무로1720번길 74,미분류,미분류,127.516350140786,37.2672484734244
이황리 환승주차장,이천시,경기 이천시 장호원읍 경충대로597번길 243,실외,노외,127.575569864398,37.1622604146246
이천훈련원 주차장3,이천시,경기 이천시 신둔면 도암리 산 2-108,미분류,미분류,127.43548428,37.33062762
주차장,이천시,경기 이천시 대월면 대월로 848,실외,건물주변,127.494101991087,37.2312699266181
건국대학교 스포츠과학타운 주차장1,이천시,경기 이천시 대월면 대흥리 176-6,실외,야외시설,127.481078243498,37.2283142579195
건국대학교스포츠과학타운 주차장2,이천시,경기 이천시 대월면 대흥리 산 176-6,실외,야외시설,127.48154524,37.22757657
신둔체육공원 주차장2,이천시,경기 이천시 신둔면 경충대로3234번길 37,실외,야외시설,127.398235841786,37.3153224532378
이천훈련원 주차장2,이천시,경기 이천시 신둔면 도암리 57-38,실외,노외,127.43287569,37.33065161
