name,region,address,type1,type2,lon,lat
교각아래두물머리 제5공용주차장,양평군,경기 양평군 양서면 양수리 769-2,실외,노상,127.316928819294,37.5367190014613
사나사계곡주차장,양평군,경기 양평군 옥천면 사나사길 204,실외,야외시설,127.500324114319,37.5296993438924
두물머리 세미원 무료주차장,양평군,경기 양평군 양서면 용담리 580-13,실외,노외,127.323067363178,37.542199346406
스타벅스 더양평DT점 주차장,양평군,경기 양평군 양평읍 양근리 501-3,실외,건물주변,127.481696098535,37.4970294712052
개군할머니 토종순대국 본점 주차장,양평군,경기 양평군 개군면 하자포리 220-27,실외,건물주변,127.537544733014,37.425421373283
양평물맑은시장 공영주차장,양평군,경기 양평군 양평읍 양근리 166-9,실외,노외,127.49256199392,37.4909321186314
중원계곡 주차장1,양평군,경기 양평군 용문면 중원리 706,실외,야외시설,127.61667830047,37.5398830863488
양수역공영주차장,양평군,경기 양평군 양서면 용담리 253-2,실외,노외,127.328921587142,37.5447570590515
양평시장 공영주차장,양평군,경기 양평군 양평읍 양근리 380,실내,지상,127.491079800135,37.4916562049054
느티나무주차장,양평군,경기 양평군 양서면 양수리 772-1,실외,야외시설,127.316180506213,37.5340987453029
신내서울해장국집 본점 주차장,양평군,경기 양평군 개군면 신내길 14-1,실외,건물주변,127.527642192151,37.465220466034
주차장,양평군,경기 양평군 양서면 양수리 1157,실외,야외시설,127.319453708257,37.5418799536584
대디스바베큐 주차장,양평군,경기 양평군 옥천면 옥천문화마을3길 15-24,실외,건물주변,127.463283149705,37.5126919077776
두물머리장원한정식 제1주차장,양평군,경기 양평군 양서면 양수리 657,실외,건물주변,127.318299477389,37.5440710490508
소리산소금강주차장,양평군,경기 양평군 단월면 석산리 산 100-11,실외,야외시설,127.610855993596,37.6269715437723
중원계곡 주차장2,양평군,경기 양평군 용문면 중원리 607-5,실외,야외시설,127.619907848122,37.548938290772
용문산관광지 관광객주차장,양평군,경기 양평군 용문면 신점리 524-5,실외,야외시설,127.583423221745,37.5450199373521
양서문화체육공원 주차장,양평군,경기 양평군 양서면 양수로 105,실외,야외시설,127.322973180111,37.5416917126094
무료공영주차장,양평군,경기 양평군 양서면 용담리 535-7,실외,노외,127.32355242325,37.5418790657766
용문천년시장 공영주차장,양평군,경기 양평군 용문면 다문리 798-1,실외,노상,127.590084598419,37.4808169472532
칸트의마을 주차장,양평군,경기 양평군 강하면 강남로 102-10,실외,야외시설,127.399960238854,37.4922327385719
본가양평해장국 주차장,양평군,경기 양평군 강상면 강남로 837-1,실외,노상,127.471131436552,37.4908542822625
내추럴가든529 주차장,양평군,경기 양평군 서종면 수입리 522,실외,야외시설,127.38183373445,37.6378371770881
양평역 1주차장,양평군,경기 양평군 양평읍 역전길 30,실외,노외,127.490620003041,37.4934839889967
용문역 1주차장,양평군,경기 양평군 용문면 다문리 747-4,실외,노외,127.593205108203,37.482056679167
양평공용주차장,양평군,경기 양평군 양서면 용담리 507-10,실외,노외,127.325332527485,37.5425801052009
양동농협하나로마트 주차장,양평군,경기 양평군 양동면 학둔지아래길 111,실외,건물주변,127.755858351162,37.4173744008173
양동역 주차장,양평군,경기 양평군 양동면 쌍학리 223-7,실외,노외,127.754084235405,37.4208292546825
사나사주차장,양평군,경기 양평군 옥천면 용천리 305-3,실외,야외시설,127.506333062842,37.5385163372403
테라로사 서종점 주차장,양평군,경기 양평군 서종면 북한강로 990,실외,건물주변,127.354531294259,37.6249158085823
양평백운봉자연휴양림 주차장1,양평군,경기 양평군 양평읍 백안리 786-10,실외,야외시설,127.518407451769,37.5153450233012
원덕역 주차장,양평군,경기 양평군 양평읍 원덕리 312-5,실외,노외,127.546352717238,37.4686572688075
경기양평 국립교통재활병원 2 주차장,양평군,경기 양평군 양평읍 중앙로 260,실외,건물주변,127.518831920029,37.489680628593
구하우스 미술관 주차장,양평군,경기 양평군 서종면 문호리 779-17,실외,건물주변,127.351144424629,37.6030515683532
어무이맛양평해장국 주차장,양평군,경기 양평군 양평읍 중앙로 88,실외,건물주변,127.4985125896104,37.49394829860936
대명양평콘도미니엄 주차장3,양평군,경기 양평군 개군면 신내길7번길 55,실외,건물주변,127.533831827019,37.469005701681
스타벅스 경기양평점 주차장,양평군,경기 양평군 양평읍 시민로 75,실외,건물주변,127.500052568099,37.4910405756674
투썸플레이스 서종리버사이드점 주차장,양평군,경기 양평군 서종면 문호리 618-12,실외,건물주변,127.353497203899,37.6242991251129
구벼울 주차장,양평군,경기 양평군 옥천면 남한강변길 123-19,실외,건물주변,127.424925876749,37.5088186667468
양평광탄1991고바우설렁탕 주차장,양평군,경기 양평군 용문면 은고갯길 5,실외,건물주변,127.62981013804,37.5070469932596
옥천냉면황해식당 본점 주차장,양평군,경기 양평군 옥천면 고읍로 140,실외,건물주변,127.45776291272,37.5198195871032
용문산자연휴양림 주차장2,양평군,경기 양평군 양평읍 백안리 산 68-1,실외,야외시설,127.519419817144,37.5160492074347
박승광해물칼국수 서종직영점 주차장,양평군,경기 양평군 서종면 북한강로 962,실외,건물주변,127.353174804914,37.6227402189637
양수리한옥집 주차장,양평군,경기 양평군 양서면 양수로138번길 41,실외,건물주변,127.321852913519,37.5474154627535
아신역 주차장,양평군,경기 양평군 옥천면 아신리 359-3,실외,노외,127.443105656936,37.5136938387664
갈산공원 주차장,양평군,경기 양평군 양평읍 창대리 산 23,실외,야외시설,127.496063035491,37.4845055993785
케이엠파크 신원역주차장,양평군,경기 양평군 양서면 신원리 486-10,실외,노외,127.371583148329,37.5273658187656
중앙선신원역 주차장,양평군,경기 양평군 양서면 신원역길 7,실외,야외시설,127.373060863025,37.5255270904681
양수3리공영주차장,양평군,경기 양평군 양서면 양수리 531-4,실외,노상,127.321238613917,37.549378421576
이함캠퍼스 주차장,양평군,경기 양평군 강하면 전수리 529-4,실외,건물주변,127.4251682391,37.5027734444608
청계산등산로 주차장,양평군,경기 양평군 양서면 국수리 산 50,실외,야외시설,127.398725575706,37.5199881468788
오빈역 주차장,양평군,경기 양평군 양평읍 오빈리 238-99,실외,노외,127.474371013859,37.505796629212
수수카페 주차장,양평군,경기 양평군 양서면 양수리 501-22,실외,건물주변,127.321774000811,37.5518023514332
수풀로 양수리 주차장,양평군,경기 양평군 양서면 양수리 578-3,실외,건물주변,127.320553386648,37.5475237834902
롯데마트 경기양평점 주차장,양평군,경기 양평군 양평읍 남북로 76,실외,건물주변,127.502644691152,37.4894194910824
양평강상설렁탕 주차장,양평군,경기 양평군 강상면 병산리 1074,실외,노상,127.455393505992,37.4987409955342
양평파라다이스 주차장1,양평군,경기 양평군 용문면 용문로164번길 5,미분류,미분류,127.575074878236,37.4815270621041
용문산관광지 5주차장,양평군,경기 양평군 용문면 신점리 374-1,실외,야외시설,127.584178815736,37.5442289190483
개군레포츠공원 주차장,양평군,경기 양평군 개군면 하자포리 375,실외,야외시설,127.531353301458,37.4327737394657
용문공영주차장,양평군,경기 양평군 용문면 다문리 344-2,실내,지상,127.595786175101,37.4866694941107
물맑은양평체육관 주차장,양평군,경기 양평군 양평읍 마유산로 11,실외,건물주변,127.485752507314,37.4967279656746
카페문릿 주차장,양평군,경기 양평군 용문면 마룡리 594-2,실외,건물주변,127.596779609115,37.5037389484964
지평역 주차장,양평군,경기 양평군 지평면 지평리 1120-10,실외,노외,127.630041823792,37.4763755008819
코바코연수원 주차장1,양평군,경기 양평군 강상면 강남로 1375,실외,야외시설,127.494176636049,37.4518068547896
양수역 유료주차장,양평군,경기 양평군 양서면 용담리 235-13,실외,노외,127.328842901585,37.5457522473669
옥천냉면황해식당 주차장,양평군,경기 양평군 옥천면 옥천리 888-4,실외,건물주변,127.449715164662,37.5110670495195
옥천면옥 주차장,양평군,경기 양평군 옥천면 옥천리 740-8,골목길,상가,127.455505097629,37.5180570486562
양평휴게소 원주방향 주차장,양평군,경기 양평군 양동면 단석리 506-2,실외,야외시설,127.72673574,37.39624293
강이다 주차장,양평군,경기 양평군 양서면 양수리 508-8,실외,야외시설,127.320407062769,37.5503773614267
양평군공영주차장,양평군,경기 양평군 양평읍 양근로147번길 8,실내,지상,127.488448169077,37.4926784858564
용문역 3주차장,양평군,경기 양평군 용문면 다문리 249-1,실외,노외,127.59537587609,37.4819423257516
미리내캠프주차장,양평군,경기 양평군 지평면 월산저수지길 21,실외,건물주변,127.649006619712,37.4814684342549
머무름막국수 주차장,양평군,경기 양평군 단월면 수미길 112,실외,야외시설,127.641478653617,37.5157735352566
양평들꽃수목원주차장,양평군,경기 양평군 양평읍 경강로 1704,실외,건물주변,127.470300684641,37.5026486917645
용문 생활체육공원 주차장,양평군,경기 양평군 용문면 다문리 835,실외,야외시설,127.58733902061,37.478297295014
용문농협하나로마트 본점 주차장,양평군,경기 양평군 용문면 다문리 726-2,실외,건물주변,127.593780888252,37.4850660866528
물맑은양평종합운동장 주차장1,양평군,경기 양평군 양평읍 도곡리 산 64,실외,야외시설,127.52125404,37.49070386
사슬고개 주차장,양평군,경기 양평군 강상면 화양리 산 101-5,실외,야외시설,127.488310503795,37.4493145508555
양평생활체육공원 주차장,양평군,경기 양평군 양평읍 양평체육공원길 4,실외,야외시설,127.498475653778,37.4837959988849
용문산관광지 6주차장,양평군,경기 양평군 용문면 신점리 371-1,실외,야외시설,127.58560533875,37.5439514667642
예지현 주차장,양평군,경기 양평군 양평읍 관문길8번길 7,실외,건물주변,127.494549722684,37.4911014913869
양평군청 주차장2,양평군,경기 양평군 양평읍 군청앞길 2,실외,건물주변,127.487305478987,37.491540738368
양평외갓집체험마을 주차장,양평군,경기 양평군 청운면 신론리 270-1,실외,야외시설,127.775206178301,37.5601600370153
양평한우마을 주차장,양평군,경기 양평군 강하면 전수리 567-2,실외,건물주변,127.419700756649,37.5007932281866
강상체육공원 주차장,양평군,경기 양평군 강상면 교평리 433,실외,야외시설,127.486160555069,37.4844697264416
메덩골정원 주차장,양평군,경기 양평군 양동면 금왕리 272-2,미분류,미분류,127.72972881407,37.4923656651224
양평휴게소 광주방향 주차장,양평군,경기 양평군 양동면 여양3로 384-27,실외,야외시설,127.723529528995,37.3982303876904
돗가비불쭈꾸미 주차장,양평군,경기 양평군 용문면 용문산로 207,실외,건물주변,127.602848427699,37.5156065374581
양평군민회관 주차장2,양평군,경기 양평군 양평읍 양근리 518,실외,건물주변,127.485316255655,37.4963998131502
더스타휴 골프앤리조트 주차장,양평군,경기 양평군 양동면 양동로 756,,,127.70166471252,37.4765723816971
양평해장국 전용주차장,양평군,경기 양평군 용문면 다문리 737-19,실외,건물주변,127.593662527448,37.4826821957598
별그리다 주차장,양평군,경기 양평군 양동면 양동금곡1길 331,실외,건물주변,127.790203285898,37.4199356948069
양서농협하나로마트 서종점 주차장,양평군,경기 양평군 서종면 문호리 779-1,실외,건물주변,127.35172678553,37.6027747631894
양평장로교회 주차장,양평군,경기 양평군 양평읍 양근리 210,실외,건물주변,127.493030895474,37.4887786673254
계정횟집 주차장,양평군,경기 양평군 양동면 양서북로 666-13,실외,건물주변,127.774671847206,37.4689552031144
노상공영주차장,양평군,경기 양평군 용문면 다문리 780-11,실외,노상,127.590745713612,37.4812695477533
제일식당 전용주차장,양평군,경기 양평군 용문면 다문리 717-5,실외,건물주변,127.592553760034,37.4838170703078
양평농협하나로마트 본점 주차장,양평군,경기 양평군 양평읍 남북로 96,실외,건물주변,127.502699027022,37.4911158401333
농협은행 양평군지부 주차장,양평군,경기 양평군 양평읍 양근리 429,실외,건물주변,127.489342127753,37.490212356533
양평병원 주차장2,양평군,경기 양평군 양평읍 중앙로 129,실외,건물주변,127.503029619273,37.4938750913957
오커빌리지 주차장,양평군,경기 양평군 용문면 장수길 22,실외,야외시설,127.564318162803,37.5088574667653
시그니처아파트앞 공영주차장,양평군,경기 양평군 양평읍 양근리 703,실외,건물주변,127.497031829012,37.4870391925998
청운면사무소 주차장,양평군,경기 양평군 청운면 용두리 625-1,실외,건물주변,127.710720199139,37.556254576203
양평도서관 주차장,양평군,경기 양평군 양평읍 양근리 545-1,실외,건물주변,127.484594180683,37.4969362584004
양근천제방 공영주차장,양평군,경기 양평군 양평읍 양근리 403-15,실외,노상,127.490192272986,37.4915014051556
용문산관광지 3대형주차장,양평군,경기 양평군 용문면 신점리 377,실외,야외시설,127.583730120178,37.5447756946647
다나암병원 주차장1,양평군,경기 양평군 강하면 사호1길 51,실외,건물주변,127.418962019785,37.4971440074902
양서농협하나로마트 본점 주차장,양평군,경기 양평군 양서면 양수로152번길 10,실외,야외시설,127.319048307346,37.545762269258
설매재자연휴양림 주차장,양평군,경기 양평군 옥천면 용천리 1035-5,실외,야외시설,127.509538805626,37.5583259382254
양수리송어횟집 주차장,양평군,경기 양평군 양서면 양수리 617-2,실외,건물주변,127.31700090936,37.5459432973491
양평농협하나로마트 옥천점 주차장,양평군,경기 양평군 옥천면 고읍로 156,실외,건물주변,127.459164531702,37.5205709826369
서종문화체육공원 주차장,양평군,경기 양평군 서종면 문호리 928-9,실외,야외시설,127.346313527344,37.5920852446107
수곡지주차장,양평군,경기 양평군 지평면 수곡리 산 97,실외,건물주변,127.599476058612,37.4411298520213
양평군민회관 주차장3,양평군,경기 양평군 양평읍 양근리 645-6,실외,야외시설,127.486176173271,37.4966491875038
나인블럭 서종점 주차장,양평군,경기 양평군 서종면 중미산로 45,실외,건물주변,127.357151072979,37.6036256717633
양평장로교회 제2주차장,양평군,경기 양평군 양평읍 양근리 225-1,실외,노외,127.492888805032,37.4883029920625
한국야쿠르트인재개발원 주차장,양평군,경기 양평군 단월면 한서로 1468,실외,건물주변,127.633249355631,37.6396475521019
하우스베이커리 주차장,양평군,경기 양평군 서종면 북한강로 684,실외,건물주변,127.352788157807,37.5984436173666
양평읍 공영주차장,양평군,경기 양평군 양평읍 양근리 234-3 1-4층,미분류,미분류,127.49363948,37.48613728
물맑은양평종합운동장 주차장2,양평군,경기 양평군 양평읍 도곡리 584-3,실외,야외시설,127.52525927,37.49104652
양동레포츠공원 주차장3,양평군,경기 양평군 양동면 원양2로 832,실외,야외시설,127.754671107066,37.4062276190514
양평군민회관 주차장1,양평군,경기 양평군 양평읍 양근리 510-1,실외,건물주변,127.484594180683,37.4969362584004
카페트레져 주차장,양평군,경기 양평군 용문면 광탄리 591-16,실외,건물주변,127.623829456644,37.508728174621
양평역 연계 공영주차장,양평군,경기 양평군 양평읍 양근리 69-3,미분류,미분류,127.487740914045,37.4974496713282
노상공영주차장,양평군,경기 양평군 양평읍 양근리 616,실외,노상,127.496062030335,37.490423816833
민물고기연구소 주차장2,양평군,경기 양평군 용문면 상광길 23-6,실외,건물주변,127.638333746061,37.5122864459949
용문산관광지 4대형주차장,양평군,경기 양평군 용문면 신점리 375-10,실외,야외시설,127.584266495835,37.5445169813258
오온갤러리카페 주차장,양평군,경기 양평군 강하면 왕창리 723-5,실외,건물주변,127.388700590587,37.4827646538997
옥천레포츠공원 주차장,양평군,경기 양평군 옥천면 옥천체육공원길 40,실외,야외시설,127.45843243845,37.5214613069668
민물고기연구소 주차장1,양평군,경기 양평군 용문면 광탄리 235-27,실외,건물주변,127.63787484527,37.5111401632232
소노휴양평 지하주차장,양평군,경기 양평군 개군면 신내길7번길 55,실내,지하,127.533347717119,37.4689646397459
청운레포츠공원 주차장,양평군,경기 양평군 청운면 여물리 115,실외,야외시설,127.700306435335,37.5518422658624
지평레포츠공원 주차장,양평군,경기 양평군 지평면 송정길 130,실외,야외시설,127.633152948145,37.4897246702009
국립산음자연휴양림 주차장1,양평군,경기 양평군 단월면 고북길 347,,,127.575293451483,37.5960019777549
청운골생태마을 주차장3,양평군,경기 양평군 청운면 오목골길 33,실외,야외시설,127.73482123943,37.5615318228658
정내과의원주차장,양평군,경기 양평군 용문면 다문리 321-6,실외,건물주변,127.595543549474,37.4853329192598
양근쌈지공원 주차장,양평군,경기 양평군 양평읍 양근리 705,실외,야외시설,127.49865157797,37.4877080264506
향리지주차장,양평군,경기 양평군 개군면 향리 산 42-5,실외,야외시설,127.56543152176,37.432875396259
대평지주차장,양평군,경기 양평군 지평면 대평리 754-2,미분류,미분류,127.632788329067,37.4221494903624
양동레포츠공원 주차장2,양평군,경기 양평군 양동면 쌍학리 739-47,실외,야외시설,127.755704831367,37.4064005853676
청솔학원 양평캠퍼스 주차장,양평군,경기 양평군 용문면 상광길 23-2,실외,건물주변,127.638337809708,37.5122323646541
물맑은양평종합운동장 주차장3,양평군,경기 양평군 양평읍 도곡리 503-1,실외,야외시설,127.52212427,37.48901515
양평문화체육센터 주차장1,양평군,경기 양평군 양평읍 농업기술센터길 37,실외,야외시설,127.513441971628,37.5090715521949
주차장,양평군,경기 양평군 양서면 도곡리 575,실외,노외,127.37754166018,37.5173862124085
케이엠파크 국수역주차장,양평군,경기 양평군 양서면 국수리 258-31,실외,노외,127.40028686271,37.5159468468564
양평문화체육센터1주차장,양평군,경기 양평군 양평읍 공흥리 1-1,실외,야외시설,127.513294183519,37.5092420321106
아신대학교 제1주차장,양평군,경기 양평군 옥천면 아신리 933-9,실외,노외,127.430353235335,37.5108746468544
양평군민회관 주차장4,양평군,경기 양평군 양평읍 양근리 645-5,실외,야외시설,127.486750520613,37.49689252458
용문산자연휴양림 주차장4,양평군,경기 양평군 양평읍 백안리 786-3,실외,야외시설,127.518204474453,37.5157623534993
양동레포츠공원 주차장1,양평군,경기 양평군 양동면 쌍학리 45-2,실외,야외시설,127.755224209873,37.4064645640488
아마노 양평농협본점 주차장,양평군,경기 양평군 양평읍 시민로 81,실외,건물주변,127.500704499072,37.4913027079727
소노휴양평 주차장4,양평군,경기 양평군 개군면 신내길7번길 77,실외,야외시설,127.535021936919,37.4691336671516
내리 노인회관 주차장,양평군,경기 양평군 개군면 내리 405-1,실외,건물주변,127.559771649281,37.4420978053511
강하생활체육공원 주차장1,양평군,경기 양평군 강하면 사호3길 45,실외,야외시설,127.414870630286,37.4967367785754
양평파라다이스 주차장2,양평군,경기 양평군 용문면 용문로 170,실외,건물주변,127.575716345344,37.4814338384013
별밤이야기 주차장,양평군,경기 양평군 단월면 삼가리 34-7,실외,야외시설,127.681487868222,37.5229495346068
헤리베르 주차장,양평군,경기 양평군 강하면 산수로 3096,실외,건물주변,127.389536596145,37.4924147015038
한국국토정보공사 양평지사 주차장,양평군,경기 양평군 양평읍 양근로 127,실외,건물주변,127.486517816406,37.4942289608891
새이레교육공동체 주차장,양평군,경기 양평군 옥천면 용천로 474,실외,건물주변,127.507956141823,37.558058767466
용문청소년수련원 주차장,양평군,경기 양평군 용문면 덕촌길 125,실외,야외시설,127.597453812143,37.5062005659826
스카이투,양평군,경기 양평군 옥천면 옥천리 834-2,미분류,미분류,127.452902431319,37.5278660117325
새우개주차장,양평군,경기 양평군 양동면 석곡리 산 20-13,미분류,미분류,127.742695894795,37.4459122003262
청운골생태마을 주차장2,양평군,경기 양평군 청운면 다대리 산 45,실외,야외시설,127.735075756845,37.5603888800434
주차장,양평군,경기 양평군 청운면 용두리 781-1,실외,노외,127.708025212571,37.55377712654
휴양록주차장,양평군,경기 양평군 청운면 도원리 837-2,실외,야외시설,127.790139348616,37.5499179465895
KOBACO연수원 주차장2,양평군,경기 양평군 강상면 화양리 41-2,실외,건물주변,127.494163606942,37.4529185687273
아신대학교 교직원주차장,양평군,경기 양평군 옥천면 아신리 933-8,실외,노외,127.429989679171,37.5113809801406
다나암병원 주차장3,양평군,경기 양평군 강하면 사호1길 43-12,실외,건물주변,127.418821400611,37.4978833262849
양평문화체육센터 주차장2,양평군,경기 양평군 양평읍 농업기술센터길 59,실외,건물주변,127.513121541961,37.5105073289494
